{"type": "Feature","id": "2250","bbox": [22.72434,43.11119,23.63332,43.88659],"geometry": {"type": "Polygon","coordinates": [[[23.62085,43.83401,27.4214],[23.5927,43.83743,31.4084],[23.4847,43.8806,26.4086],[23.32515,43.88659,28.9773],[23.23448,43.8773,33.7329],[23.19696,43.86275,33.8385],[23.16192,43.85732,35.2731],[23.13185,43.84794,32.0199],[23.05255,43.84282,32.5639],[23.04813,43.80704,25.0],[23.04018,43.78356,30.129],[23.01547,43.77852,33.4587],[22.99088,43.77991,34.2466],[22.97517,43.76575,151.1831],[22.98995,43.75201,140.1933],[23.0101,43.74842,175.4113],[23.02943,43.7425,160.8353],[23.03594,43.72214,119.8615],[23.04689,43.70167,93.8941],[23.03594,43.68757,97.4979],[22.98757,43.67441,195.2556],[22.95264,43.63475,223.239],[22.93806,43.58106,219.1836],[22.94902,43.56615,263.4409],[22.97093,43.56259,263.5252],[22.97692,43.5436,268.9312],[22.96866,43.5268,305.1309],[22.91243,43.51409,560.7382],[22.85466,43.50926,508.652],[22.81766,43.49915,706.9822],[22.7975,43.49089,447.071],[22.79802,43.46975,607.2302],[22.77156,43.41725,1470.3157],[22.72434,43.38606,1624.4084],[22.73301,43.38151,1605.9653],[22.80453,43.32898,1633.4469],[22.81714,43.3155,1838.1826],[22.82076,43.30754,1911.3064],[22.82386,43.2893,1582.5],[22.82696,43.28139,1335.6239],[22.83316,43.27465,1299.0641],[22.85734,43.25695,1313.804],[22.8838,43.23059,1493.8944],[22.89775,43.22033,1525.835],[22.91553,43.21225,1504.2517],[22.96473,43.20442,1632.8198],[22.98137,43.19899,1655.1201],[22.9829,43.18732,1781.5189],[23.02891,43.19493,1805.0471],[23.10105,43.13181,1362.3894],[23.1273,43.11716,1404.8464],[23.22032,43.11119,1543.5442],[23.25474,43.123,1421.9281],[23.28605,43.12915,1146.2969],[23.31809,43.12083,1294.6414],[23.36274,43.1337,773.6743],[23.39891,43.16295,1132.2776],[23.39664,43.18987,717.0846],[23.42465,43.20677,518.4309],[23.45069,43.2086,948.371],[23.46351,43.23147,972.2213],[23.40191,43.25617,632.603],[23.32719,43.27565,240.2747],[23.33566,43.30333,255.6625],[23.36036,43.32578,275.8218],[23.38072,43.35356,235.6516],[23.40501,43.37854,202.4112],[23.41276,43.41748,185.193],[23.4108,43.45593,188.6983],[23.44139,43.48802,190.1512],[23.48222,43.5053,110.9505],[23.50619,43.4944,171.4926],[23.52614,43.49337,148.6423],[23.54619,43.4944,132.5647],[23.56852,43.51344,124.0111],[23.59249,43.52701,138.1623],[23.60903,43.51923,149.7949],[23.62278,43.5283,157.8726],[23.62154,43.54055,134.8809],[23.60924,43.54553,138.4724],[23.59859,43.55334,58.1221],[23.59084,43.56305,77.5536],[23.57864,43.56597,79.6173],[23.568,43.5716,115.4159],[23.55105,43.58383,124.0044],[23.55642,43.59868,105.8813],[23.5741,43.60778,125.9709],[23.58578,43.62103,140.4586],[23.58422,43.63325,141.8929],[23.58681,43.64511,138.9285],[23.60665,43.67832,136.0046],[23.62247,43.7141,142.6534],[23.63332,43.80094,26.2064],[23.62085,43.83401,27.4214]]]}
,"properties": {"ISO3166-1-Alpha-3": "BGR","country": "Bulgaria","fill": "#F0F","name": "Montana","area_km2": 3833.115,"hist_schema_id": "Elevation0-9000","hist_area_km2": {"25": 274.463,"50": 57.036,"75": 142.135,"100": 216.433,"125": 262.812,"150": 603.817,"175": 320.615,"200": 208.725,"225": 180.004,"250": 144.408,"275": 105.984,"300": 82.572,"325": 66.344,"350": 64.401,"375": 64.06,"400": 62.402,"425": 58.142,"450": 55.83,"475": 50.86,"500": 50.069,"525": 44.87,"550": 41.674,"575": 39.435,"600": 35.595,"625": 36.457,"650": 31.51,"675": 29.873,"700": 28.055,"725": 25.186,"750": 23.985,"775": 23.415,"800": 21.659,"825": 20.751,"850": 18.779,"875": 17.346,"900": 16.374,"925": 15.22,"950": 14.358,"975": 13.526,"1000": 12.432,"1025": 11.953,"1050": 10.393,"1075": 10.578,"1100": 10.023,"1125": 9.714,"1150": 9.312,"1175": 8.278,"1200": 8.525,"1225": 7.537,"1250": 7.613,"1275": 7.073,"1300": 7.506,"1325": 7.35,"1350": 7.35,"1375": 7.211,"1400": 7.583,"1425": 7.398,"1450": 6.982,"1475": 6.719,"1500": 6.179,"1525": 6.967,"1550": 6.813,"1575": 7.726,"1600": 7.741,"1625": 7.324,"1650": 7.571,"1675": 7.355,"1700": 6.473,"1725": 4.896,"1750": 4.03,"1775": 3.845,"1800": 3.056,"1825": 2.809,"1850": 2.948,"1875": 2.732,"1900": 2.114,"1925": 1.096,"1950": 0.493,"1975": 0.154,"2000": 0.077}}}