{"type":"Feature","properties":{"GID_1":"BGR.10_1","GID_0":"BGR","country":"Bulgaria","state":"Montana","VARNAME_1":"Mikhaylovgrad|Mihailovgrad","NL_NAME_1":"Монтана","TYPE_1":"Oblast","ENGTYPE_1":"Province","CC_1":"NA","HASC_1":"BG.MT","ISO_1":"BG-12","name":"Montana.state"},
"geometry":{"type": "MultiPolygon","coordinates": [[[[23.3255,43.3009,214.6099],[23.3298,43.3111,205.6753],[23.3592,43.3294,273.4044],[23.3703,43.3382,290.0605],[23.3833,43.3563,248.6617],[23.3877,43.373,263.7119],[23.3927,43.3812,238.383],[23.3958,43.3851,247.0041],[23.408,43.3927,215.2843],[23.4119,43.4026,186.5187],[23.4121,43.4073,200.7708],[23.4088,43.4186,175.3956],[23.4031,43.4248,195.7739],[23.4019,43.4484,149.823],[23.4209,43.4837,178.2452],[23.4314,43.5072,161.8583],[23.4352,43.5104,112.8322],[23.4422,43.5137,125.8103],[23.4521,43.5139,113.4952],[23.4582,43.5131,91.5302],[23.4777,43.5055,94.305],[23.4898,43.5048,90.0639],[23.4923,43.5033,102.1205],[23.5011,43.5053,125.6491],[23.5139,43.5056,130.7001],[23.5293,43.5018,159.5716],[23.5421,43.5018,144.7789],[23.5513,43.5044,132.9234],[23.5572,43.5079,141.6839],[23.5684,43.5218,131.1819],[23.576,43.528,110.3585],[23.619,43.5268,154.3906],[23.6236,43.528,157.8726],[23.6273,43.5312,155.8064],[23.6274,43.5394,142.293],[23.616,43.5524,127.3487],[23.6025,43.5622,58.3835],[23.5567,43.5887,116.6924],[23.5494,43.5941,95.9978],[23.5485,43.5983,84.5452],[23.5497,43.6058,133.3744],[23.553,43.6113,135.4702],[23.583,43.6373,138.6782],[23.5864,43.6425,139.5217],[23.5896,43.6513,138.007],[23.5899,43.6699,136.7051],[23.5934,43.683,134.7072],[23.6073,43.6916,142.4026],[23.6161,43.7226,141.586],[23.6194,43.7284,145.5959],[23.6338,43.7438,112.6872],[23.6352,43.7516,83.9972],[23.6346,43.759,96.5796],[23.6273,43.7732,95.6096],[23.6228,43.7914,21.5],[23.6138,43.7919,21.5],[23.5951,43.7976,27.2337],[23.5939,43.7956,22.0],[23.5825,43.7974,22.0],[23.5694,43.8011,22.0],[23.571,43.8038,23.1373],[23.5453,43.8122,23.1242],[23.5253,43.8235,25.1229],[23.5271,43.8249,30.649],[23.5219,43.8285,29.9531],[23.509,43.8342,32.9486],[23.4658,43.8404,23.0],[23.4377,43.8504,23.0],[23.4167,43.8531,23.0],[23.3892,43.8508,23.5],[23.375,43.8479,23.5],[23.3274,43.8503,23.5],[23.2693,43.8471,24.0],[23.2405,43.8375,24.0],[23.2305,43.8377,24.5],[23.2144,43.8333,24.5],[23.1323,43.8057,25.0],[23.0553,43.7959,25.0],[23.0446,43.7966,25.0],[23.0453,43.7985,25.0],[23.0357,43.8019,25.0],[23.0214,43.7923,25.0],[23.0092,43.7874,35.0511],[22.9698,43.7889,36.2939],[22.9583,43.787,118.2343],[22.9529,43.7824,96.9698],[22.9482,43.7726,54.1767],[22.9488,43.767,56.8705],[22.9525,43.7587,105.2967],[22.9929,43.754,169.2074],[23.017,43.7468,169.3457],[23.0301,43.7375,150.418],[23.0415,43.7244,120.7533],[23.0449,43.7163,94.3246],[23.0431,43.7106,95.9617],[23.0259,43.7017,102.7426],[23.0009,43.6993,110.5542],[22.9943,43.6968,113.8544],[22.9777,43.6859,116.4526],[22.9654,43.6811,127.937],[22.924,43.6705,136.4888],[22.9231,43.6681,137.4405],[22.9269,43.6588,228.0427],[22.9215,43.648,203.8571],[22.9253,43.6387,232.1161],[22.9265,43.627,213.4815],[22.9183,43.617,241.052],[22.9172,43.5957,229.7185],[22.9129,43.5843,260.3156],[22.9074,43.5759,274.2761],[22.8969,43.5709,281.5066],[22.8772,43.5538,265.5385],[22.8621,43.5296,521.0722],[22.8602,43.5193,547.3613],[22.8566,43.5151,599.5339],[22.8343,43.5009,588.3971],[22.8052,43.4953,523.9636],[22.7931,43.4909,507.9113],[22.7889,43.4869,605.1176],[22.7837,43.4791,482.4235],[22.7832,43.4722,477.3664],[22.7907,43.4507,852.0845],[22.7912,43.4448,1062.7046],[22.7893,43.4373,1227.0668],[22.7671,43.4156,1406.3811],[22.7548,43.4078,1175.3577],[22.7395,43.4019,1281.064],[22.7287,43.3911,1872.1018],[22.7138,43.3801,1373.1885],[22.7203,43.3754,1201.6947],[22.7346,43.3708,1284.0405],[22.7358,43.3609,1106.7885],[22.7379,43.3562,1166.7207],[22.7551,43.3473,1166.5166],[22.7665,43.3351,1418.8344],[22.7773,43.3287,1784.3057],[22.7876,43.3273,1796.3058],[22.8027,43.3207,1564.5417],[22.8077,43.2987,1847.1282],[22.8219,43.286,1542.8384],[22.8195,43.2755,1440.658],[22.8251,43.2654,1250.1776],[22.8387,43.2627,1107.6143],[22.8453,43.2572,1049.7697],[22.8463,43.2442,994.8668],[22.8578,43.2332,1102.8032],[22.8625,43.226,1144.4318],[22.8707,43.2207,1323.2305],[22.8739,43.2142,1457.5292],[22.8828,43.2106,1421.0178],[22.894,43.2089,1414.7166],[22.916,43.1923,1344.1409],[22.9338,43.1975,1480.5392],[22.9487,43.1949,1585.6069],[22.954,43.1923,1434.0638],[22.9577,43.1929,1448.3901],[22.9619,43.1898,1601.8013],[22.997,43.1933,1837.6555],[23.015,43.1986,1827.0404],[23.0263,43.1958,1800.0618],[23.0313,43.1899,1797.1213],[23.0371,43.1771,1601.4547],[23.0442,43.1705,1801.3021],[23.0654,43.1636,1712.1134],[23.087,43.1526,1589.2736],[23.0949,43.1434,1447.4216],[23.1018,43.1273,1375.9218],[23.1092,43.1184,1285.9381],[23.1192,43.1118,1384.322],[23.1372,43.1069,1417.7312],[23.2114,43.1067,1533.4189],[23.2479,43.1115,1575.5193],[23.2784,43.1229,1355.8081],[23.2975,43.1197,1380.0972],[23.3074,43.1197,1329.667],[23.3153,43.1229,1294.0742],[23.3243,43.1299,1238.3418],[23.3338,43.1471,1097.1497],[23.3422,43.1559,883.9385],[23.3526,43.1616,719.7479],[23.3678,43.1627,626.7872],[23.3899,43.1593,1242.5956],[23.4206,43.1586,1063.0302],[23.4192,43.1625,799.765],[23.4048,43.1806,504.1945],[23.4029,43.1991,446.6242],[23.4108,43.2107,394.4691],[23.416,43.2132,473.4973],[23.426,43.2144,483.2653],[23.4474,43.2132,917.9727],[23.4548,43.2155,1057.3],[23.4579,43.2186,989.7357],[23.4604,43.2312,1024.2528],[23.4586,43.238,960.0315],[23.4543,43.2447,892.2356],[23.4426,43.2561,755.8979],[23.4326,43.2615,588.294],[23.4078,43.265,440.3883],[23.3921,43.2652,272.1828],[23.3578,43.2732,278.5651],[23.3393,43.2796,222.7792],[23.3212,43.2908,268.6745],[23.3255,43.3009,214.6099]]]]}}