{"type":"Feature","properties":{"featurecla":"River","scalerank":2,"rivernum":25,"dissolve":"25River","name":"Danube3","name_alt":null,"note":null,"min_zoom":2.1,"strokeweig":0.6,"name_en":"Danube","min_label":3.1},
"geometry":{"type": "LineString","coordinates": [[22.919091796875023,43.834491278119117,33.8069],[23.13134765625,43.84821198124412,32.0199],[23.161376953125,43.85761139530662,35.2731],[23.196435546875023,43.86298248905662,33.8385],[23.23388671875,43.87750885624412,33.7329],[23.326416015625,43.88703034061912,28.4782],[23.319580078125,43.88703034061912,28.7146],[23.484130859375,43.88080475468162,26.4086],[23.592041015625,43.837665106244117,31.4084],[23.635498046875,43.832391668744116,28.2326],[23.72021484375,43.846063543744116,24.5114],[23.7421875,43.84296295780662,30.2852],[23.799462890625023,43.818719793744116,28.3132],[24.158837890625023,43.753192449994117,21.9253],[24.357666015625,43.760272528119117,42.8211],[24.374902343750023,43.76410553593162,40.416],[24.430566406250023,43.79437897343162,42.6822]]}}