{"type": "Feature","bbox": [22.6344,42.6144,22.9972,42.85],"geometry": {"type": "MultiPolygon","coordinates": [[[[22.8361,42.6144,952.2795],[22.8497,42.6366,1036.1716],[22.8604,42.6478,890.5471],[22.8689,42.6534,856.3047],[22.881,42.6564,805.2615],[22.8904,42.6563,860.4306],[22.9221,42.6462,716.4179],[22.9293,42.6407,672.3757],[22.94,42.6292,687.0293],[22.9468,42.6285,683.7568],[22.9484,42.6452,703.2624],[22.9529,42.6541,717.3355],[22.9556,42.6664,718.7684],[22.9627,42.682,696.1763],[22.9725,42.6923,730.1421],[22.9744,42.6965,744.025],[22.9733,42.7006,753.4966],[22.9713,42.7011,752.3086],[22.9557,42.7007,723.2153],[22.9516,42.7085,732.9414],[22.9515,42.7141,751.6538],[22.9563,42.7191,761.6904],[22.9629,42.7218,802.0222],[22.9831,42.7243,889.6013],[22.9927,42.7278,872.8007],[22.9965,42.7344,897.1196],[22.9972,42.7426,773.0308],[22.9845,42.7556,892.6009],[22.9787,42.765,860.2788],[22.9711,42.7707,827.0398],[22.9402,42.7738,978.3859],[22.9229,42.7814,961.9015],[22.9165,42.7893,969.8976],[22.9093,42.8098,907.1525],[22.9006,42.8176,903.7332],[22.8924,42.8194,847.8342],[22.8685,42.8179,882.3439],[22.8658,42.8191,865.0739],[22.8597,42.8261,855.7706],[22.86,42.8338,946.5922],[22.8583,42.8405,927.5995],[22.8533,42.8475,825.4637],[22.8503,42.8492,809.5048],[22.846,42.85,899.7941],[22.8354,42.8483,913.1171],[22.8277,42.8445,1084.2059],[22.8154,42.8422,991.6544],[22.79,42.8463,925.2543],[22.7749,42.8459,938.6416],[22.7739,42.8376,1100.746],[22.7765,42.8283,1070.4485],[22.7912,42.8124,1067.4553],[22.8058,42.8028,937.813],[22.8095,42.7978,891.5095],[22.8102,42.7882,913.5492],[22.8012,42.7688,879.5598],[22.7786,42.7526,879.4583],[22.768,42.7487,954.7581],[22.7612,42.7487,1015.3617],[22.7427,42.7557,1117.1658],[22.7332,42.7565,1085.1489],[22.7222,42.7511,995.3261],[22.715,42.745,1030.8029],[22.7123,42.7448,1095.0374],[22.7063,42.738,1262.0206],[22.6828,42.7332,1164.2825],[22.6781,42.7302,1134.2252],[22.6752,42.7252,1257.2273],[22.667,42.7209,1160.6718],[22.6642,42.7202,1135.4014],[22.6512,42.7242,1154.2468],[22.6437,42.7232,1139.3407],[22.6407,42.7198,1105.6631],[22.6404,42.717,1046.1022],[22.6455,42.7016,1189.9844],[22.637,42.6931,1324.1475],[22.6344,42.687,1319.5183],[22.6402,42.6767,1353.377],[22.6398,42.668,1299.0538],[22.6816,42.6489,1177.1173],[22.6986,42.6449,1125.5551],[22.7153,42.6446,1002.9218],[22.7344,42.6466,804.0239],[22.7374,42.6435,805.9763],[22.7426,42.643,741.2484],[22.746,42.6407,761.113],[22.7494,42.6264,797.8738],[22.7528,42.6232,757.8968],[22.7572,42.6228,803.3286],[22.7654,42.6264,712.5507],[22.774,42.6405,779.6071],[22.778199999999998,42.6436,794.4348],[22.7907,42.6449,804.5494],[22.7995,42.6413,834.6281],[22.8191,42.6224,930.4436],[22.8289,42.6165,892.6262],[22.8361,42.6144,952.2795]]]]}
,"properties": {"GID_2": "BGR.12.1_1","GID_0": "BGR","country": "Bulgaria","GID_1": "BGR.12_1","state": "Pernik","NL_NAME_1": "Перник","county": "Breznik","VARNAME_2": "NA","NL_NAME_2": "Брезник","TYPE_2": "Obshtina","ENGTYPE_2": "Municipality","CC_2": "NA","HASC_2": "BG.PN.BR","name": "Breznik.county","area_km2": 413.1142,"hist_schema_id": "Elevation0-9000","hist_area_km2": {"675": 6.627,"700": 16.7858,"725": 29.3274,"750": 29.4643,"775": 32.5316,"800": 32.5764,"825": 32.8223,"850": 32.9717,"875": 31.8478,"900": 25.9433,"925": 23.948,"950": 21.5324,"975": 17.5012,"1000": 13.0019,"1025": 11.4442,"1050": 9.1719,"1075": 8.2231,"1100": 7.0872,"1125": 6.5428,"1150": 4.2849,"1175": 4.2388,"1200": 3.5532,"1225": 3.1788,"1250": 2.6645,"1275": 2.1037,"1300": 1.3713,"1325": 1.0442,"1350": 0.6857,"1375": 0.2961,"1400": 0.1558,"1425": 0.0935,"1450": 0.0779,"1475": 0.0156}}}