{"type": "Feature","bbox": [25.2333,41.5486,25.6561,41.7814],"geometry": {"type": "MultiPolygon","coordinates": [[[[25.4369,41.7811,484.8368],[25.4337,41.7675,487.7095],[25.4187,41.7479,490.6446],[25.408,41.7279,351.1403],[25.4085,41.7179,487.0796],[25.4049,41.7088,502.5347],[25.3947,41.6996,580.6521],[25.3834,41.6969,669.0361],[25.3644,41.6965,529.2003],[25.3391,41.6996,582.9133],[25.3328,41.7068,589.9828],[25.3282,41.7242,558.473],[25.3241,41.726,587.9325],[25.3188,41.7254,714.9587],[25.306,41.7162,757.1484],[25.3006,41.7149,653.2273],[25.2971,41.715,677.2902],[25.2928,41.7217,743.9216],[25.2884,41.7243,669.14],[25.2834,41.7248,648.501],[25.2797,41.718,696.6258],[25.2771,41.7082,542.8684],[25.27,41.7014,491.6087],[25.2594,41.7003,684.5245],[25.2514,41.7051,650.8561],[25.2451,41.6962,415.1338],[25.2504,41.6862,531.4042],[25.263,41.6707,318.5],[25.27,41.6655,339.1052],[25.2973,41.6575,318.5],[25.2997,41.6554,376.8561],[25.3002,41.6517,369.7845],[25.2955,41.6466,318.5],[25.2747,41.636,555.8091],[25.256,41.6175,630.2077],[25.2541,41.6135,726.2927],[25.2462,41.6085,708.7742],[25.2333,41.5908,610.6215],[25.2333,41.5856,689.1197],[25.2374,41.5785,700.0093],[25.2462,41.5761,610.2428],[25.278199999999998,41.5756,584.7097],[25.2813,41.572,587.6992],[25.2785,41.5607,574.2787],[25.2796,41.559,528.8414],[25.2908,41.5523,524.7626],[25.3037,41.5487,417.2025],[25.3177,41.5486,417.2971],[25.345,41.5535,415.6789],[25.359,41.5515,303.894],[25.363,41.5564,310.1144],[25.3755,41.5632,306.1516],[25.3945,41.567,277.134],[25.4164,41.5757,282.7369],[25.4282,41.5767,329.913],[25.4431,41.5864,345.4828],[25.4563,41.5894,394.9575],[25.4709,41.5896,609.1262],[25.5053,41.5971,547.4189],[25.5128,41.6021,400.9371],[25.5247,41.6054,287.3263],[25.5366,41.6051,396.3173],[25.5393,41.6066,396.8282],[25.5404,41.6094,444.9291],[25.54,41.6226,391.6399],[25.5462,41.6267,502.2277],[25.5922,41.6335,238.8909],[25.6136,41.6309,445.9946],[25.6226,41.6332,451.951],[25.6448,41.6467,358.5615],[25.6515,41.6547,344.1114],[25.6546,41.6619,325.4219],[25.6561,41.6706,320.2253],[25.6514,41.6798,350.8702],[25.6485,41.6905,414.1503],[25.646,41.7118,310.4343],[25.6358,41.7219,330.9467],[25.6195,41.7316,347.573],[25.5996,41.7464,314.6689],[25.5842,41.7522,247.3457],[25.5603,41.7437,318.4568],[25.5442,41.7408,382.9037],[25.5372,41.7414,415.4048],[25.518,41.7531,392.417],[25.4804,41.7634,503.8564],[25.4572,41.7791,475.2209],[25.4483,41.7814,537.9451],[25.4369,41.7811,484.8368]]]]}
,"properties": {"GID_2": "BGR.7.4_1","GID_0": "BGR","country": "Bulgaria","GID_1": "BGR.7_1","state": "Kardzhali","NL_NAME_1": "Кърджалийска","county": "Kardzhali","VARNAME_2": "Kırcaali","NL_NAME_2": "Кърджали","TYPE_2": "City","ENGTYPE_2": "City","CC_2": "NA","HASC_2": "BG.KZ.KA","name": "Kardzhali.county","area_km2": 517.4624,"hist_schema_id": "Elevation0-9000","hist_area_km2": {"225": 38.5083,"250": 25.7311,"275": 34.9785,"300": 42.6886,"325": 55.3588,"350": 45.3758,"375": 38.7527,"400": 36.4689,"425": 35.4053,"450": 33.1132,"475": 26.8949,"500": 22.9534,"525": 18.5366,"550": 15.9879,"575": 13.5805,"600": 9.7443,"625": 7.2879,"650": 5.625,"675": 3.7865,"700": 3.0737,"725": 1.6791,"750": 0.7758,"775": 0.665,"800": 0.3641,"825": 0.1109,"850": 0.0158}}}