{"type": "Feature","bbox": [27.408,42.8836,27.899,43.0924],"geometry": {"type": "MultiPolygon","coordinates": [[[[27.7003,42.8894,141.7299],[27.7015,42.8957,144.0187],[27.7043,42.9004,148.9818],[27.7111,42.907,224.9442],[27.7331,42.9126,174.9983],[27.7526,42.9109,162.3843],[27.7656,42.9162,138.0697],[27.7742,42.925,63.7711],[27.7815,42.928,59.0942],[27.799,42.9301,113.1108],[27.8075,42.9331,62.7593],[27.8148,42.9316,127.5976],[27.8326,42.9394,32.3155],[27.8386,42.9474,27.7895],[27.8514,42.9559,23.4977],[27.855,42.9561,18.1719],[27.8657,42.9515,91.2505],[27.8752,42.951,99.1561],[27.885,42.9526,52.3672],[27.899,42.9577,0.8339],[27.8899,42.999,0.8615],[27.8865,43.0024,1.9541],[27.8885,43.0049,2.7061],[27.8854,43.0065,9.6972],[27.8882,43.0076,1.7613],[27.886,43.0104,2.8271],[27.8874,43.0137,4.9193],[27.8862,43.0149,2.5177],[27.889,43.0185,0.9514],[27.8882,43.0268,1.2778],[27.874,43.0258,46.843],[27.8543,43.0167,13.9116],[27.8464,43.0112,9.6588],[27.8428,43.0108,9.1202],[27.8385,43.0116,9.5613],[27.836,43.0138,9.6705],[27.8264,43.0282,42.4121],[27.8099,43.0334,56.1436],[27.7962,43.0323,83.6596],[27.7722,43.0252,48.707],[27.7414,43.0209,22.2851],[27.7259,43.0226,67.9363],[27.7166,43.0268,102.8026],[27.7043,43.0267,12.0264],[27.6999,43.0291,14.3622],[27.6974,43.0331,11.0908],[27.7015,43.0455,17.4279],[27.6995,43.0554,31.5405],[27.6643,43.0899,84.797],[27.6583,43.0924,84.2732],[27.6506,43.0904,63.5384],[27.6396,43.0766,77.6453],[27.6346,43.0554,72.8222],[27.6324,43.0524,64.2381],[27.6302,43.0509,52.3302],[27.621,43.0506,65.8067],[27.6078,43.0554,45.8315],[27.5983,43.055,35.5393],[27.5943,43.0513,18.0805],[27.5973,43.0443,15.1174],[27.5971,43.0401,15.419],[27.5936,43.0375,16.0254],[27.5901,43.037,16.403],[27.5827,43.0383,16.5481],[27.5771,43.0423,17.3213],[27.568,43.0583,34.3752],[27.5637,43.0612,48.858],[27.5495,43.0562,64.3268],[27.5357,43.0619,133.1586],[27.5332,43.0669,122.4772],[27.5379,43.0712,80.2881],[27.537,43.0726,75.8793],[27.5113,43.0789,83.6726],[27.493,43.077,175.0117],[27.4869,43.0794,199.7041],[27.4797,43.0728,127.1323],[27.4766,43.0652,141.0438],[27.4816,43.0567,110.7289],[27.4945,43.0411,22.2684],[27.4893,43.031,26.2268],[27.4744,43.0171,82.4882],[27.4707,43.0088,37.8291],[27.4715,43.0057,41.0371],[27.4771,43.0006,130.6277],[27.4912,42.996,235.0375],[27.4938,42.9928,186.8574],[27.4938,42.9571,397.3796],[27.4948,42.9497,360.1396],[27.4983,42.9454,326.7218],[27.5003,42.9393,342.5845],[27.4992,42.936,330.8493],[27.4919,42.9298,192.1853],[27.4814,42.927,207.1986],[27.4548,42.9256,269.9779],[27.4253,42.9277,207.068],[27.408,42.9241,242.5741],[27.4177,42.9138,184.2535],[27.4292,42.9057,395.9903],[27.4536,42.893,287.3648],[27.468,42.8911,268.6414],[27.5061,42.8954,319.1579],[27.5122,42.8937,286.0971],[27.5175,42.8865,295.3063],[27.5219,42.8836,425.8619],[27.5349,42.8848,312.2181],[27.5598,42.8975,164.0421],[27.5888,42.9009,172.9991],[27.6108,42.9009,117.2486],[27.7003,42.8894,141.7299]]]]}
,"properties": {"GID_2": "BGR.24.7_1","GID_0": "BGR","country": "Bulgaria","GID_1": "BGR.24_1","state": "Varna","NL_NAME_1": "Варна","county": "DolniChiflik","VARNAME_2": "NA","NL_NAME_2": "Долничифлик","TYPE_2": "Obshtina","ENGTYPE_2": "Municipality","CC_2": "NA","HASC_2": "BG.VN.DC","name": "DolniChiflik.county","area_km2": 510.9065,"hist_schema_id": "Elevation0-9000","hist_area_km2": {"0": 49.5691,"25": 84.8391,"50": 40.1731,"75": 47.4953,"100": 43.334,"125": 39.7763,"150": 36.9006,"175": 31.8007,"200": 24.6015,"225": 21.7009,"250": 14.6523,"275": 11.8739,"300": 12.154,"325": 13.1167,"350": 11.3936,"375": 8.3207,"400": 5.4488,"425": 4.5796,"450": 3.7572,"475": 2.5463,"500": 1.413,"525": 1.087,"550": 0.3416,"575": 0.0311}}}