{"type": "Feature","bbox": [22.5732,43.795,23.0474,44.108],"geometry": {"type": "MultiPolygon","coordinates": [[[[22.5815,43.9791,253.5126],[22.5922,43.978,199.426],[22.5999,43.9806,118.5112],[22.6031,43.9828,116.2445],[22.6064,43.9905,108.6039],[22.6105,43.9936,132.5524],[22.6232,43.9929,171.3105],[22.6399,44.0025,149.0639],[22.6651,44.0131,184.3705],[22.6758,44.0146,108.527],[22.6816,44.0107,131.4364],[22.695,44.0059,167.4078],[22.6967,44.0027,145.883],[22.6933,43.9979,146.7162],[22.6717,43.9895,195.772],[22.6688,43.9839,217.279],[22.6726,43.9797,192.8857],[22.6803,43.9752,203.9731],[22.6857,43.9685,188.8465],[22.688,43.9675,192.9453],[22.701,43.9688,223.3214],[22.702,43.9668,224.6108],[22.6912,43.9505,228.5721],[22.6826,43.9465,219.6482],[22.6776,43.9408,209.987],[22.6676,43.9359,227.6707],[22.6614,43.9297,226.799],[22.6546,43.9101,115.5608],[22.6708,43.9115,109.519],[22.692,43.9262,206.8024],[22.704,43.9268,169.6396],[22.7088,43.923,91.7873],[22.7118,43.9164,150.8531],[22.7134,43.9028,224.7097],[22.718,43.894,188.7758],[22.7087,43.8841,216.4471],[22.7079,43.878,219.9112],[22.7105,43.8725,177.609],[22.7165,43.8699,213.0941],[22.7393,43.8697,206.8161],[22.7431,43.8668,186.5008],[22.7502,43.8502,129.0941],[22.7481,43.8375,196.6725],[22.7452,43.8314,159.8598],[22.7503,43.8203,240.669],[22.751,43.8041,245.3085],[22.7404,43.7993,250.5233],[22.757,43.8022,240.9721],[22.7689,43.7957,225.2705],[22.7749,43.795,217.3737],[22.7944,43.8052,201.4643],[22.7985,43.8127,209.1151],[22.8067,43.8217,217.05],[22.8173,43.8239,173.3217],[22.8373,43.8228,112.8283],[22.8541,43.8253,168.7998],[22.8721,43.8355,25.0],[22.8725,43.8365,25.0],[22.8644,43.8413,25.0],[22.8545,43.8508,25.0],[22.8442,43.8641,25.0],[22.8458,43.8647,25.0],[22.8434,43.8731,25.0],[22.8404,43.875,25.0],[22.8398,43.887,25.0],[22.8492,43.9046,25.0],[22.8493,43.9095,25.0],[22.8525,43.9092,25.0],[22.8636,43.9242,25.0],[22.8651,43.9332,25.0],[22.8618,43.9341,25.0],[22.8698,43.948,25.0],[22.8748,43.9664,25.0],[22.879,43.9775,25.0],[22.882,43.981,25.0],[22.8803,43.9819,25.0],[22.8933,43.9921,25.0],[22.8949,43.991,25.0],[22.9112,43.9948,25.0],[22.9304,44.0016,25.0],[22.9713,44.0089,26.0],[22.9723,44.0061,26.0],[22.9801,44.0067,26.0],[23.0116,44.0138,26.0],[23.0181,44.019,26.0],[23.0154,44.0209,26.0],[23.0286,44.0323,26.0],[23.0393,44.045,26.0],[23.0472,44.0582,26.0],[23.0474,44.0641,26.0],[23.0388,44.0799,26.0],[23.0259,44.0897,26.0],[23.0147,44.094,26.0],[22.9931,44.0981,26.0],[22.9375,44.1001,26.5],[22.927,44.1025,26.5],[22.9162,44.108,26.5],[22.9072,44.0938,60.9356],[22.9012,44.075,55.894],[22.8931,44.0683,52.136],[22.8827,44.0629,50.203],[22.8713,44.0599,50.2501],[22.862,44.0598,51.0913],[22.8556,44.0631,55.0706],[22.8538,44.0703,63.0505],[22.8543,44.0831,133.4484],[22.8519,44.0856,124.8112],[22.8466,44.0879,116.3181],[22.8294,44.0881,152.193],[22.79,44.0806,190.3206],[22.7975,44.0746,152.741],[22.8036,44.0644,94.3949],[22.802,44.0579,67.6995],[22.7961,44.0558,61.2964],[22.7699,44.0516,170.7199],[22.7643,44.0529,177.4075],[22.7603,44.0584,143.9227],[22.7549,44.0615,140.8879],[22.7288,44.0599,111.8131],[22.7244,44.0593,136.1766],[22.7077,44.0483,198.3819],[22.6946,44.0424,127.3167],[22.6655,44.0424,180.8181],[22.6442,44.0387,242.5711],[22.6253,44.0314,143.925],[22.6243,44.0263,159.3207],[22.6201,44.0193,217.0215],[22.6059,44.0095,230.8126],[22.5818,44.0036,136.055],[22.5771,44.0002,188.3748],[22.5737,43.9956,213.9521],[22.5732,43.9919,264.3534],[22.5758,43.9835,248.7707],[22.5815,43.9791,253.5126]]]]}
,"properties": {"GID_2": "BGR.26.11_1","GID_0": "BGR","country": "Bulgaria","GID_1": "BGR.26_1","state": "Vidin","NL_NAME_1": "Видин","county": "Vidin","VARNAME_2": "NA","NL_NAME_2": "NA","TYPE_2": "City","ENGTYPE_2": "City","CC_2": "NA","HASC_2": "BG.VD.VI","name": "Vidin.county","area_km2": 515.5424,"hist_schema_id": "Elevation0-9000","hist_area_km2": {"25": 133.1177,"50": 136.8953,"75": 37.3595,"100": 32.9596,"125": 35.5538,"150": 33.2686,"175": 29.7846,"200": 34.0775,"225": 35.4233,"250": 6.8126,"275": 0.2898}}}