{"type": "Feature","bbox": [23.2287,42.0866,23.7353,42.5166],"geometry": {"type": "MultiPolygon","coordinates": [[[[23.5669,42.0912,2376.5129],[23.5798,42.1068,2397.3574],[23.5906,42.1397,2616.8723],[23.5939,42.1448,2703.9089],[23.6069,42.1563,2608.6643],[23.6195,42.1564,2342.7449],[23.6412,42.1519,2404.6692],[23.6505,42.1551,2562.0447],[23.6629,42.1635,2358.554],[23.67,42.1635,2301.6143],[23.6825,42.1591,2291.1555],[23.7049,42.1437,2189.2319],[23.7118,42.1407,2250.8545],[23.7258,42.1367,1986.1827],[23.7324,42.1375,2011.3872],[23.7346,42.1399,2088.9536],[23.7353,42.142,2145.4207],[23.7337,42.1452,2232.8372],[23.7248,42.1557,2353.9023],[23.7211,42.1592,2344.8193],[23.7123,42.1589,2310.0278],[23.7082,42.1604,2323.958],[23.7029,42.1662,2359.5186],[23.7016,42.1726,2481.0972],[23.7027,42.1782,2406.123],[23.7123,42.1929,2390.7166],[23.7139,42.1989,2332.4907],[23.7128,42.2079,2222.1819],[23.7148,42.2098,2286.5298],[23.7144,42.2393,1751.6052],[23.7162,42.248,1476.7428],[23.7153,42.2564,1272.2561],[23.717,42.2744,1006.4225],[23.7146,42.2851,898.6851],[23.7095,42.292,965.7667],[23.7091,42.296,870.9706],[23.7123,42.3027,764.1179],[23.7162,42.3055,741.8074],[23.7191,42.3127,712.2125],[23.7188,42.3148,709.8456],[23.7113,42.3189,765.8535],[23.7087,42.3225,772.6714],[23.709,42.3256,836.011],[23.7182,42.3381,897.8387],[23.7065,42.3419,872.4474],[23.7021,42.3471,818.447],[23.6967,42.3595,771.2497],[23.6863,42.3675,835.3907],[23.6543,42.3784,1032.6481],[23.6428,42.3864,995.4772],[23.6407,42.3918,925.6814],[23.641,42.3952,956.7208],[23.657,42.4178,1101.8265],[23.6488,42.4192,1138.1451],[23.6422,42.4226,1005.8691],[23.6351,42.4168,917.7816],[23.6125,42.416,836.8975],[23.5849,42.4112,912.1616],[23.5489,42.4162,893.8352],[23.5286,42.412,843.7444],[23.5196,42.4169,943.504],[23.518,42.4253,937.0021],[23.5212,42.44,915.3752],[23.5245,42.4466,911.915],[23.5261,42.4692,1068.392],[23.5224,42.4774,1079.1592],[23.5093,42.4904,1080.6874],[23.506,42.4985,1013.0104],[23.4995,42.5061,1032.6304],[23.4943,42.5077,1112.6691],[23.4813,42.503,1203.8218],[23.4744,42.5023,1167.2869],[23.4568,42.5052,1179.9125],[23.4488,42.502,1128.1522],[23.4439,42.4938,1133.7168],[23.4418,42.4773,1134.0917],[23.4447,42.4693,1197.8401],[23.4506,42.4609,1215.426],[23.4508,42.456,1197.7114],[23.4479,42.4501,1201.9751],[23.4423,42.445,1162.1595],[23.4363,42.442,1161.921],[23.4279,42.4409,1180.4084],[23.4179,42.4421,1141.9547],[23.4136,42.4441,1115.0754],[23.3978,42.4553,1298.2826],[23.3686,42.4687,1161.9027],[23.3505,42.4835,1123.7104],[23.3423,42.4868,1191.4825],[23.3294,42.5019,1321.8469],[23.2894,42.5124,1565.9906],[23.2821,42.5166,1553.5419],[23.2795,42.5151,1423.0769],[23.2686,42.5045,1278.2295],[23.2559,42.4853,1248.4897],[23.2502,42.4791,1301.9934],[23.2372,42.4695,1309.2129],[23.2306,42.4595,1180.8838],[23.2287,42.4503,1109.6571],[23.2339,42.4261,1200.631],[23.2331,42.4188,1141.5249],[23.2447,42.4011,1159.9214],[23.2504,42.3849,1140.7769],[23.2496,42.3804,1017.9736],[23.2432,42.3728,1078.3364],[23.2297,42.3624,973.077],[23.2537,42.3525,941.0647],[23.3175,42.3524,1148.9259],[23.3238,42.3515,1205.0734],[23.3324,42.3475,1171.8069],[23.3416,42.3398,1109.3835],[23.3397,42.3278,999.0272],[23.34,42.3171,1145.7434],[23.3499,42.307,1349.1055],[23.3577,42.2911,1298.4648],[23.3653,42.2866,1409.3616],[23.3907,42.2794,1319.2506],[23.3971,42.2755,1441.9456],[23.4033,42.2675,1423.8463],[23.4029,42.2619,1449.5149],[23.3945,42.2547,1498.0323],[23.3626,42.2477,1591.0443],[23.3279,42.2157,2056.439],[23.3241,42.2098,2120.605],[23.322,42.2024,2258.8589],[23.3229,42.1935,2515.4502],[23.3251,42.19,2409.8655],[23.3325,42.185,2291.269],[23.3416,42.1818,2064.937],[23.3658,42.1808,2357.2441],[23.3756,42.1812,2268.9624],[23.4316,42.1923,2449.0647],[23.443,42.1903,2269.9263],[23.4514,42.183,2324.7798],[23.4529,42.1629,2357.1157],[23.4551,42.1559,2552.3916],[23.4599,42.1493,2573.0325],[23.4639,42.1458,2381.2686],[23.4752,42.1404,2099.1709],[23.5064,42.1295,2310.0674],[23.5122,42.1224,2386.8772],[23.5127,42.1167,2484.5532],[23.5096,42.1109,2500.2566],[23.4925,42.0946,2579.8938],[23.5167,42.0939,2439.8662],[23.5449,42.0866,2406.0176],[23.5532,42.087,2451.8652],[23.5669,42.0912,2376.5129]]]]}
,"properties": {"GID_2": "BGR.21.19_1","GID_0": "BGR","country": "Bulgaria","GID_1": "BGR.21_1","state": "Sofia","NL_NAME_1": "Sofija","county": "Samokov","VARNAME_2": "NA","NL_NAME_2": "Самоков","TYPE_2": "Obshtina","ENGTYPE_2": "Municipality","CC_2": "NA","HASC_2": "BG.SF.SA","name": "Samokov.county","area_km2": 1104.2166,"hist_schema_id": "Elevation0-9000","hist_area_km2": {"700": 0.047,"725": 0.7682,"750": 1.3484,"775": 2.0538,"800": 3.3703,"825": 5.4849,"850": 10.7931,"875": 16.9806,"900": 48.7973,"925": 63.2961,"950": 53.3187,"975": 49.3243,"1000": 48.8164,"1025": 42.425,"1050": 34.7975,"1075": 35.4832,"1100": 35.8745,"1125": 33.4804,"1150": 32.0569,"1175": 34.2514,"1200": 30.8282,"1225": 25.9941,"1250": 22.2218,"1275": 21.6332,"1300": 20.5871,"1325": 16.9372,"1350": 15.5589,"1375": 13.1904,"1400": 11.8429,"1425": 10.5101,"1450": 10.4484,"1475": 9.2402,"1500": 8.8959,"1525": 8.143,"1550": 7.595,"1575": 7.2499,"1600": 6.8893,"1625": 7.2196,"1650": 6.294,"1675": 5.9335,"1700": 5.5415,"1725": 5.9185,"1750": 5.4794,"1775": 6.4063,"1800": 6.6735,"1825": 6.1713,"1850": 6.8311,"1875": 7.5704,"1900": 7.303,"1925": 7.3034,"1950": 7.4134,"1975": 7.3979,"2000": 8.1834,"2025": 7.5869,"2050": 8.3256,"2075": 8.1528,"2100": 8.1844,"2125": 8.3261,"2150": 8.7821,"2175": 8.2483,"2200": 8.893,"2225": 8.7839,"2250": 10.3873,"2275": 10.2144,"2300": 11.5982,"2325": 10.8437,"2350": 10.0112,"2375": 9.1625,"2400": 8.2509,"2425": 7.7483,"2450": 7.67,"2475": 6.318,"2500": 5.5481,"2525": 5.3906,"2550": 4.1962,"2575": 3.3159,"2600": 2.6559,"2625": 1.8071,"2650": 1.3357,"2675": 1.2728,"2700": 0.8956,"2725": 0.8013,"2750": 0.5656,"2775": 0.2671,"2800": 0.1728,"2825": 0.1257,"2850": 0.11,"2875": 0.0471,"2900": 0.0471}}}