{"type": "Feature","bbox": [22.76,42.4405,22.8969,42.6105],"geometry": {"type": "MultiPolygon","coordinates": [[[[22.8445,42.6105,884.771],[22.8399,42.6014,879.7863],[22.8278,42.5898,802.7466],[22.8173,42.5901,739.7411],[22.8051,42.5961,699.83],[22.7965,42.5961,706.5157],[22.7832,42.5844,1069.6205],[22.764,42.578,1024.0173],[22.7614,42.5763,1073.9675],[22.76,42.5729,1134.6018],[22.7612,42.5677,1128.7808],[22.7701,42.5526,1000.8864],[22.7743,42.5222,1047.5286],[22.7988,42.4978,633.9027],[22.8056,42.4857,843.9662],[22.8101,42.468,844.6754],[22.8037,42.4479,893.152],[22.8078,42.4405,986.4247],[22.8345,42.4514,748.693],[22.8464,42.4604,658.3798],[22.8677,42.468,625.4554],[22.8742,42.4727,631.3273],[22.8764,42.4758,642.2385],[22.8766,42.4807,639.4011],[22.8705,42.4949,731.7208],[22.8706,42.5018,758.981],[22.8752,42.5067,720.4146],[22.8936,42.5166,625.2345],[22.8969,42.5203,692.1643],[22.8955,42.5252,660.4897],[22.8899,42.529,709.8325],[22.8626,42.5316,670.082],[22.8543,42.5386,672.991],[22.853,42.5482,735.2924],[22.8605,42.5531,748.2941],[22.8739,42.5586,747.0842],[22.8809,42.5643,807.8495],[22.8892,42.5782,809.5012],[22.8653,42.5851,839.3354],[22.8607,42.5893,857.783],[22.8581,42.5984,960.6627],[22.8531,42.6078,965.1763],[22.8445,42.6105,884.771]]]]}
,"properties": {"GID_2": "BGR.12.2_1","GID_0": "BGR","country": "Bulgaria","GID_1": "BGR.12_1","state": "Pernik","NL_NAME_1": "Перник","county": "Kovachevtsi","VARNAME_2": "NA","NL_NAME_2": "NA","TYPE_2": "Obshtina","ENGTYPE_2": "Municipality","CC_2": "NA","HASC_2": "BG.PN.KO","name": "Kovachevtsi.county","area_km2": 114.85287,"hist_schema_id": "Elevation0-9000","hist_area_km2": {"600": 4.53379,"625": 15.39552,"650": 12.40877,"675": 10.42253,"700": 9.78075,"725": 9.68628,"750": 8.70193,"775": 8.6387,"800": 7.06023,"825": 6.3413,"850": 5.73255,"875": 3.8114,"900": 3.29555,"925": 2.24918,"950": 1.92126,"975": 1.56212,"1000": 0.96853,"1025": 0.73409,"1050": 0.4529,"1075": 0.31229,"1100": 0.28105,"1125": 0.26546,"1150": 0.24984,"1175": 0.04685}}}