{"type": "Feature","bbox": [22.8727,42.1994,23.0819,42.4016],"geometry": {"type": "MultiPolygon","coordinates": [[[[23.0049,42.2317,649.9119],[23.0057,42.2357,752.8207],[23.003,42.2531,628.1919],[23.0054,42.2579,604.6111],[23.012,42.2635,548.4713],[23.0202,42.2644,583.8227],[23.0447,42.2615,528.467],[23.057,42.2618,471.0325],[23.0741,42.2674,561.6335],[23.0819,42.2729,619.4422],[23.081,42.2853,662.748],[23.0789,42.2892,706.8391],[23.063,42.3078,815.451],[23.0505,42.3261,636.0721],[23.0455,42.341,692.5923],[23.0329,42.3599,716.3285],[23.0281,42.3857,1063.2825],[23.0214,42.3958,981.2343],[23.0078,42.4012,927.5087],[22.9893,42.4016,895.4281],[22.9777,42.3965,787.4653],[22.9641,42.3875,740.7776],[22.9319,42.385,1125.8695],[22.926,42.3829,1039.2268],[22.9188,42.3778,899.6397],[22.9208,42.3614,1007.7544],[22.9196,42.3591,941.528],[22.916,42.3575,887.1163],[22.9049,42.3592,969.8645],[22.893,42.3648,1142.4275],[22.8727,42.3649,1073.6138],[22.8769,42.3432,940.5916],[22.8968,42.3185,726.9489],[22.9023,42.2973,679.4048],[22.9105,42.2872,619.3281],[22.9272,42.2741,581.6349],[22.9314,42.2659,590.0053],[22.9302,42.2569,620.7352],[22.9189,42.2407,599.6534],[22.9185,42.2332,595.9899],[22.9218,42.2246,707.6946],[22.9226,42.2159,696.4294],[22.9147,42.2015,468.2891],[22.9157,42.1998,457.0746],[22.9269,42.1994,516.9158],[22.9472,42.2106,776.3154],[22.9645,42.2143,723.7413],[22.9779,42.2219,936.1063],[22.9947,42.2257,754.334],[23.0049,42.2317,649.9119]]]]}
,"properties": {"GID_2": "BGR.8.2_1","GID_0": "BGR","country": "Bulgaria","GID_1": "BGR.8_1","state": "Kyustendil","NL_NAME_1": "Кюстендил","county": "Bobovdol","VARNAME_2": "BobovDol","NL_NAME_2": "Бобовдол","TYPE_2": "Obshtina","ENGTYPE_2": "Municipality","CC_2": "NA","HASC_2": "BG.KY.BD","name": "Bobovdol.county","area_km2": 213.1628,"hist_schema_id": "Elevation0-9000","hist_area_km2": {"400": 0.1414,"425": 0.5811,"450": 0.2356,"475": 2.1968,"500": 7.6711,"525": 9.3482,"550": 13.9274,"575": 15.8241,"600": 17.0148,"625": 17.7657,"650": 19.9752,"675": 21.0422,"700": 19.0327,"725": 13.2157,"750": 9.4064,"775": 7.9651,"800": 5.7391,"825": 4.9541,"850": 3.6835,"875": 3.4639,"900": 3.0566,"925": 3.0092,"950": 2.46,"975": 2.491,"1000": 1.88,"1025": 1.6764,"1050": 1.175,"1075": 1.2378,"1100": 0.7208,"1125": 0.7991,"1150": 0.4701,"1175": 0.235,"1200": 0.2037,"1225": 0.2037,"1250": 0.1567,"1275": 0.1724,"1300": 0.0313}}}