{"type": "Feature","bbox": [24.9101,41.32,25.1867,41.4687],"geometry": {"type": "MultiPolygon","coordinates": [[[[25.1538,41.4337,544.9686],[25.1156,41.425,514.3808],[25.1031,41.4256,631.5224],[25.097,41.4278,615.0876],[25.0837,41.4248,762.9043],[25.0709,41.4326,735.1832],[25.0545,41.4392,765.5568],[25.0547,41.4454,777.6987],[25.0489,41.4504,799.537],[25.0435,41.4633,721.7335],[25.0391,41.4669,743.291],[25.033,41.4687,767.7542],[25.0173,41.4678,834.2067],[25.0108,41.466,954.7655],[25.0055,41.4596,920.7153],[24.9856,41.4484,851.921],[24.9816,41.4425,1035.3848],[24.981,41.432,826.7864],[24.9792,41.4283,925.8411],[24.977,41.427,942.8193],[24.9707,41.4277,943.7772],[24.9515,41.431399999999996,1071.5525],[24.9362,41.428,1323.1378],[24.9345,41.4265,1253.8782],[24.9321,41.4145,1011.4584],[24.9294,41.4097,1045.5511],[24.9101,41.4017,946.8589],[24.9101,41.4004,924.0663],[24.9116,41.3985,936.835],[24.9157,41.3976,1088.5176],[24.9194,41.3926,975.8239],[24.9302,41.3854,853.6442],[24.9323,41.3822,942.002],[24.9386,41.3814,969.3317],[24.9443,41.3835,982.4841],[24.9528,41.3783,757.2656],[24.9572,41.379,957.2494],[24.9685,41.372,712.4957],[24.9737,41.3737,856.2693],[24.9811,41.3728,1046.5869],[24.9859,41.3706,842.2274],[25.0094,41.3668,866.634],[25.0129,41.3644,738.3681],[25.0194,41.3644,822.4274],[25.0258,41.3615,690.8403],[25.0336,41.3639,880.4006],[25.0431,41.361,587.7279],[25.0477,41.3614,570.1884],[25.0488,41.3585,520.2177],[25.0558,41.3564,511.2393],[25.0581,41.3484,510.7402],[25.0612,41.3447,596.522],[25.0656,41.3426,530.4932],[25.0683,41.3386,573.0795],[25.0722,41.338,584.2368],[25.074,41.335,534.1374],[25.0841,41.3361,581.946],[25.087,41.3344,480.7094],[25.0864,41.3314,417.7115],[25.0901,41.331,559.668],[25.0944,41.3317,525.2908],[25.1033,41.3393,596.0972],[25.123,41.3398,538.4861],[25.1238,41.336,548.2681],[25.121,41.332,509.7528],[25.122,41.3289,582.8314],[25.1257,41.3277,675.7644],[25.126,41.3246,535.6946],[25.1308,41.3205,630.7835],[25.1355,41.32,554.0408],[25.1596,41.3365,540.8308],[25.1576,41.3496,446.9561],[25.1505,41.3544,437.4556],[25.1503,41.3596,509.7615],[25.1531,41.3694,543.5205],[25.1578,41.3772,500.1706],[25.1588,41.3826,379.0981],[25.1527,41.3945,533.1078],[25.1438,41.3981,617.4488],[25.1494,41.4029,489.2897],[25.1603,41.406,554.4669],[25.1777,41.4142,712.7128],[25.1819,41.417,761.2522],[25.1867,41.4238,694.991],[25.1863,41.4283,737.0061],[25.1824,41.4304,756.1572],[25.1586,41.4303,647.8329],[25.1547,41.4313,525.1671],[25.1538,41.4337,544.9686]]]]}
,"properties": {"GID_2": "BGR.20.10_1","GID_0": "BGR","country": "Bulgaria","GID_1": "BGR.20_1","state": "Smolyan","NL_NAME_1": "Смолян","county": "Zlatograd","VARNAME_2": "NA","NL_NAME_2": "Златоград","TYPE_2": "Obshtina","ENGTYPE_2": "Municipality","CC_2": "NA","HASC_2": "BG.SM.ZL","name": "Zlatograd.county","area_km2": 184.1307,"hist_schema_id": "Elevation0-9000","hist_area_km2": {"375": 0.2386,"400": 0.9386,"425": 3.134,"450": 4.9796,"475": 6.5546,"500": 8.0977,"525": 9.6724,"550": 11.1358,"575": 11.7401,"600": 11.1833,"625": 11.5008,"650": 10.3228,"675": 9.6539,"700": 8.3018,"725": 6.6152,"750": 6.2174,"775": 5.5492,"800": 5.3584,"825": 4.9927,"850": 4.8656,"875": 4.7702,"900": 4.3093,"925": 4.9132999999999996,"950": 4.2777,"975": 4.1505,"1000": 3.3236,"1025": 3.0693,"1050": 2.4649,"1075": 2.4329,"1100": 2.767,"1125": 1.8288,"1150": 1.7809,"1175": 0.986,"1200": 0.9065,"1225": 0.4771,"1250": 0.3498,"1275": 0.1908,"1300": 0.0636,"1325": 0.0159}}}