{"type": "Feature","bbox": [26.9038,43.6746,27.3199,43.9445],"geometry": {"type": "MultiPolygon","coordinates": [[[[27.3199,43.8149,205.1558],[27.2936,43.8285,209.461],[27.2507,43.8452,180.4817],[27.2372,43.855,197.0893],[27.2328,43.8603,214.1878],[27.2319,43.8882,211.5668],[27.2249,43.8955,241.8115],[27.1978,43.9028,225.3044],[27.1851,43.9105,222.555],[27.1718,43.915,171.7777],[27.1644,43.9145,179.5875],[27.1526,43.9097,150.246],[27.1475,43.9049,168.888],[27.1386,43.9,210.7746],[27.1291,43.8985,175.3506],[27.1253,43.8995,187.9931],[27.1185,43.9034,178.026],[27.1097,43.924,163.9426],[27.1024,43.931,175.3278],[27.0792,43.9354,141.6377],[27.0635,43.9439,148.6801],[27.0583,43.9445,153.435],[27.0461,43.9422,152.5442],[27.0278,43.9162,135.414],[27.0236,43.9133,126.7652],[27.0084,43.9118,146.6953],[26.9976,43.908,158.9286],[26.9891,43.9134,148.98],[26.9858,43.9145,152.5252],[26.9819,43.9131,150.6767],[26.9789,43.9103,153.2978],[26.9781,43.9069,146.1634],[26.9768,43.8855,176.1757],[26.9747,43.8812,143.084],[26.9709,43.878,162.1581],[26.949,43.8773,164.2302],[26.931,43.8707,189.9865],[26.9289,43.8734,174.3486],[26.9286,43.8796,194.8185],[26.93,43.8811,186.4939],[26.9389,43.8816,149.5019],[26.9401,43.8857,133.8456],[26.936,43.8946,158.0907],[26.9263,43.9023,138.3991],[26.9237,43.9026,125.9276],[26.9171,43.901,130.9382],[26.905,43.8878,162.0319],[26.9038,43.8847,162.6443],[26.9083,43.8738,187.8796],[26.9106,43.8604,188.17],[26.9131,43.8576,204.4966],[26.9266,43.8599,201.1398],[26.9379,43.8562,193.9546],[26.9566,43.8585,145.2157],[26.9613,43.8578,140.7576],[26.9706,43.8536,187.4527],[26.9771,43.8447,195.409],[26.9776,43.841,204.6518],[26.9702,43.8315,203.1288],[26.962,43.8258,184.1234],[26.9436,43.8182,174.7208],[26.9134,43.7988,185.165],[26.9161,43.7706,248.4917],[26.9216,43.7646,241.3926],[26.9486,43.7573,238.6393],[26.9613,43.7599,256.1996],[26.971,43.7577,236.7816],[26.9734,43.7543,251.0491],[26.9744,43.7476,224.028],[26.9809,43.7313,201.2322],[26.9912,43.723,253.1244],[27.0053,43.7174,265.1078],[27.0146,43.717,253.8075],[27.0348,43.7205,234.4331],[27.0574,43.7316,251.1086],[27.0736,43.736,255.3484],[27.090699999999998,43.7363,246.9286],[27.0996,43.7344,228.4742],[27.1139,43.725,228.9322],[27.1195,43.718,259.46],[27.1245,43.7056,264.3022],[27.1285,43.7014,274.1868],[27.1548,43.6828,274.1205],[27.1604,43.681,251.9442],[27.2172,43.6755,251.4643],[27.2355,43.6746,262.1125],[27.2472,43.6766,240.1465],[27.2547,43.6859,246.0043],[27.2519,43.6966,243.7692],[27.2423,43.7039,255.4743],[27.2216,43.7154,211.0351],[27.2183,43.7194,216.3329],[27.2209,43.7321,232.7805],[27.2197,43.7422,226.775],[27.2224,43.7499,194.1525],[27.2268,43.756,204.3276],[27.2337,43.7592,163.8431],[27.2697,43.7681,220.5111],[27.2742,43.7714,236.9614],[27.2777,43.7774,213.1656],[27.296,43.7927,164.1547],[27.3159,43.8135,203.0163],[27.3199,43.8149,205.1558]]]]}
,"properties": {"GID_2": "BGR.18.2_1","GID_0": "BGR","country": "Bulgaria","GID_1": "BGR.18_1","state": "Silistra","NL_NAME_1": "Силистра","county": "Dulovo","VARNAME_2": "Accadânalar|Akkadınlar","NL_NAME_2": "Дулово","TYPE_2": "Obshtina","ENGTYPE_2": "Municipality","CC_2": "NA","HASC_2": "BG.SI.DU","name": "Dulovo.county","area_km2": 568.0147,"hist_schema_id": "Elevation0-9000","hist_area_km2": {"75": 0.4887,"100": 4.0633,"125": 15.0205,"150": 42.275,"175": 76.2883,"200": 133.461,"225": 188.4197,"250": 91.0932,"275": 16.859,"300": 0.046}}}