{"type":"Feature","properties":{"GID_2":"BGR.2.1_1","GID_0":"BGR","country":"Bulgaria","GID_1":"BGR.2_1","state":"Burgas","NL_NAME_1":"Бургас","county":"Aitos","VARNAME_2":"Aytos|Aetós|Ajtos","NL_NAME_2":"Айтос","TYPE_2":"Obshtina","ENGTYPE_2":"Municipality","CC_2":"NA","HASC_2":"BG.BR.AI","name":"Aitos.county"},
"geometry":{"type": "MultiPolygon","coordinates": [[[[27.4322,42.725,247.844],[27.434,42.7502,254.2487],[27.4229,42.772,154.9396],[27.4225,42.7773,113.1249],[27.3905,42.7807,128.9227],[27.381,42.783,131.1173],[27.3552,42.7939,144.4907],[27.3361,42.7914,159.856],[27.3308,42.7887,177.0555],[27.317,42.7859,222.2094],[27.2973,42.7835,263.1947],[27.2598,42.7886,213.1753],[27.218,42.7876,267.5345],[27.2039,42.7863,348.256],[27.1793,42.7791,407.1595],[27.1645,42.7778,426.4254],[27.1566,42.78,370.2003],[27.1412,42.7932,339.6646],[27.1319,42.798,244.2216],[27.1203,42.801,276.7208],[27.1061,42.802,334.382],[27.0896,42.7979,312.4292],[27.0773,42.7893,546.7064],[27.0725,42.7826,533.0083],[27.0505,42.7804,393.1675],[27.044,42.7763,356.1765],[27.0432,42.7743,342.3301],[27.0435,42.7679,327.4477],[27.0488,42.7611,299.4428],[27.0651,42.7572,473.3579],[27.0714,42.7524,429.4519],[27.0772,42.7446,286.3066],[27.0818,42.7432,279.8384],[27.0922,42.746,325.6102],[27.0955,42.7493,355.3052],[27.0976,42.7547,408.4226],[27.0982,42.759,468.0272],[27.0917,42.7699,537.0986],[27.092,42.7751,536.5769],[27.0969,42.7782,523.7643],[27.1024,42.7781,529.6299],[27.1075,42.7747,638.6309],[27.1105,42.7672,582.5851],[27.1089,42.7573,453.1893],[27.1039,42.7452,286.928],[27.0807,42.7241,186.5188],[27.0766,42.718,183.4194],[27.0747,42.7117,191.6726],[27.0818,42.7055,216.1829],[27.0934,42.7025,263.5768],[27.0978,42.6975,275.9542],[27.1068,42.694,282.5051],[27.1109,42.6901,277.1858],[27.1008,42.6685,266.2682],[27.1016,42.6558,245.5926],[27.1046,42.6492,276.0825],[27.1153,42.6404,217.3479],[27.1517,42.6256,166.9951],[27.1583,42.6199,163.4691],[27.1842,42.6332,218.3744],[27.2206,42.6467,123.441],[27.2241,42.6451,119.6876],[27.2228,42.6397,134.6457],[27.2128,42.6319,182.4827],[27.2106,42.6264,202.5789],[27.2138,42.6208,199.6013],[27.2259,42.6145,153.7743],[27.246,42.624,161.024],[27.2661,42.6297,180.5515],[27.2725,42.6347,90.2105],[27.3058,42.6378,69.8848],[27.3151,42.6448,87.8769],[27.3272,42.6572,131.666],[27.3389,42.6645,215.5189],[27.3566,42.6689,278.5236],[27.3885,42.6704,344.0504],[27.3995,42.6747,395.5819],[27.4098,42.6838,356.7773],[27.4171,42.688,323.1912],[27.4204,42.6924,349.4799],[27.4201,42.6983,378.9973],[27.4151,42.7056,334.7837],[27.4153,42.7135,292.3878],[27.4322,42.725,247.844]]]]}}