{"type": "Feature","bbox": [24.8732,42.7289,25.3464,43.2247],"geometry": {"type": "MultiPolygon","coordinates": [[[[25.3369,43.0578,430.7],[25.333,43.0629,384.9914],[25.3326,43.0672,380.4674],[25.3464,43.0979,366.3911],[25.3416,43.1135,327.5388],[25.3272,43.1148,325.0847],[25.2997,43.1122,348.5328],[25.2869,43.1022,356.9162],[25.2697,43.0941,353.3885],[25.2614,43.0926,439.9626],[25.231,43.0931,455.9328],[25.2156,43.0984,402.9044],[25.2079,43.0986,395.4334],[25.1834,43.1042,206.0906],[25.1637,43.1137,194.8906],[25.1498,43.134,219.1892],[25.1296,43.1418,374.8943],[25.1183,43.1516,421.051],[25.1091,43.1709,469.963],[25.1071,43.1796,403.3622],[25.0773,43.1844,449.4183],[25.0617,43.1899,457.5291],[25.0374,43.1948,419.4173],[25.0033,43.2097,420.9201],[24.9836,43.2242,386.113],[24.9659,43.2247,388.6248],[24.9626,43.222,365.0391],[24.9618,43.2181,368.5237],[24.9673,43.2,401.6441],[24.9664,43.1801,420.8654],[24.974,43.1642,467.7544],[24.974,43.1521,460.8838],[24.9667,43.1433,491.1191],[24.9529,43.1395,468.8239],[24.9408,43.1394,493.4981],[24.9366,43.1371,491.1285],[24.9319,43.1304,449.5667],[24.9314,43.1267,435.5851],[24.9318,43.1161,447.8059],[24.9354,43.1055,479.9599],[24.9334,43.0915,397.9285],[24.9342,43.085,404.7469],[24.941,43.0725,392.0698],[24.9491,43.0634,395.9371],[24.948,43.0606,406.715],[24.939,43.0594,445.3811],[24.9386,43.056,562.1784],[24.9513,43.0437,365.476],[24.9511,43.041,392.9888],[24.9184,43.0408,570.715],[24.9124,43.0382,551.1105],[24.8966,43.0388,483.6963],[24.8868,43.0309,513.202],[24.8777,43.0092,583.4047],[24.8732,42.9701,298.438],[24.8735,42.9546,445.7286],[24.8837,42.9287,586.8571],[24.8887,42.9058,591.3411],[24.8929,42.8964,633.0135],[24.9066,42.8862,750.3258],[24.937,42.8764,1057.4844],[24.9501,42.8705,971.4961],[24.9735,42.8438,569.7625],[24.9867,42.8307,574.1238],[24.9968,42.8233,608.9736],[25.0268,42.7887,1039.613],[25.0364,42.7722,1041.3052],[25.0395,42.7596,1727.8527],[25.0395,42.7448,1807.0863],[25.0365,42.7353,1699.8812],[25.0735,42.7342,1918.7241],[25.0885,42.7291,1694.703],[25.1101,42.7289,1554.541],[25.1386,42.7434,960.4526],[25.1553,42.7495,1167.5708],[25.1695,42.7524,1474.4553],[25.1845,42.7523,1224.673],[25.193,42.7541,1156.8136],[25.2263,42.7725,1148.7402],[25.226,42.7822,918.6636],[25.2288,42.8036,691.0289],[25.2155,42.8172,745.1422],[25.2165,42.8251,592.6625],[25.2147,42.8303,633.5508],[25.2036,42.8374,676.2023],[25.1988,42.8428,753.4048],[25.1961,42.8564,689.9362],[25.1671,42.8581,937.5768],[25.1595,42.8656,678.3092],[25.158,42.8722,504.4684],[25.1593,42.878,480.4122],[25.1586,42.8877,474.7467],[25.1537,42.8954,377.7819],[25.1529,42.9026,336.6551],[25.1533,42.9106,283.5088],[25.1598,42.9322,353.552],[25.1649,42.9359,319.1446],[25.1851,42.9322,267.3755],[25.1885,42.9329,267.7108],[25.1895,42.9347,264.2354],[25.1846,42.9506,260.505],[25.1701,42.9705,248.943],[25.174,42.9739,253.3295],[25.1853,42.977,352.2258],[25.1901,42.9813,313.4006],[25.2062,42.9904,329.3688],[25.2103,42.9901,353.087],[25.2201,42.9853,342.1129],[25.2363,42.9843,336.0868],[25.2474,42.9778,402.2794],[25.2608,42.977,473.7731],[25.2746,42.9737,524.452],[25.2897,42.9743,393.4942],[25.315,42.9842,357.9346],[25.3284,42.986,338.9041],[25.3256,42.9922,410.8129],[25.3216,43.0096,442.4211],[25.3123,43.0275,493.6865],[25.3122,43.0312,471.3336],[25.3248,43.0433,396.3848],[25.3369,43.0578,430.7]]]]}
,"properties": {"GID_2": "BGR.4.3_1","GID_0": "BGR","country": "Bulgaria","GID_1": "BGR.4_1","state": "Gabrovo","NL_NAME_1": "Габрово","county": "Sevlievo","VARNAME_2": "NA","NL_NAME_2": "Севлиево","TYPE_2": "Obshtina","ENGTYPE_2": "Municipality","CC_2": "NA","HASC_2": "BG.GB.SE","name": "Sevlievo.county","area_km2": 1128.0765,"hist_schema_id": "Elevation0-9000","hist_area_km2": {"175": 11.1948,"200": 26.9986,"225": 41.5511,"250": 55.5773,"275": 61.5711,"300": 59.8804,"325": 57.9543,"350": 59.6742,"375": 71.8507,"400": 84.2751,"425": 84.2035,"450": 77.329,"475": 62.6471,"500": 41.8441,"525": 28.4304,"550": 23.5028,"575": 22.4716,"600": 20.1922,"625": 17.586,"650": 16.004,"675": 15.3816,"700": 13.8297,"725": 12.0608,"750": 11.0053,"775": 9.8716,"800": 9.4218,"825": 8.7849,"850": 8.7387,"875": 7.0595,"900": 7.4642,"925": 6.236,"950": 5.3653,"975": 5.3038,"1000": 5.0708,"1025": 4.7447,"1050": 4.2007,"1075": 4.1697,"1100": 3.75,"1125": 4.0618,"1150": 3.8752,"1175": 4.5757,"1200": 4.7626,"1225": 4.7471,"1250": 4.1402,"1275": 2.8018,"1300": 3.1599,"1325": 2.6307,"1350": 2.5996,"1375": 2.4129,"1400": 2.1638,"1425": 1.9303,"1450": 1.5256,"1475": 1.3388,"1500": 1.1988,"1525": 1.012,"1550": 0.9186,"1575": 0.9653,"1600": 0.8251,"1625": 0.7629,"1650": 0.7629,"1675": 0.4515,"1700": 0.5449,"1725": 0.5605,"1750": 0.6228,"1775": 0.654,"1800": 0.654,"1825": 0.7941,"1850": 1.0432,"1875": 0.7318,"1900": 0.4983,"1925": 0.4671,"1950": 0.3114,"1975": 0.2024,"2000": 0.0934,"2025": 0.0467,"2050": 0.0156,"2075": 0.0156}}}