{"type": "Feature","bbox": [24.2518,42.3537,24.4281,42.5583],"geometry": {"type": "MultiPolygon","coordinates": [[[[24.3117,42.3707,345.7396],[24.3317,42.3745,329.1068],[24.3503,42.3748,374.7246],[24.3647,42.3714,364.0234],[24.3944,42.3571,317.8168],[24.4281,42.3537,307.3657],[24.4272,42.3653,327.4479],[24.4211,42.3725,359.0136],[24.4087,42.3823,399.2365],[24.405,42.3915,441.4061],[24.406,42.3975,490.2213],[24.4083,42.401,533.3386],[24.424,42.4129,522.2893],[24.427,42.4171,497.3448],[24.4233,42.4213,475.761],[24.4107,42.4276,453.0789],[24.4016,42.4412,557.8898],[24.3798,42.4536,528.6154],[24.3707,42.4703,457.6964],[24.3694,42.4766,485.4474],[24.3803,42.4931,597.9411],[24.3947,42.5044,685.4191],[24.4038,42.5137,680.0116],[24.4125,42.5275,800.7777],[24.4141,42.5425,1094.3619],[24.4078,42.5497,1095.4131],[24.4025,42.5531,995.264],[24.3855,42.5583,949.9713],[24.3725,42.5583,743.3386],[24.347,42.5417,616.7218],[24.3425,42.5414,603.6666],[24.3355,42.5421,616.5276],[24.3323,42.545,626.1517],[24.3282,42.5555,754.2485],[24.3003,42.5577,1104.6924],[24.2936,42.5568,1084.5992],[24.2861,42.5534,893.0354],[24.2787,42.5485,822.767],[24.2679,42.5366,766.5134],[24.2606,42.515,679.3833],[24.2609,42.5054,661.6449],[24.2528,42.4897,576.7952],[24.2518,42.4829,611.8317],[24.2646,42.4696,698.2895],[24.2658,42.4576,697.9919],[24.2687,42.4548,693.3296],[24.2777,42.451,580.6079],[24.3064,42.4453,554.7784],[24.3214,42.4382,450.472],[24.3249,42.4341,449.6023],[24.3248,42.4289,487.5817],[24.3181,42.4209,414.593],[24.3089,42.4173,360.7208],[24.2914,42.4168,370.764],[24.281,42.414,334.2381],[24.2755,42.4063,416.3416],[24.2759,42.4,429.2121],[24.2841,42.3905,375.3892],[24.3117,42.3707,345.7396]]]]}
,"properties": {"GID_2": "BGR.11.10_1","GID_0": "BGR","country": "Bulgaria","GID_1": "BGR.11_1","state": "Pazardzhik","NL_NAME_1": "Пазарджик","county": "Strelcha","VARNAME_2": "NA","NL_NAME_2": "Стрелча","TYPE_2": "Obshtina","ENGTYPE_2": "Municipality","CC_2": "NA","HASC_2": "BG.PZ.ST","name": "Strelcha.county","area_km2": 206.2432,"hist_schema_id": "Elevation0-9000","hist_area_km2": {"300": 1.2374,"325": 5.905,"350": 7.5335,"375": 8.9106,"400": 9.1594,"425": 11.9447,"450": 15.9655,"475": 20.1677,"500": 15.721,"525": 12.3709,"550": 11.4613,"575": 12.1476,"600": 11.4437,"625": 10.0512,"650": 8.8163,"675": 6.9712,"700": 5.3922,"725": 5.0011,"750": 4.094,"775": 3.5468,"800": 3.1715,"825": 3.0776,"850": 2.5776,"875": 1.9215,"900": 1.7339,"925": 0.9685,"950": 0.9372,"975": 0.7186,"1000": 0.7029,"1025": 0.7185,"1050": 0.5467,"1075": 0.5154,"1100": 0.453,"1125": 0.3592}}}