{"type": "Feature","bbox": [26.8583,42.0649,27.3682,42.4664],"geometry": {"type": "MultiPolygon","coordinates": [[[[27.3601,42.4161,8.6254],[27.3273,42.4027,3.5],[27.3149,42.4028,0.8031],[27.2894,42.4118,6.8362],[27.2645,42.4111,0.602],[27.2586,42.4144,1.5574],[27.2517,42.4222,4.0882],[27.2324,42.4243,5.3494],[27.2173,42.4307,7.5774],[27.1974,42.4297,71.9293],[27.1838,42.4316,76.6397],[27.166,42.4375,92.1081],[27.158,42.444,88.6319],[27.1434,42.4627,49.7372],[27.1384,42.4657,43.5812],[27.1266,42.4664,53.9149],[27.1094,42.4624,51.8323],[27.1019,42.4625,62.2776],[27.0849,42.4562,147.2179],[27.0647,42.4538,164.7784],[27.0455,42.4482,171.931],[27.0152,42.4515,200.411],[27.008,42.4484,185.4578],[26.9927,42.4473,148.1733],[26.9802,42.4313,93.2627],[26.9483,42.4122,177.5597],[26.9315,42.4069,166.0647],[26.8697,42.3998,210.5454],[26.8622,42.3966,229.6443],[26.8583,42.3903,238.1142],[26.8583,42.3862,235.974],[26.8626,42.3617,250.78809999999999],[26.8648,42.3569,246.6517],[26.8738,42.3514,228.1271],[26.8888,42.3462,212.7234],[26.9045,42.3364,232.2372],[26.9156,42.3209,215.8044],[26.9177,42.3075,199.1402],[26.9229,42.2986,167.8125],[26.9334,42.2914,141.7781],[26.9516,42.2875,131.6128],[26.9606,42.2873,143.9558],[26.9629,42.2843,133.122],[26.9589,42.271,115.5766],[26.9429,42.2591,171.9822],[26.9358,42.2423,154.9491],[26.9386,42.2347,239.1409],[26.9489,42.2239,261.1506],[26.9638,42.2161,307.3866],[26.9675,42.2126,331.4849],[26.9697,42.2069,311.5537],[26.9688,42.2017,308.5612],[26.9589,42.1949,305.6831],[26.9483,42.191,300.381],[26.9444,42.187,285.3656],[26.9428,42.1812,277.3447],[26.9427,42.1755,288.2151],[26.9451,42.1692,303.6564],[26.9434,42.1591,392.52],[26.9442,42.1519,394.4188],[26.9555,42.133,342.9891],[26.9667,42.1241,342.3652],[26.9826,42.1177,356.3606],[26.9909,42.1152,340.3691],[27.0316,42.1098,352.4524],[27.037,42.1071,368.9705],[27.0437,42.1025,383.1127],[27.0462,42.0976,408.6075],[27.0426,42.0888,506.714],[27.0385,42.0838,500.1762],[27.0509,42.0839,501.163],[27.0605,42.087,535.8636],[27.0697,42.0923,617.6433],[27.0777,42.0943,539.479],[27.1029,42.09,540.5151],[27.1142,42.0902,534.1741],[27.1239,42.0869,485.6405],[27.1397,42.0751,507.2653],[27.1485,42.0723,555.0513],[27.1716,42.0701,618.0739],[27.1824,42.0742,579.2501],[27.1864,42.0742,558.0526],[27.2033,42.065,634.9246],[27.2095,42.0649,616.7483],[27.2126,42.0696,566.7762],[27.2093,42.0742,569.6313],[27.2074,42.0811,536.1302],[27.208,42.084,560.8093],[27.2217,42.0897,482.7263],[27.2298,42.1011,523.0021],[27.2481,42.1067,472.6456],[27.2628,42.1035,492.9933],[27.2719,42.1063,488.4347],[27.2757,42.1051,471.369],[27.2805,42.1097,431.2443],[27.281,42.122,412.8313],[27.2829,42.1281,386.896],[27.2821,42.142,375.0672],[27.2793,42.1504,411.7422],[27.266,42.1749,344.308],[27.2666,42.1858,332.2816],[27.2705,42.193,346.8297],[27.2785,42.1975,365.6274],[27.304,42.2005,375.2659],[27.3064,42.2113,325.0284],[27.3129,42.2216,307.474],[27.3312,42.2306,283.766],[27.3339,42.2352,311.641],[27.3331,42.239,334.1399],[27.325,42.2486,328.5262],[27.3165,42.2689,183.9488],[27.2951,42.2818,239.808],[27.2918,42.2931,193.1221],[27.2951,42.3089,37.1294],[27.2925,42.3149,130.4602],[27.2926,42.3197,190.752],[27.3144,42.3305,111.8279],[27.3232,42.3383,115.116],[27.3258,42.342,128.0829],[27.329,42.3531,94.7021],[27.332,42.3732,50.6479],[27.3392,42.3858,3.5],[27.3452,42.3896,3.5],[27.3623,42.3964,3.5],[27.3679,42.4006,3.5],[27.3682,42.4047,3.5],[27.3601,42.4161,8.6254]]]]}
,"properties": {"GID_2": "BGR.2.11_1","GID_0": "BGR","country": "Bulgaria","GID_1": "BGR.2_1","state": "Burgas","NL_NAME_1": "Бургас","county": "Sredets","VARNAME_2": "NA","NL_NAME_2": "Средец","TYPE_2": "Obshtina","ENGTYPE_2": "Municipality","CC_2": "NA","HASC_2": "BG.BR.SR","name": "Sredets.county","area_km2": 1180.6651,"hist_schema_id": "Elevation0-9000","hist_area_km2": {"0": 28.5766,"25": 46.4641,"50": 60.5423,"75": 81.6656,"100": 91.66,"125": 87.1418,"150": 82.7573,"175": 81.5386,"200": 84.5521,"225": 91.6775,"250": 72.9707,"275": 66.283,"300": 73.4755,"325": 70.0585,"350": 50.7847,"375": 31.1357,"400": 20.2347,"425": 16.2769,"450": 12.4099,"475": 9.517,"500": 6.7492,"525": 5.6799,"550": 3.0998,"575": 2.7853,"600": 1.7626,"625": 0.8027,"650": 0.063}}}