{"type": "Feature","id": "2252","bbox": [22.34502,42.00741,23.52976,42.63528],"geometry": {"type": "Polygon","coordinates": [[[22.53044,42.62972,1139.5385],[22.48145,42.63528,1383.8967],[22.44132,42.63289,1380.0718],[22.42884,42.59278,1360.8893],[22.42533,42.57285,1370.3436],[22.42967,42.57141,1464.5387],[22.48145,42.53562,1031.2946],[22.51214,42.51919,903.6059],[22.52486,42.50766,1038.4849],[22.53251,42.49356,987.522],[22.53251,42.4934,987.522],[22.53654,42.47839,943.0336],[22.53313,42.45759,974.8382],[22.51948,42.42093,753.4551],[22.50884,42.40493,1026.9204],[22.49757,42.3992,1081.4646],[22.48507,42.39715,1111.2018],[22.46977,42.3917,1036.2115],[22.45437,42.37677,1236.1292],[22.43845,42.34005,1023.8014],[22.42398,42.32589,978.4734],[22.40579,42.32155,1119.6038],[22.36414,42.32098,1205.3953],[22.34502,42.31344,1165.5131],[22.44362,42.21443,1019.8685],[22.48145,42.19332,1351.5814],[22.49468,42.16456,1728.4058],[22.50694,42.14893,2046.7155],[22.51018,42.14479,1868.9148],[22.53106,42.12911,1642.6028],[22.61777,42.0827,1224.0924],[22.62718,42.07913,1256.6199],[22.67586,42.06061,1077.0022],[22.70572,42.05594,1062.629],[22.71027,42.05299,972.2358],[22.71399,42.04862,861.709],[22.71844,42.04446,817.4565],[22.72505,42.04247,842.4661],[22.77063,42.044,938.1601],[22.78086,42.04317,913.2922],[22.78531,42.03914,930.5676],[22.78768,42.03258,901.0307],[22.79109,42.02581,922.2501],[22.79895,42.02123,849.5841],[22.80598,42.02139,808.1699],[22.82127,42.02537,1095.6963],[22.82696,42.02508,1039.1105],[22.83822,42.01948,974.7194],[22.8437,42.01447,949.9543],[22.84562,42.00741,1039.79],[22.85838,42.01981,1066.0679],[22.87543,42.03307,1213.4172],[22.89693,42.03038,1096.6279],[22.90458,42.05051,1050.1741],[22.93362,42.08601,1084.2646],[22.95904,42.08712,1044.5028],[22.9762,42.06829,723.9122],[23.00514,42.06989,519.5879],[23.0347,42.06185,357.6677],[23.06074,42.04867,410.818],[23.09206,42.051,483.2849],[23.12265,42.05761,606.0058],[23.15087,42.07265,865.3736],[23.20058,42.09169,1546.9113],[23.22228,42.0919,1777.3594],[23.2414,42.0903,1823.6631],[23.26052,42.09288,2052.488],[23.38723,42.06234,2308.6958],[23.44429,42.06968,2291.0579],[23.49358,42.09908,2490.4146],[23.51911,42.11355,2552.9873],[23.52976,42.13523,2445.3193],[23.5032,42.14456,2562.6301],[23.47333,42.14637,2436.0952],[23.4539,42.17197,2170.3586],[23.42806,42.18686,2396.5876],[23.38382,42.17794,2561.7222],[23.33897,42.17316,2404.4019],[23.3246,42.19572,2400.5386],[23.35623,42.22667,1584.8904],[23.36842,42.24455,1648.9608],[23.38858,42.24967,1421.8679],[23.39933,42.26207,1409.1082],[23.38455,42.28316,1233.5215],[23.36284,42.28923,1330.4363],[23.34651,42.30261,1351.9896],[23.33918,42.31246,1246.4646],[23.3276,42.31716,994.6561],[23.29391,42.37359,1351.979],[23.27282,42.36966,1157.8831],[23.24957,42.36871,1141.7584],[23.23324,42.37524,1068.5126],[23.21567,42.37318,933.4749],[23.18787,42.37062,854.0862],[23.1612,42.38134,968.2537],[23.13123,42.38498,792.2826],[23.10281,42.40323,774.1542],[23.0902,42.37604,815.3776],[23.07304,42.37447,720.0195],[23.05413,42.38333,761.049],[23.00007,42.39677,867.1442],[22.97775,42.39245,764.409],[22.91729,42.38878,1046.2252],[22.8775,42.36413,993.5443],[22.85011,42.36018,1290.7811],[22.82644,42.37082,1028.603],[22.8098,42.39219,861.3611],[22.78758,42.40847,1154.8743],[22.76526,42.41878,1197.6483],[22.74965,42.43782,1027.7524],[22.72908,42.45663,1137.368],[22.71317,42.474,841.6813],[22.71627,42.50588,990.0093],[22.6988,42.52539,989.6614],[22.66914,42.51916,985.5633],[22.6526,42.53373,956.4631],[22.64836,42.55443,947.0795],[22.6309,42.568,869.7562],[22.61219,42.59213,980.9233],[22.59896,42.62045,1149.7559],[22.56847,42.63239,990.0021],[22.53044,42.62972,1139.5385]]]}
,"properties": {"ISO3166-1-Alpha-3": "BGR","country": "Bulgaria","fill": "#FF0","name": "Kyustendil","area_km2": 3169.847,"hist_schema_id": "Elevation0-9000","hist_area_km2": {"350": 7.977,"375": 17.142,"400": 19.074,"425": 23.202,"450": 42.431,"475": 63.533,"500": 70.78,"525": 80.886,"550": 96.648,"575": 106.006,"600": 96.544,"625": 93.607,"650": 94.917,"675": 95.443,"700": 92.083,"725": 84.418,"750": 78.956,"775": 77.077,"800": 75.476,"825": 74.686,"850": 75.259,"875": 77.09,"900": 79.906,"925": 84.156,"950": 85.872,"975": 84.166,"1000": 81.322,"1025": 76.23,"1050": 72.237,"1075": 64.133,"1100": 57.811,"1125": 53.035,"1150": 46.07,"1175": 43.033,"1200": 38.249,"1225": 34.586,"1250": 32.771,"1275": 31.818,"1300": 29.371,"1325": 28.135,"1350": 26.615,"1375": 24.43,"1400": 24.657,"1425": 22.994,"1450": 21.912,"1475": 21.242,"1500": 19.564,"1525": 19.785,"1550": 18.547,"1575": 18.657,"1600": 17.351,"1625": 16.207,"1650": 15.677,"1675": 14.235,"1700": 13.685,"1725": 13.702,"1750": 12.414,"1775": 12.65,"1800": 11.691,"1825": 11.911,"1850": 10.67,"1875": 9.728,"1900": 9.728,"1925": 9.304,"1950": 9.225,"1975": 8.503,"2000": 8.377,"2025": 7.513,"2050": 8.032,"2075": 7.607,"2100": 8.032,"2125": 7.827,"2150": 7.828,"2175": 8.535,"2200": 8.566,"2225": 8.676,"2250": 8.739,"2275": 8.001,"2300": 9.462,"2325": 8.377,"2350": 8.943,"2375": 7.89,"2400": 7.969,"2425": 8.409,"2450": 7.576,"2475": 7.764,"2500": 6.444,"2525": 5.375,"2550": 4.385,"2575": 3.238,"2600": 2.153,"2625": 1.587,"2650": 0.896,"2675": 0.314,"2700": 0.11}}}