{"type":"Feature","properties":{"GID_1":"BGR.8_1","GID_0":"BGR","country":"Bulgaria","state":"Kyustendil","VARNAME_1":"Keustendil|Kjustendil","NL_NAME_1":"Кюстендил","TYPE_1":"Oblast","ENGTYPE_1":"Province","CC_1":"NA","HASC_1":"BG.KY","ISO_1":"BG-10","name":"Kyustendil.state"},
"geometry":{"type": "MultiPolygon","coordinates": [[[[23.4808,42.0882,2559.426],[23.4923,42.095,2579.8938],[23.5065,42.107,2400.1611],[23.5121,42.1145,2498.71],[23.5122,42.1224,2386.8772],[23.5064,42.1295,2310.0674],[23.4752,42.1404,2099.1709],[23.4639,42.1458,2381.2686],[23.4599,42.1493,2573.0325],[23.4551,42.1559,2552.3916],[23.4529,42.1629,2357.1157],[23.4514,42.183,2324.7798],[23.4465,42.1881,2364.5986],[23.443,42.1903,2269.9263],[23.4316,42.1923,2449.0647],[23.3756,42.1812,2268.9624],[23.354,42.181,2234.1538],[23.3416,42.1818,2064.937],[23.3325,42.185,2291.269],[23.3251,42.19,2409.8655],[23.3229,42.1935,2515.4502],[23.3225,42.2051,2207.688],[23.3268,42.2146,2085.8755],[23.3459,42.2333,1604.4299],[23.3626,42.2477,1591.0443],[23.3906,42.2534,1471.7329],[23.3979,42.2567,1528.9402],[23.4029,42.2619,1449.5149],[23.4033,42.2675,1423.8463],[23.3971,42.2755,1441.9456],[23.3907,42.2794,1319.2506],[23.3653,42.2866,1409.3616],[23.3577,42.2911,1298.4648],[23.3499,42.307,1349.1055],[23.34,42.3171,1145.7434],[23.3397,42.3278,999.0272],[23.3416,42.3398,1109.3835],[23.3324,42.3475,1171.8069],[23.3238,42.3515,1205.0734],[23.3175,42.3524,1148.9259],[23.2537,42.3525,941.0647],[23.2297,42.3624,973.077],[23.2215,42.3574,942.059],[23.2058,42.3526,922.7216],[23.1933,42.3514,834.7316],[23.1854,42.3527,837.1457],[23.1661,42.361,792.1487],[23.1436,42.3639,731.514],[23.1361,42.3669,780.2739],[23.1277,42.3745,784.5039],[23.12,42.3951,662.7661],[23.1111,42.3987,721.4337],[23.1023,42.3941,761.2643],[23.0898,42.3768,815.3776],[23.0811,42.3699,703.5685],[23.0733,42.3693,692.6187],[23.0566,42.3731,766.9058],[23.0466,42.3734,835.2407],[23.03,42.3773,949.4689],[23.0281,42.3857,1063.2825],[23.0214,42.3958,981.2343],[23.0078,42.4012,927.5087],[23.0003,42.4017,971.6591],[22.9893,42.4016,895.4281],[22.9777,42.3965,787.4653],[22.9641,42.3875,740.7776],[22.9319,42.385,1125.8695],[22.9229,42.3815,971.3083],[22.9188,42.3778,899.6397],[22.9185,42.3754,948.7496],[22.9208,42.3614,1007.7544],[22.9196,42.3591,941.528],[22.916,42.3575,887.1163],[22.9049,42.3592,969.8645],[22.893,42.3648,1142.4275],[22.8805,42.3655,1000.4684],[22.8656,42.3633,1088.9155],[22.8568,42.3582,1204.8088],[22.8445,42.356,1349.7045],[22.8377,42.3609,1360.6251],[22.8342,42.3655,1289.5466],[22.8337,42.3773,1058.5106],[22.8311,42.3818,966.1066],[22.8272,42.3828,897.6262],[22.8098,42.3815,968.6645],[22.8027,42.3837,932.4161],[22.7991,42.3888,876.3221],[22.7972,42.3987,1021.8277],[22.7932,42.4042,1118.9578],[22.7832,42.4078,1153.2245],[22.7792,42.4109,1058.1968],[22.7631,42.4125,1386.3717],[22.7524,42.4162,1263.1321],[22.7454,42.4195,1364.7673],[22.7388,42.4251,1302.9884],[22.7227,42.4495,1041.7811],[22.7047,42.4707,1002.2063],[22.708,42.4867,1090.2434],[22.7077,42.4953,1023.3542],[22.7059,42.5022,1172.5857],[22.7011,42.5083,1169.5352],[22.6703,42.5195,985.5633],[22.662,42.5241,786.7776],[22.653199999999998,42.5348,936.9936],[22.6466,42.5507,1088.5813],[22.642,42.5559,979.5494],[22.6155,42.5633,1031.3981],[22.6079,42.5681,1004.4886],[22.605,42.5757,928.5235],[22.6065,42.5876,1034.7],[22.6053,42.6054,997.6091],[22.6022,42.6159,1139.09],[22.5976,42.6207,1149.7559],[22.5925,42.6232,1094.0155],[22.5846,42.6237,969.0408],[22.5299,42.6141,1030.309],[22.514,42.6146,1188.4893],[22.4603,42.6289,1616.0831],[22.4467,42.627,1513.4126],[22.4436,42.6192,1439.5762],[22.4368,42.6194,1359.9116],[22.4386,42.6143,1443.882],[22.4364,42.6092,1361.4044],[22.43,42.602,1208.5377],[22.4271,42.5886,1294.4985],[22.4279,42.5867,1270.9041],[22.419,42.5819,1275.5076],[22.4165,42.5606,1560.3679],[22.4292,42.56,1647.3542],[22.4465,42.5522,1457.5618],[22.4602,42.5385,1213.5118],[22.4682,42.5351,1091.4189],[22.4785,42.5238,920.0258],[22.4883,42.518,939.3296],[22.4945,42.5108,857.3483],[22.5022,42.5084,921.2543],[22.5124,42.4999,941.3032],[22.5261,42.493,921.6354],[22.5337,42.4854,970.9218],[22.5311,42.4799,946.1395],[22.5313,42.4733,1005.9653],[22.5383,42.4663,931.3367],[22.5199,42.4473,865.6478],[22.5176,42.4278,778.2907],[22.5143,42.4223,881.522],[22.5171,42.4158,706.5114],[22.5154,42.4114,870.0408],[22.5055,42.4038,1017.4542],[22.503,42.3903,1188.8822],[22.4927,42.3885,1278.1875],[22.4779,42.3909,1228.4119],[22.4652,42.388,1058.5656],[22.4601,42.3886,1056.7756],[22.4642,42.3814,1243.183],[22.4627,42.3762,1244.6603],[22.4578,42.3722,1383.509],[22.4521,42.37,1179.568],[22.4507,42.3643,1145.7565],[22.4433,42.3565,1105.0649],[22.4443,42.3416,1070.2393],[22.4464,42.3385,1145.4329],[22.4365,42.325,1055.6035],[22.4247,42.3219,957.5482],[22.4165,42.3161,1012.1372],[22.4083,42.3268,1103.8748],[22.3999,42.3222,1213.0605],[22.3934,42.3252,1228.0934],[22.3886,42.3253,1269.9485],[22.3846,42.3192,1197.2402],[22.3746,42.3181,1189.3452],[22.3719,42.3158,1195.0315],[22.3622,42.3161,1285.021],[22.3554,42.3141,1312.2583],[22.3513,42.3164,1363.1975],[22.3516,42.3134,1262.2953],[22.3457,42.3041,1068.3016],[22.3536,42.3004,1059.6195],[22.3648,42.3004,1088.4277],[22.3725,42.2913,1015.9155],[22.3735,42.2866,994.1841],[22.3861,42.2816,1045.1331],[22.3838,42.2755,1021.7208],[22.389,42.2687,1041.0464],[22.397,42.2618,1060.7383],[22.3985,42.2582,1005.2993],[22.4038,42.2548,1081.3135],[22.4074,42.255,1048.7256],[22.408,42.247,1025.1388],[22.4176,42.2485,957.4899],[22.4181,42.2461,989.332],[22.4217,42.243,924.7945],[22.4217,42.2382,920.6809],[22.4322,42.2322,974.2678],[22.4306,42.2267,959.851],[22.4377,42.2187,939.5385],[22.4395,42.2125,898.2875],[22.4418,42.2116,905.9871],[22.4417,42.2083,936.5004],[22.4494,42.2004,992.4119],[22.4518,42.1937,1024.2476],[22.4512,42.1916,1049.4052],[22.4662,42.1909,1128.7241],[22.4817,42.1844,1447.1763],[22.4841,42.1799,1444.4915],[22.4819,42.1767,1424.5984],[22.4823,42.1738,1375.6884],[22.4857,42.168,1488.6964],[22.4871,42.159,1611.5518],[22.498,42.1478,2019.6289],[22.4928,42.1456,1903.3638],[22.4938,42.1431,1831.2975],[22.5055,42.1366,1675.0834],[22.5097,42.1298,1599.8003],[22.5291,42.1236,1486.1434],[22.5345,42.1179,1339.2358],[22.5427,42.1131,1295.7424],[22.5455,42.1076,1275.0197],[22.5576,42.1003,1179.439],[22.5646,42.0973,1412.2665],[22.5707,42.0981,1302.2107],[22.5806,42.0861,1154.9468],[22.5864,42.0857,1312.0636],[22.5923,42.0823,1136.0494],[22.5981,42.0844,1286.7009],[22.611,42.0808,1430.9487],[22.6151,42.0765,1243.8796],[22.6246,42.0717,1089.7032],[22.6277,42.0678,1074.8586],[22.631,42.0671,1140.9131],[22.6311,42.0637,1105.2087],[22.6456,42.057,1030.0502],[22.6505,42.0567,1000.8696],[22.6574,42.0507,908.6795],[22.6795,42.0493,913.3604],[22.6962,42.0525,980.5798],[22.7006,42.0549,989.9643],[22.6995,42.0489,904.205],[22.7058,42.044,859.1874],[22.7091,42.0435,829.9643],[22.7094,42.0404,897.215],[22.7138,42.0337,838.4709],[22.7208,42.0302,773.975],[22.7309,42.0316,801.9794],[22.7338,42.029,781.8803],[22.7428,42.0278,786.1105],[22.7583,42.0216,789.8358],[22.7697,42.0229,859.8591],[22.7739,42.0264,931.4466],[22.7756,42.0315,906.1817],[22.7871,42.0169,880.8702],[22.7955,42.009,926.4566],[22.8025,42.0059,851.123],[22.8119,42.0048,756.9407],[22.8193,42.0057,797.4883],[22.8258,42.0094,887.4598],[22.8328,42.006,854.3365],[22.8791,42.0137,916.3893],[22.8905,42.0173,971.7492],[22.8969,42.0243,1091.2007],[22.9,42.0316,1087.3413],[22.9008,42.0625,1131.0486],[22.9145,42.088,1054.3679],[22.9181,42.092,936.3469],[22.9287,42.0975,1048.2057],[22.9353,42.0979,989.6359],[22.9383,42.0965,1041.9985],[22.9448,42.0899,1022.7172],[22.9466,42.0807,900.6219],[22.9501,42.073,887.1471],[22.9532,42.0678,843.3946],[22.9584,42.0636,796.5125],[22.962,42.0617,806.7394],[22.9768,42.0599,753.7494],[23.0008,42.0618,540.7778],[23.0212,42.0604,418.1743],[23.0257,42.0578,343.6466],[23.031,42.0436,373.332],[23.0336,42.0414,335.2493],[23.0388,42.0403,373.1979],[23.0614,42.0434,423.1183],[23.1123,42.0553,591.4903],[23.1284,42.0647,668.0615],[23.1411,42.0762,828.1331],[23.1656,42.0938,1163.7844],[23.1744,42.098,1302.7869],[23.1888,42.1006,1459.5389],[23.2568,42.0988,1864.8146],[23.2658,42.0977,1878.2655],[23.2827,42.0917,1890.7515],[23.296,42.0917,1936.3376],[23.3096,42.0897,2123.354],[23.319,42.0866,1999.4272],[23.340699999999998,42.0754,2089.8889],[23.3612,42.0732,2318.6934],[23.3833,42.0598,2244.4204],[23.3968,42.0545,2229.136],[23.4024,42.0539,2268.1414],[23.4236,42.0548,2358.2136],[23.4485,42.0612,2509.9707],[23.4808,42.0882,2559.426]]]]}}