{"type": "Feature","bbox": [25.3564,41.4148,25.6256,41.6335],"geometry": {"type": "MultiPolygon","coordinates": [[[[25.3663,41.4454,269.0126],[25.3747,41.4328,435.6051],[25.3863,41.4309,301.698],[25.4006,41.4348,487.5042],[25.4359,41.4527,515.1121],[25.443,41.4529,574.0926],[25.4509,41.4511,555.5181],[25.4623,41.4447,619.037],[25.4727,41.4365,695.2856],[25.4838,41.4246,534.8546],[25.49,41.4287,692.567],[25.4967,41.4292,642.3857],[25.5318,41.4164,496.8855],[25.5414,41.4148,515.0433],[25.5531,41.4174,330.3997],[25.5549,41.4191,340.5675],[25.5588,41.4319,371.0794],[25.5635,41.4358,348.5978],[25.5849,41.4347,269.0113],[25.5939,41.4375,259.1345],[25.5965,41.4415,258.7551],[25.5971,41.4621,390.5166],[25.5989,41.4652,351.9619],[25.6081,41.4706,318.3812],[25.6102,41.4759,275.1909],[25.5948,41.4865,249.8569],[25.5935,41.4892,278.3367],[25.5937,41.4957,367.464],[25.6017,41.5069,290.3215],[25.6201,41.5237,188.3608],[25.6243,41.5311,207.3195],[25.6256,41.5388,360.3889],[25.6241,41.5445,369.499],[25.6177,41.5541,532.8809],[25.6004,41.57,750.4109],[25.5944,41.5719,590.788],[25.5922,41.575,683.7957],[25.5971,41.5817,668.782],[25.5993,41.5979,476.4305],[25.6047,41.6086,479.7164],[25.6119,41.6312,445.9946],[25.5922,41.6335,238.8909],[25.5462,41.6267,502.2277],[25.54,41.6226,391.6399],[25.5404,41.6094,444.9291],[25.5393,41.6066,396.8282],[25.5366,41.6051,396.3173],[25.5247,41.6054,287.3263],[25.5128,41.6021,400.9371],[25.5053,41.5971,547.4189],[25.4709,41.5896,609.1262],[25.4563,41.5894,394.9575],[25.4431,41.5864,345.4828],[25.4282,41.5767,329.913],[25.4164,41.5757,282.7369],[25.3945,41.567,277.134],[25.3802,41.5648,308.8007],[25.363,41.5564,310.1144],[25.359,41.5515,303.894],[25.3597,41.5486,270.1407],[25.3564,41.5421,258.5749],[25.3574,41.5385,313.3597],[25.3646,41.5345,303.7994],[25.382,41.5332,337.2144],[25.3835,41.5296,298.5212],[25.3811,41.5259,294.5566],[25.3732,41.5207,349.0993],[25.3682,41.5107,468.4338],[25.3679,41.5082,465.2498],[25.3711,41.5051,442.1553],[25.3689,41.503,433.6295],[25.3715,41.5003,399.3698],[25.375,41.4913,322.7157],[25.3756,41.4853,285.8395],[25.3703,41.4692,258.6865],[25.3725,41.4556,269.1395],[25.3663,41.4454,269.0126]]]]}
,"properties": {"GID_2": "BGR.7.7_1","GID_0": "BGR","country": "Bulgaria","GID_1": "BGR.7_1","state": "Kardzhali","NL_NAME_1": "Кърджалийска","county": "Momchilgrad","VARNAME_2": "Mestanlı","NL_NAME_2": "Момчилград","TYPE_2": "Obshtina","ENGTYPE_2": "Municipality","CC_2": "NA","HASC_2": "BG.KZ.MO","name": "Momchilgrad.county","area_km2": 357.9996,"hist_schema_id": "Elevation0-9000","hist_area_km2": {"200": 0.508,"225": 2.9345,"250": 14.5722,"275": 17.0013,"300": 21.6853,"325": 24.5133,"350": 26.721,"375": 25.211,"400": 25.2886,"425": 24.7013,"450": 24.4012,"475": 23.7832,"500": 23.8466,"525": 19.7029,"550": 17.8607,"575": 12.9538,"600": 10.6199,"625": 9.2379,"650": 7.0469,"675": 5.7611,"700": 4.6811,"725": 3.808,"750": 2.9837,"775": 2.4281,"800": 2.0,"825": 1.397,"850": 0.9529,"875": 0.5877,"900": 0.4608,"925": 0.2861,"950": 0.0636}}}