{"type": "Feature","bbox": [24.2178,41.5117,24.3764,41.7577],"geometry": {"type": "MultiPolygon","coordinates": [[[[24.2183,41.7318,1466.7339],[24.2178,41.7291,1515.1343],[24.2224,41.7132,1490.6428],[24.2224,41.7003,1544.009],[24.2291,41.6882,1479.7329],[24.2284,41.6798,1490.8225],[24.2301,41.6756,1460.5234],[24.2365,41.6719,1381.9855],[24.2642,41.6661,1238.8857],[24.269,41.6614,1199.9989],[24.2685,41.6591,1243.9917],[24.2585,41.6481,1308.0022],[24.2561,41.6421,1274.4463],[24.2571,41.6361,1271.647],[24.2656,41.6159,1409.5386],[24.263,41.5969,1532.2236],[24.2543,41.568,1495.3672],[24.2578,41.5651,1485.7883],[24.2633,41.5654,1479.7286],[24.2664,41.5635,1492.3324],[24.2618,41.5559,1482.3856],[24.265,41.553,1409.6157],[24.2781,41.5487,1437.5735],[24.2839,41.545,1539.9791],[24.2887,41.5411,1587.5046],[24.289,41.5381,1589.8198],[24.2935,41.5355,1647.1667],[24.2894,41.5279,1774.1879],[24.2867,41.5267,1792.6501],[24.286,41.5237,1669.8413],[24.2906,41.5228,1778.1179],[24.2891,41.5184,1671.7393],[24.2913,41.5169,1632.8572],[24.2935,41.5117,1557.2091],[24.3047,41.5138,1643.4941],[24.3063,41.5166,1639.4674],[24.3129,41.5194,1611.608],[24.3212,41.5197,1531.7817],[24.3282,41.5251,1473.1393],[24.3416,41.5224,1558.6759],[24.3414,41.5236,1558.6759],[24.3472,41.5244,1556.906],[24.3553,41.5214,1567.0416],[24.3561,41.5184,1563.7471],[24.3581,41.5173,1581.5798],[24.3576,41.5206,1584.0797],[24.3618,41.5211,1538.989],[24.3718,41.5307,1551.8466],[24.3668,41.5329,1557.3032],[24.3598,41.5397,1581.8293],[24.358,41.5451,1636.0979],[24.356,41.5781,1562.0776],[24.3524,41.5866,1430.9545],[24.3524,41.5942,1431.7942],[24.3572,41.607,1514.406],[24.3751,41.6305,1238.5754],[24.3764,41.6407,1410.1448],[24.3728,41.6511,1209.6495],[24.3646,41.662,1043.8367],[24.3484,41.6771,1056.0613],[24.3442,41.6829,1092.8757],[24.3436,41.6934,1272.5242],[24.3524,41.7078,1409.4558],[24.3531,41.7164,1655.4165],[24.3495,41.7269,1281.571],[24.3402,41.742,1324.7946],[24.3401,41.7516,970.4625],[24.3378,41.7555,904.647],[24.3353,41.7577,1008.4583],[24.3216,41.7502,1062.4709],[24.3074,41.7449,1224.6895],[24.2914,41.7327,1212.9958],[24.2829,41.7307,1349.7446],[24.2677,41.72,1363.4465],[24.2636,41.7196,1459.1743],[24.2386,41.7272,1582.0654],[24.2221,41.7294,1486.3724],[24.2183,41.7318,1466.7339]]]]}
,"properties": {"GID_2": "BGR.20.2_1","GID_0": "BGR","country": "Bulgaria","GID_1": "BGR.20_1","state": "Smolyan","NL_NAME_1": "Смолян","county": "Borino","VARNAME_2": "NA","NL_NAME_2": "NA","TYPE_2": "Obshtina","ENGTYPE_2": "Municipality","CC_2": "NA","HASC_2": "BG.SM.BO","name": "Borino.county","area_km2": 207.0893,"hist_schema_id": "Elevation0-9000","hist_area_km2": {"825": 0.0475,"850": 0.1267,"875": 0.3167,"900": 0.2692,"925": 0.3009,"950": 0.4751,"975": 0.6177,"1000": 1.3146,"1025": 1.4413,"1050": 1.3939,"1075": 2.3602,"1100": 2.9303,"1125": 4.4508,"1150": 5.3694,"1175": 6.3358,"1200": 7.4916,"1225": 9.4229,"1250": 9.9767,"1275": 11.0067,"1300": 10.1687,"1325": 11.1213,"1350": 11.2661,"1375": 10.4115,"1400": 11.0153,"1425": 11.4764,"1450": 12.1112,"1475": 13.7433,"1500": 14.7269,"1525": 12.3647,"1550": 8.8292,"1575": 5.7373,"1600": 2.8214,"1625": 1.6805,"1650": 1.2533,"1675": 0.6825,"1700": 0.6031,"1725": 0.4286,"1750": 0.3492,"1775": 0.3651,"1800": 0.2857}}}