{"type": "Feature","bbox": [22.79,42.3516,23.2504,42.5782],"geometry": {"type": "MultiPolygon","coordinates": [[[[23.03,42.3773,949.4689],[23.0733,42.3693,692.6187],[23.0811,42.3699,703.5685],[23.0898,42.3768,815.3776],[23.1023,42.3941,761.2643],[23.1072,42.3974,786.1946],[23.1127,42.3985,696.1348],[23.12,42.3951,662.7661],[23.1277,42.3745,784.5039],[23.1361,42.3669,780.2739],[23.1436,42.3639,731.514],[23.1661,42.361,792.1487],[23.1854,42.3527,837.1457],[23.2006,42.3516,944.0349],[23.2215,42.3574,942.059],[23.2343,42.3653,1021.5077],[23.2496,42.3804,1017.9736],[23.2504,42.3849,1140.7769],[23.2447,42.4011,1159.9214],[23.2331,42.4188,1141.5249],[23.2339,42.4261,1200.631],[23.2287,42.4503,1109.6571],[23.2101,42.4496,973.1238],[23.1908,42.4448,835.292],[23.1759,42.4458,757.4976],[23.1584,42.4557,900.5494],[23.1364,42.4741,849.1656],[23.1189,42.4853,794.2811],[23.0942,42.509,1014.4634],[23.0809,42.5181,961.7173],[23.062,42.5274,928.8427],[23.0404,42.5308,862.7334],[23.0316,42.5344,828.6362],[23.0082,42.5489,839.7161],[22.9938,42.5547,856.3201],[22.9712,42.5588,771.1497],[22.9631,42.568,762.1396],[22.9514,42.5745,683.8317],[22.9364,42.5762,663.4767],[22.908,42.5758,722.7618],[22.8892,42.5782,809.5012],[22.8809,42.5643,807.8495],[22.8739,42.5586,747.0842],[22.8605,42.5531,748.2941],[22.853,42.5482,735.2924],[22.8543,42.5386,672.991],[22.8597,42.5329,687.4983],[22.8648,42.5311,685.4991],[22.8846,42.5305,670.0328],[22.8899,42.529,709.8325],[22.8955,42.5252,660.4897],[22.8969,42.5203,692.1643],[22.8936,42.5166,625.2345],[22.8752,42.5067,720.4146],[22.8706,42.5018,758.981],[22.8705,42.4949,731.7208],[22.8766,42.4807,639.4011],[22.8764,42.4758,642.2385],[22.8742,42.4727,631.3273],[22.8677,42.468,625.4554],[22.8464,42.4604,658.3798],[22.8345,42.4514,748.693],[22.8078,42.4405,986.4247],[22.8108,42.4316,935.8328],[22.8111,42.4255,814.1536],[22.8028,42.4155,1091.1718],[22.79,42.4062,1136.8672],[22.7972,42.3987,1021.8277],[22.7991,42.3888,876.3221],[22.8027,42.3837,932.4161],[22.8098,42.3815,968.6645],[22.8272,42.3828,897.6262],[22.8311,42.3818,966.1066],[22.8337,42.3773,1058.5106],[22.8342,42.3655,1289.5466],[22.8377,42.3609,1360.6251],[22.8447,42.3559,1349.7045],[22.8568,42.3582,1204.8088],[22.8656,42.3633,1088.9155],[22.8805,42.3655,1000.4684],[22.893,42.3648,1142.4275],[22.9049,42.3592,969.8645],[22.916,42.3575,887.1163],[22.9196,42.3591,941.528],[22.9208,42.3614,1007.7544],[22.9185,42.3754,948.7496],[22.9188,42.3778,899.6397],[22.9229,42.3815,971.3083],[22.9319,42.385,1125.8695],[22.9641,42.3875,740.7776],[22.9777,42.3965,787.4653],[22.9893,42.4016,895.4281],[23.0078,42.4012,927.5087],[23.0214,42.3958,981.2343],[23.0281,42.3857,1063.2825],[23.03,42.3773,949.4689]]]]}
,"properties": {"GID_2": "BGR.12.4_1","GID_0": "BGR","country": "Bulgaria","GID_1": "BGR.12_1","state": "Pernik","NL_NAME_1": "Перник","county": "Radomir","VARNAME_2": "NA","NL_NAME_2": "Радомир","TYPE_2": "Obshtina","ENGTYPE_2": "Municipality","CC_2": "NA","HASC_2": "BG.PN.RA","name": "Radomir.county","area_km2": 529.4915,"hist_schema_id": "Elevation0-9000","hist_area_km2": {"625": 68.4262,"650": 81.7301,"675": 51.328,"700": 37.5174,"725": 32.5757,"750": 31.9844,"775": 30.0637,"800": 26.8121,"825": 21.8232,"850": 21.2172,"875": 19.5796,"900": 15.7163,"925": 13.479,"950": 13.3387,"975": 10.3956,"1000": 8.3135,"1025": 7.923,"1050": 6.2946,"1075": 5.872,"1100": 4.948,"1125": 4.7289,"1150": 3.6485,"1175": 3.2257,"1200": 2.5211,"1225": 2.1608,"1250": 1.6442,"1275": 0.971,"1300": 0.6734,"1325": 0.3915,"1350": 0.1723,"1375": 0.0157}}}