{"type":"Feature","properties":{"GID_2":"BGR.2.2_1","GID_0":"BGR","country":"Bulgaria","GID_1":"BGR.2_1","state":"Burgas","NL_NAME_1":"Бургас","county":"Burgas","VARNAME_2":"Bourgas","NL_NAME_2":"Бургас","TYPE_2":"City","ENGTYPE_2":"City","CC_2":"NA","HASC_2":"BG.BR.BU","name":"Burgas.county"},
"geometry":{"type": "MultiPolygon","coordinates": [[[[27.2259,42.6145,153.7743],[27.2395,42.605,124.8202],[27.2529,42.6015,101.6755],[27.2732,42.6049,65.8781],[27.287,42.604,32.9496],[27.3025,42.6071,43.3855],[27.3088,42.606,58.5212],[27.3136,42.6029,48.7751],[27.3281,42.5997,60.4356],[27.3352,42.5926,51.7972],[27.3468,42.5848,51.8322],[27.351,42.5847,46.1069],[27.3624,42.5907,49.2468],[27.3692,42.5902,44.3794],[27.3709,42.5869,51.2388],[27.3687,42.576,66.6173],[27.3594,42.563,33.6374],[27.3467,42.5557,56.5684],[27.321,42.5352,9.6137],[27.3108,42.5316,7.564],[27.2939,42.5295,20.0302],[27.2891,42.5308,19.2684],[27.2826,42.5363,22.4948],[27.2564,42.5479,35.695],[27.2483,42.555,50.4876],[27.2415,42.5576,64.1848],[27.2201,42.5579,68.2877],[27.2026,42.5599,96.9677],[27.1964,42.5581,99.654],[27.197,42.5541,87.2769],[27.2087,42.5401,56.2941],[27.2141,42.5271,60.5494],[27.215,42.5177,78.5382],[27.2122,42.5111,74.3149],[27.2138,42.5057,71.3334],[27.2268,42.4946,75.2023],[27.2444,42.4834,69.0716],[27.2469,42.4766,55.9631],[27.2504,42.4724,54.374],[27.2548,42.4711,57.2491],[27.2576,42.4729,64.1689],[27.2668,42.4809,66.6612],[27.2697,42.488,77.3878],[27.2833,42.492,65.0071],[27.2925,42.5002,24.9955],[27.3002,42.5008,10.7864],[27.307,42.4989,8.4713],[27.3105,42.4824,84.3053],[27.3131,42.4797,73.4174],[27.3244,42.4775,67.5722],[27.3327,42.4677,137.0066],[27.3375,42.4652,102.8391],[27.3447,42.4638,70.4574],[27.3504,42.4647,68.9881],[27.3527,42.4618,108.1572],[27.3554,42.4498,86.7072],[27.3593,42.4428,104.8916],[27.3584,42.4263,23.4155],[27.3598,42.4166,8.6254],[27.3685,42.4028,3.5],[27.3679,42.4006,3.5],[27.3623,42.3964,3.5],[27.3452,42.3896,3.5],[27.3429,42.3872,3.5],[27.3603,42.3854,16.0339],[27.4063,42.3879,4.5871],[27.4171,42.3889,13.1937],[27.4383,42.3943,91.6656],[27.4547,42.3948,31.6968],[27.4579,42.3924,30.0165],[27.4677,42.3735,46.4854],[27.472,42.373,75.9733],[27.4769,42.3796,82.724],[27.4859,42.383,65.5909],[27.4902,42.3811,64.9337],[27.5016,42.3648,88.5283],[27.507,42.3619,105.8663],[27.5111,42.3625,108.5438],[27.5179,42.3673,106.0461],[27.5521,42.4001,114.7774],[27.5546,42.4043,75.2339],[27.5554,42.4106,40.3455],[27.5506,42.419,23.6542],[27.5466,42.4226,17.2167],[27.544,42.4308,54.0461],[27.5507,42.4508,18.4016],[27.5529,42.4504,16.5679],[27.5468,42.4551,5.814],[27.5432,42.4549,23.5404],[27.5387,42.4571,0.0],[27.5346,42.4529,0.0],[27.5385,42.4476,2.0237],[27.5312,42.4451,0.0],[27.5287,42.4407,0.642],[27.529,42.4376,0.0],[27.5229,42.4338,0.0],[27.5226,42.4307,1.2398],[27.5107,42.4285,1.2722],[27.5085,42.4301,5.5198],[27.5104,42.4343,0.3768],[27.509,42.4379,0.0],[27.5029,42.4399,3.9456],[27.4979,42.4446,6.477],[27.4954,42.4443,4.4443],[27.4901,42.4476,4.0894],[27.4815,42.4565,7.2358],[27.4796,42.4621,0.0],[27.4735,42.4582,0.0],[27.4749,42.4562,7.8442],[27.4718,42.4529,0.0],[27.4749,42.4501,4.8682],[27.4674,42.446,0.0992],[27.464,42.4496,0.1135],[27.461,42.4482,0.6711],[27.4615,42.4501,0.3674],[27.4579,42.4496,0.3327],[27.4554,42.4526,1.1303],[27.4518,42.4532,1.3814],[27.4524,42.4571,0.0],[27.449,42.4568,2.1648],[27.4482,42.4588,0.0],[27.4438,42.4607,0.9527],[27.4499,42.4626,0.0],[27.4468,42.4679,3.416],[27.4465,42.4765,2.4647],[27.4513,42.479,1.6464],[27.4521,42.4815,0.0],[27.4499,42.4829,0.3384],[27.4526,42.4832,0.0],[27.4551,42.4863,0.6183],[27.4568,42.486,0.0],[27.4551,42.4843,0.0],[27.456,42.4821,1.3473],[27.4607,42.4807,1.0148],[27.4638,42.4846,0.0],[27.4635,42.4882,2.892],[27.466,42.4882,2.1192],[27.4718,42.4829,2.2876],[27.4793,42.4829,0.0],[27.4796,42.4843,0.4043],[27.4726,42.4868,0.0],[27.4796,42.4879,0.0],[27.4815,42.4863,0.0],[27.4815,42.4832,0.0],[27.4837,42.4821,0.3259],[27.4837,42.4868,0.0],[27.4815,42.4899,5.5979],[27.484,42.4951,0.9025],[27.4835,42.5054,2.6088],[27.4862,42.5215,0.1323],[27.4876,42.5215,0.7683],[27.4915,42.5307,0.4862],[27.4951,42.5335,0.0],[27.5004,42.5424,10.2098],[27.5093,42.5515,1.5422],[27.5232,42.5582,13.3598],[27.5326,42.5596,8.3551],[27.5404,42.5588,15.9986],[27.5582,42.5504,0.0],[27.5654,42.5521,11.3994],[27.569,42.5551,0.0],[27.5617,42.5629,21.7028],[27.5534,42.5661,39.3893],[27.5427,42.5735,57.0395],[27.5382,42.5847,44.7117],[27.5312,42.5959,21.4428],[27.5299,42.6019,10.1859],[27.5117,42.612,19.0637],[27.5041,42.6201,56.8652],[27.4972,42.6351,130.3727],[27.4968,42.643,170.817],[27.5065,42.6591,257.0135],[27.5115,42.6746,247.7568],[27.5078,42.6802,251.2009],[27.4949,42.6895,236.2098],[27.4857,42.7035,228.1118],[27.477,42.7096,188.9826],[27.4713,42.7127,186.7326],[27.4609,42.7151,198.69],[27.4414,42.717,284.2086],[27.4345,42.7204,248.7724],[27.4322,42.725,247.844],[27.4153,42.7135,292.3878],[27.4151,42.7056,334.7837],[27.4201,42.6983,378.9973],[27.4204,42.6924,349.4799],[27.4171,42.688,323.1912],[27.395,42.6723,391.1889],[27.3821,42.6695,312.6694],[27.3566,42.6689,278.5236],[27.3445,42.6665,266.6905],[27.3272,42.6572,131.666],[27.3151,42.6448,87.8769],[27.3058,42.6378,69.8848],[27.2725,42.6347,90.2105],[27.2661,42.6297,180.5515],[27.246,42.624,161.024],[27.2259,42.6145,153.7743]]]]}}