{"type":"Feature","properties":{"GID_2":"BGR.27.8_1","GID_0":"BGR","country":"Bulgaria","GID_1":"BGR.27_1","state":"Vratsa","NL_NAME_1":"Враца","county":"Oryahovo","VARNAME_2":"NA","NL_NAME_2":"Оряхово","TYPE_2":"Obshtina","ENGTYPE_2":"Municipality","CC_2":"NA","HASC_2":"BG.VR.OR","name":"Oryahovo.county"},
"geometry":{"type": "MultiPolygon","coordinates": [[[[24.3211,43.7003,20.0],[24.3125,43.7007,20.0],[24.2932,43.6983,20.0],[24.257,43.6917,20.0],[24.2326,43.6893,20.0],[24.2204,43.6859,20.0],[24.2004,43.6849,20.0],[24.188,43.6827,20.0],[24.1749,43.6829,20.0],[24.1602,43.6859,20.0],[24.143,43.6931,20.0],[24.1251,43.6976,20.0],[24.0879,43.7025,20.0],[24.0736,43.7113,20.0],[24.0749,43.7127,21.0754],[24.0711,43.7153,21.1656],[24.0623,43.7192,20.0],[24.0212,43.7295,20.0],[23.9902,43.7399,20.0],[23.9683,43.7449,20.0],[23.9279,43.7454,20.0],[23.8725,43.7538,20.25],[23.8782,43.7467,27.6132],[23.8925,43.7366,161.9851],[23.9115,43.7315,160.8169],[23.9188,43.72,160.733],[23.9302,43.7162,137.6131],[23.93,43.7063,143.8247],[23.9316,43.701,181.6755],[23.939,43.6963,174.9872],[23.9483,43.6939,170.2544],[23.949,43.6899,173.6283],[23.9435,43.6841,172.3792],[23.9419,43.6783,167.0225],[23.9441,43.6727,151.718],[23.955,43.6581,151.3579],[23.9526,43.6468,155.0268],[23.9533,43.6419,159.5979],[23.9592,43.6386,159.2222],[23.9728,43.6365,156.8085],[23.9736,43.6217,156.9695],[23.9797,43.6152,159.5124],[23.9856,43.612,158.824],[24.0,43.6154,156.2598],[24.01,43.6148,155.5365],[24.0274,43.6074,154.9795],[24.0367,43.6057,154.6824],[24.0424,43.6057,153.6104],[24.0514,43.6084,155.4535],[24.0661,43.6202,154.3212],[24.072,43.6228,153.3753],[24.08,43.623,152.8535],[24.0959,43.618,153.0885],[24.1017,43.6187,154.3251],[24.1092,43.6242,155.3454],[24.1144,43.6256,156.5128],[24.1215,43.6242,156.6068],[24.1302,43.6149,155.3441],[24.1448,43.6148,154.7596],[24.1501,43.6123,154.6344],[24.1659,43.6105,153.2327],[24.1751,43.6114,152.7802],[24.1898,43.6204,153.6709],[24.2118,43.6547,146.7349],[24.2217,43.6635,182.9485],[24.2334,43.6627,150.2022],[24.2533,43.6474,125.6746],[24.2606,43.645,131.0125],[24.2625,43.6455,151.2424],[24.2644,43.649,131.4347],[24.2665,43.6603,177.6668],[24.2717,43.6624,174.4369],[24.2757,43.6613,170.7107],[24.2868,43.6513,159.7007],[24.2972,43.6516,157.3165],[24.3045,43.6619,121.3887],[24.3117,43.6823,164.7151],[24.3211,43.7003,20.0]]]]}}