{"type":"Feature","properties":{"GID_2":"BGR.6.2_1","GID_0":"BGR","country":"Bulgaria","GID_1":"BGR.6_1","state":"Haskovo","NL_NAME_1":"Хасково","county":"Harmanli","VARNAME_2":"NA","NL_NAME_2":"Харманли","TYPE_2":"Obshtina","ENGTYPE_2":"Municipality","CC_2":"NA","HASC_2":"BG.KK.HM","name":"Harmanli.county"},
"geometry":{"type": "MultiPolygon","coordinates": [[[[25.7506,41.8118,187.4664],[25.7508,41.7925,191.3193],[25.7688,41.7812,202.4034],[25.7767,41.7781,192.5054],[25.8027,41.7763,194.5785],[25.8076,41.7741,261.3164],[25.8116,41.7699,298.9298],[25.8158,41.7566,283.2525],[25.8277,41.7463,351.5776],[25.8297,41.7405,411.1585],[25.829,41.7345,434.6622],[25.8432,41.734,472.4653],[25.8528,41.7306,450.7527],[25.8718,41.7358,545.8971],[25.8811,41.7369,552.943],[25.8951,41.7359,528.8882],[25.9229,41.751,372.0726],[25.9457,41.7526,379.1346],[25.9556,41.7552,313.3666],[25.9624,41.7581,319.7644],[25.9615,41.7702,203.4009],[25.959,41.7757,187.3846],[25.9575,41.7852,174.3943],[25.9629,41.7928,163.9641],[25.9744,41.8013,245.9693],[25.9798,41.8081,216.1012],[25.9793,41.8152,215.1926],[25.9701,41.8292,250.9844],[25.9693,41.8383,223.6471],[25.9741,41.8423,180.2342],[25.9772,41.8439,170.1106],[25.9962,41.8442,140.7604],[26.0098,41.8425,120.3412],[26.0394,41.8505,100.3025],[26.046,41.8603,64.6427],[26.0484,41.8716,66.6257],[26.0471,41.8829,62.2932],[26.0499,41.8886,77.5974],[26.0559,41.8895,121.0509],[26.0634,41.8859,117.2524],[26.0704,41.8851,116.6243],[26.0797,41.8867,134.8742],[26.0969,41.9094,187.3868],[26.1022,41.912,195.8554],[26.1136,41.9096,162.9522],[26.1291,41.9104,205.9575],[26.1447,41.9165,244.3481],[26.1661,41.9395,337.3057],[26.1856,41.9508,370.8537],[26.2087,41.9598,353.799],[26.2182,41.9663,339.1915],[26.2224,41.9738,396.8088],[26.2277,41.9775,432.7368],[26.2575,41.9906,713.6401],[26.2638,41.9986,679.7458],[26.2665,42.0102,599.0399],[26.227,42.0073,477.3929],[26.2142,42.01,495.9914],[26.1961,42.0191,480.8982],[26.1792,42.0246,511.3628],[26.1717,42.0312,450.8268],[26.1638,42.0418,505.4587],[26.1572,42.0391,524.3994],[26.1365,42.0378,493.9579],[26.1198,42.0296,428.6654],[26.1023,42.0301,389.6118],[26.0978,42.028,406.4935],[26.0855,42.0135,382.2158],[26.0743,42.01,367.7933],[26.0656,42.0117,328.9558],[26.0425,42.0264,318.246],[26.0237,42.0267,277.6538],[26.0121,42.0228,263.0396],[26.0067,42.0289,248.9262],[25.9983,42.0328,221.653],[25.9939,42.0311,245.0811],[25.9871,42.0218,199.6572],[25.9747,42.0125,210.3008],[25.9568,42.0037,197.2747],[25.9464,42.0007,165.9615],[25.9202,42.0021,141.3378],[25.908,41.9994,118.4307],[25.9008,41.9946,97.5282],[25.8842,41.9763,128.4542],[25.8775,41.9733,135.0141],[25.858,41.9721,123.1439],[25.8278,41.9769,187.5115],[25.8036,41.974,149.2358],[25.7877,41.9656,175.1643],[25.7933,41.9541,179.5544],[25.7984,41.9476,157.6856],[25.8052,41.944,163.0444],[25.8153,41.9414,197.0668],[25.8206,41.9366,187.9967],[25.8193,41.9246,157.1969],[25.8241,41.9148,222.7132],[25.8278,41.9117,242.7504],[25.8286,41.9065,260.4901],[25.8241,41.8909,209.1291],[25.8253,41.8863,223.2047],[25.8519,41.8711,207.7418],[25.8571,41.8646,191.6708],[25.8576,41.8588,173.7093],[25.8474,41.8336,158.932],[25.8386,41.8182,133.0964],[25.8345,41.8158,134.2022],[25.8286,41.814,137.1305],[25.8203,41.8143,141.5547],[25.8087,41.8182,166.3896],[25.7903,41.8273,195.4393],[25.771,41.8277,211.6812],[25.7596,41.8246,200.6218],[25.7524,41.8172,216.2024],[25.7506,41.8118,187.4664]]]]}}