{"type":"Feature","properties":{"GID_2":"BGR.28.1_1","GID_0":"BGR","country":"Bulgaria","GID_1":"BGR.28_1","state":"Yambol","NL_NAME_1":"Ямбол","county":"Bolyarovo","VARNAME_2":"NA","NL_NAME_2":"Болярово","TYPE_2":"Obshtina","ENGTYPE_2":"Municipality","CC_2":"NA","HASC_2":"BG.YA.BO","name":"Bolyarovo.county"},
"geometry":{"type": "MultiPolygon","coordinates": [[[[26.9232,42.2993,186.3828],[26.9163,42.2935,158.4759],[26.9105,42.2924,172.311],[26.9011,42.2939,177.7805],[26.8853,42.2899,217.468],[26.879,42.2901,214.9794],[26.8753,42.2923,201.3748],[26.8611,42.2899,221.4874],[26.8563,42.2835,260.1288],[26.8488,42.2777,292.3271],[26.8357,42.2744,306.7283],[26.7999,42.2796,322.4517],[26.7629,42.2807,314.0038],[26.7609,42.275,334.9376],[26.7454,42.2588,267.2199],[26.7412,42.242,209.7714],[26.7253,42.2307,192.4953],[26.714,42.2253,191.7193],[26.7041,42.2148,194.4526],[26.7032,42.2062,181.0206],[26.7077,42.1961,142.5311],[26.7118,42.1912,129.1367],[26.712,42.1853,146.1391],[26.7077,42.1795,132.3779],[26.6995,42.1743,162.5133],[26.697,42.1674,147.6018],[26.6974,42.1621,162.2111],[26.7069,42.1487,165.514],[26.7139,42.1352,187.8865],[26.7249,42.1312,202.4692],[26.7306,42.1269,220.3579],[26.7349,42.1111,279.7028],[26.7352,42.0997,257.4335],[26.7299,42.0881,245.1816],[26.7293,42.0852,238.8717],[26.7313,42.0816,254.6136],[26.729,42.0738,205.8525],[26.7292,42.0655,207.7015],[26.7382,42.0539,251.2568],[26.7332,42.0279,354.2283],[26.7339,42.0185,352.726],[26.7369,42.0143,364.9656],[26.7562,42.0082,389.2157],[26.7718,42.0104,474.3962],[26.7814,42.0087,445.3943],[26.783,42.0037,463.2151],[26.7783,41.993,444.9313],[26.7773,41.9759,443.6348],[26.7812,41.978,450.5284],[26.7849,41.9779,447.9682],[26.7957,41.9743,423.0437],[26.8385,41.9694,531.6858],[26.8483,41.9748,512.5764],[26.8511,41.9798,485.0314],[26.865,41.9874,498.5277],[26.9181,41.9929,436.5445],[26.9427,42.001,452.5299],[26.9681,42.0021,468.5751],[26.976,42.0082,411.719],[26.9831,42.0172,426.9065],[26.9831,42.0332,470.9839],[26.9878,42.0374,439.4796],[27.0026,42.0406,417.6764],[27.0145,42.0462,435.7673],[27.0196,42.0506,449.6109],[27.0304,42.065,500.5773],[27.0281,42.0812,540.6984],[27.0385,42.0838,500.1762],[27.0426,42.0888,506.714],[27.0462,42.0976,408.6075],[27.0437,42.1025,383.1127],[27.037,42.1071,368.9705],[27.0316,42.1098,352.4524],[26.9909,42.1152,340.3691],[26.9667,42.1241,342.3652],[26.9555,42.133,342.9891],[26.9442,42.1519,394.4188],[26.9434,42.1591,392.52],[26.9451,42.1692,303.6564],[26.9427,42.1755,288.2151],[26.9444,42.187,285.3656],[26.9483,42.191,300.381],[26.9589,42.1949,305.6831],[26.9688,42.2017,308.5612],[26.9697,42.2069,311.5537],[26.9675,42.2126,331.4849],[26.9638,42.2161,307.3866],[26.9489,42.2239,261.1506],[26.9386,42.2347,239.1409],[26.9358,42.2423,154.9491],[26.9429,42.2591,171.9822],[26.9589,42.271,115.5766],[26.9629,42.2843,133.122],[26.9606,42.2873,143.9558],[26.9516,42.2875,131.6128],[26.9334,42.2914,141.7781],[26.9266,42.295,176.2723],[26.9232,42.2993,186.3828]]]]}}