{"type":"Feature","properties":{"GID_2":"BGR.24.6_1","GID_0":"BGR","country":"Bulgaria","GID_1":"BGR.24_1","state":"Varna","NL_NAME_1":"Варна","county":"Devnya","VARNAME_2":"NA","NL_NAME_2":"Девня","TYPE_2":"Obshtina","ENGTYPE_2":"Municipality","CC_2":"NA","HASC_2":"BG.VN.DE","name":"Devnya.county"},
"geometry":{"type": "MultiPolygon","coordinates": [[[[27.6488,43.2504,216.7839],[27.6207,43.2783,214.1095],[27.6126,43.2835,196.0104],[27.6094,43.2844,154.0596],[27.6005,43.2808,123.2122],[27.5913,43.2794,101.2438],[27.584,43.2802,156.7156],[27.5526,43.2883,188.1711],[27.5475,43.2952,186.4394],[27.5456,43.2828,207.4056],[27.5437,43.2792,193.6116],[27.5377,43.2748,162.5803],[27.5323,43.2737,150.3733],[27.5182,43.2661,140.2625],[27.5148,43.2612,146.9947],[27.5132,43.2434,189.1138],[27.5252,43.2326,210.1101],[27.5402,43.2254,199.2657],[27.549,43.2087,266.4378],[27.5595,43.2128,154.8588],[27.5669,43.213,103.0256],[27.5796,43.2108,62.9767],[27.5832,43.2084,57.652],[27.5948,43.2099,8.9429],[27.6045,43.2079,24.9743],[27.6164,43.2023,18.4482],[27.6263,43.2057,58.2032],[27.6314,43.2019,31.9634],[27.6471,43.2006,17.0647],[27.6605,43.2041,48.9092],[27.6827,43.2217,129.1409],[27.6775,43.2278,145.202],[27.6488,43.2504,216.7839]]]]}}