{"type": "Feature","bbox": [26.0668,42.4522,26.674,42.954],"geometry": {"type": "MultiPolygon","coordinates": [[[[26.1973,42.9529,489.9731],[26.1738,42.9298,381.466],[26.1698,42.922,422.5388],[26.1597,42.9146,389.9835],[26.1296,42.9054,448.1635],[26.1146,42.8956,427.3115],[26.091,42.889,493.0586],[26.079,42.8825,578.5793],[26.0754,42.8769,670.6295],[26.0757,42.8698,600.9753],[26.0857,42.8563,599.5183],[26.0864,42.85,663.3804],[26.077,42.8417,876.1566],[26.0668,42.8384,772.7214],[26.0773,42.8357,743.4694],[26.1248,42.8343,786.2787],[26.1302,42.8334,845.6914],[26.1346,42.8306,755.1121],[26.1383,42.8279,773.9892],[26.1376,42.8169,1096.9469],[26.1334,42.8055,919.0315],[26.1373,42.797,989.8879],[26.1356,42.7888,791.3763],[26.1371,42.7734,606.435],[26.1428,42.7694,676.2623],[26.1475,42.7694,628.5319],[26.1583,42.7741,880.9279],[26.16,42.7713,816.4534],[26.1565,42.7586,563.2626],[26.1568,42.7505,505.8043],[26.1614,42.7465,506.1626],[26.165,42.7404,472.0363],[26.1579,42.729,583.181],[26.1549,42.7071,896.3805],[26.1471,42.7038,1028.9498],[26.143,42.7039,940.9489],[26.1295,42.7161,598.9572],[26.1222,42.7137,573.8706],[26.1179,42.7094,741.6013],[26.1125,42.6967,697.7885],[26.0971,42.6769,397.3106],[26.0927,42.6672,258.0584],[26.09,42.6579,321.8359],[26.0898,42.6469,196.9638],[26.0854,42.6363,192.6897],[26.0873,42.6224,263.8107],[26.093,42.6149,337.5954],[26.0952,42.6073,283.8433],[26.1369,42.6069,233.4716],[26.1425,42.6012,298.3349],[26.1451,42.5946,401.6729],[26.1456,42.5864,342.069],[26.1433,42.5702,268.1906],[26.148,42.565,250.2256],[26.1524,42.5633,244.2872],[26.1727,42.5615,252.57],[26.1782,42.5529,192.0288],[26.1925,42.5397,153.4263],[26.1925,42.5282,141.8207],[26.1837,42.4925,141.2517],[26.1835,42.4677,153.3318],[26.1876,42.4618,160.456],[26.1988,42.4585,164.8387],[26.2269,42.4583,168.0241],[26.2379,42.4655,160.6344],[26.2474,42.4657,152.1437],[26.2746,42.4587,152.4334],[26.28,42.4597,149.5119],[26.3014,42.4522,143.3188],[26.3098,42.4538,141.6443],[26.3147,42.4571,142.6125],[26.3186,42.4652,145.7623],[26.3339,42.4701,153.2178],[26.341,42.4744,163.1362],[26.3498,42.4889,159.1984],[26.3558,42.4934,156.2288],[26.3858,42.5056,213.812],[26.3877,42.5129,206.8329],[26.3863,42.5216,175.9618],[26.3791,42.5328,141.7873],[26.3696,42.538,141.9744],[26.3687,42.5411,142.0585],[26.3708,42.5447,141.8496],[26.3978,42.5659,140.8875],[26.4061,42.5683,144.5508],[26.4149,42.5678,139.9742],[26.4297,42.5614,136.9025],[26.4382,42.5594,136.2196],[26.4572,42.5596,134.3847],[26.474,42.5636,133.0601],[26.4827,42.5702,132.5864],[26.5135,42.586,133.5392],[26.5283,42.5865,144.0173],[26.543,42.5839,153.5995],[26.5604,42.5847,169.1888],[26.5794,42.5936,177.4692],[26.5984,42.6062,158.2849],[26.6102,42.6114,157.3827],[26.6189,42.6203,150.7538],[26.6276,42.637,151.7498],[26.6306,42.6389,152.1665],[26.635,42.6401,151.2476],[26.638,42.6389,150.8597],[26.6431,42.6334,150.0273],[26.6475,42.6317,150.8922],[26.6519,42.6313,152.2886],[26.6556,42.6331,153.729],[26.6578,42.6353,153.5059],[26.6602,42.644,158.6361],[26.6721,42.6558,184.4251],[26.674,42.6595,265.5861],[26.6705,42.6762,206.7809],[26.6716,42.685,280.3429],[26.6666,42.7023,319.9412],[26.6441,42.7092,223.614],[26.638,42.7096,230.4859],[26.6232,42.7015,321.3206],[26.6119,42.6978,414.1683],[26.6046,42.6883,373.5579],[26.5966,42.6878,401.3886],[26.5702,42.6906,673.9261],[26.5575,42.6959,614.9001],[26.5523,42.7003,499.4244],[26.5513,42.7078,476.7385],[26.5435,42.7122,410.1383],[26.5361,42.7269,491.2539],[26.5059,42.7305,713.2946],[26.5034,42.7458,956.3907],[26.5124,42.7605,717.4635],[26.5128,42.7681,575.6889],[26.4909,42.7872,569.001],[26.4849,42.7941,485.8474],[26.4805,42.8031,545.9595],[26.4745,42.8075,456.6592],[26.4341,42.8139,563.7864],[26.4281,42.8139,552.3457],[26.4127,42.8085,515.921],[26.404,42.8076,538.593],[26.3812,42.8088,588.1683],[26.3736,42.8115,543.8589],[26.3178,42.8414,744.8226],[26.2933,42.8521,967.3904],[26.2723,42.8507,730.179],[26.2531,42.8559,590.0071],[26.2315,42.8529,735.756],[26.2286,42.8554,739.9689],[26.229,42.8605,559.7259],[26.2412,42.8731,724.7275],[26.2416,42.8781,487.8087],[26.2372,42.8855,688.5529],[26.2163,42.9018,398.2911],[26.2183,42.919,392.0343],[26.2132,42.9267,372.8411],[26.2132,42.9306,370.9715],[26.2184,42.9406,463.4461],[26.218,42.9449,493.1513],[26.2092,42.9475,464.5895],[26.1996,42.954,520.7972],[26.1973,42.9529,489.9731]]]]}
,"properties": {"GID_2": "BGR.19.3_1","GID_0": "BGR","country": "Bulgaria","GID_1": "BGR.19_1","state": "Sliven","NL_NAME_1": "Сливен","county": "Sliven","VARNAME_2": "NA","NL_NAME_2": "Сливен","TYPE_2": "City","ENGTYPE_2": "City","CC_2": "NA","HASC_2": "BG.SL.SL","name": "Sliven.county","area_km2": 1333.517,"hist_schema_id": "Elevation0-9000","hist_area_km2": {"125": 22.699,"150": 253.79,"175": 151.389,"200": 76.08,"225": 46.824,"250": 43.158,"275": 31.136,"300": 19.039,"325": 15.637,"350": 12.954,"375": 14.878,"400": 19.163,"425": 23.84,"450": 26.549,"475": 31.045,"500": 34.658,"525": 34.243,"550": 32.253,"575": 29.611,"600": 28.736,"625": 28.704,"650": 27.753,"675": 29.701,"700": 29.139,"725": 29.543,"750": 28.984,"775": 28.951,"800": 28.282,"825": 24.81,"850": 23.065,"875": 20.917,"900": 18.738,"925": 14.987,"950": 12.901,"975": 9.914,"1000": 9.619,"1025": 6.568,"1050": 5.572,"1075": 3.284,"1100": 2.521,"1125": 1.261,"1150": 0.529,"1175": 0.093}}}