{"type":"Feature","properties":{"ISO3166-1-Alpha-3":"BGR","country":"Bulgaria","fill":"#F0F","id":"2248","name":"Pleven"},
"geometry":{"type": "Polygon","coordinates": [[[24.66176,43.75566,33.2286],[24.50014,43.7995,44.0883],[24.46634,43.80242,45.6804],[24.4312,43.79418,42.6822],[24.37549,43.76387,40.5467],[24.35823,43.76002,42.8211],[24.33671,43.75925,40.8943],[24.32899,43.71123,23.9559],[24.28754,43.66524,144.4384],[24.23152,43.64504,110.13],[24.19948,43.64741,133.9576],[24.1723,43.62997,158.7425],[24.14512,43.60602,152.3474],[24.12021,43.58899,151.3226],[24.14016,43.55843,91.4839],[24.15143,43.52236,140.2893],[24.17871,43.49135,113.7199],[24.22491,43.48453,53.5559],[24.2432,43.4375,59.5634],[24.24424,43.42045,61.8051],[24.23648,43.40097,63.1962],[24.22811,43.34307,187.2446],[24.18067,43.32493,124.586],[24.14584,43.32924,79.2322],[24.11194,43.32774,84.2874],[24.09293,43.3187,85.8732],[24.08187,43.30808,99.9541],[24.06719,43.31302,88.7795],[24.05241,43.31581,103.9851],[23.97862,43.29459,390.1177],[23.96084,43.26516,362.3645],[23.95071,43.24516,341.5394],[23.9594,43.23163,330.352],[24.02678,43.21173,275.3089],[24.08022,43.23483,279.4597],[24.13282,43.25235,178.4189],[24.15649,43.23798,169.6263],[24.17902,43.24152,112.6462],[24.20982,43.22917,147.4768],[24.23524,43.22628,248.4406],[24.25953,43.23157,267.1443],[24.28888,43.24036,226.9177],[24.317,43.24563,256.3064],[24.33405,43.26046,254.2046],[24.35389,43.27379,234.5038],[24.37301,43.27821,207.9849],[24.39255,43.27798,121.1409],[24.41053,43.26387,142.9169],[24.42407,43.24462,246.0551],[24.44309,43.231,256.1138],[24.51533,43.21566,371.6362],[24.56422,43.21408,407.9586],[24.57093,43.20853,424.8909],[24.57445,43.20114,422.7029],[24.58985,43.2054,402.1248],[24.62519,43.22744,338.5732],[24.6439,43.24462,351.5952],[24.65217,43.25873,367.0523],[24.66354,43.27043,359.4929],[24.67429,43.25896,395.6193],[24.68555,43.2647,378.5805],[24.69961,43.28038,348.479],[24.75284,43.30873,300.5719],[24.81381,43.31126,241.6355],[24.83696,43.30986,190.2852],[24.87459,43.31333,186.7844],[24.89629,43.29452,183.2413],[24.92223,43.29547,170.9053],[24.95024,43.30141,137.7986],[24.98011,43.31074,129.7806],[25.00667,43.32498,118.7845],[25.02445,43.33764,106.8666],[25.02982,43.36381,106.9348],[25.04987,43.34361,96.8276],[25.07519,43.30594,68.5225],[25.11157,43.27989,184.3604],[25.13069,43.28284,178.8182],[25.14961,43.28713,151.1982],[25.16604,43.29844,140.2447],[25.18413,43.30749,111.9816],[25.22568,43.33653,78.2682],[25.2203,43.37415,175.312],[25.19911,43.40601,189.349],[25.19033,43.44205,121.4882],[25.14754,43.44035,118.8036],[25.13596,43.46169,99.8412],[25.1678,43.48484,162.3151],[25.19674,43.51153,161.5224],[25.21937,43.54664,31.8971],[25.21162,43.5562,29.3959],[25.19519,43.55817,36.1658],[25.18743,43.58912,20.9271],[25.2173,43.61568,19.3794],[25.23115,43.6561,21.7848],[25.25565,43.6723,23.0849],[25.28252,43.68441,20.1256],[25.2854,43.69039,19.8567],[25.25234,43.70465,20.1831],[25.21131,43.71188,20.4097],[25.0816,43.71893,21.0213],[24.96367,43.7496,23.2494],[24.75263,43.7388,28.5154],[24.7056,43.74377,32.6819],[24.66176,43.75566,33.2286]]]}}