{"type":"Feature","properties":{"GID_1":"BGR.13_1","GID_0":"BGR","country":"Bulgaria","state":"Pleven","VARNAME_1":"Plevila|Plevna|Plyeven","NL_NAME_1":"Плевенска","TYPE_1":"Oblast","ENGTYPE_1":"Province","CC_1":"NA","HASC_1":"BG.PV","ISO_1":"BG-15","name":"Pleven.state"},
"geometry":{"type": "MultiPolygon","coordinates": [[[[24.3223,43.275,249.9504],[24.3299,43.2845,194.1224],[24.338,43.2854,204.7643],[24.3522,43.29,192.7624],[24.371,43.294,113.9776],[24.3975,43.2932,225.7799],[24.4125,43.284,226.5356],[24.4129,43.2793,263.9882],[24.4156,43.2764,260.2739],[24.4492,43.2608,175.0107],[24.4551,43.2548,259.0169],[24.4606,43.244,266.0204],[24.4717,43.2385,294.6666],[24.5128,43.2375,296.2389],[24.5409,43.2288,340.8368],[24.5597,43.2268,365.2457],[24.5929,43.2263,365.3029],[24.6105,43.2301,298.4662],[24.6351,43.2313,378.2437],[24.6425,43.2348,409.1339],[24.6471,43.2406,389.76],[24.6483,43.262,347.6143],[24.6523,43.2738,326.4383],[24.6593,43.2799,330.3807],[24.6628,43.2817,325.416],[24.6659,43.2811,326.2673],[24.67,43.2736,352.8122],[24.6708,43.2687,376.4489],[24.6757,43.2627,387.2951],[24.6812,43.2583,404.1277],[24.6867,43.2584,396.6204],[24.689,43.2598,397.7947],[24.6985,43.2778,352.2366],[24.7174,43.2914,322.6844],[24.7554,43.3091,300.1988],[24.8091,43.3266,249.2255],[24.838,43.3279,197.5163],[24.869,43.3128,187.5773],[24.9009,43.3066,162.7975],[24.9141,43.2969,181.1808],[24.9216,43.2968,170.9053],[24.9256,43.2983,163.9408],[24.9388,43.3114,150.9545],[24.9554,43.3208,129.1314],[24.9751,43.3276,129.7678],[24.986,43.336,121.078],[24.9929,43.3367,118.5293],[25.0143,43.3496,104.8645],[25.0171,43.3522,100.0602],[25.0199,43.3622,111.3329],[25.0262,43.3711,99.5489],[25.0281,43.3924,91.9508],[25.0293,43.395,89.7848],[25.0346,43.3971,99.4717],[25.0622,43.3893,73.1739],[25.0697,43.3842,89.4103],[25.0794,43.3743,89.4725],[25.0918,43.3522,88.6062],[25.0979,43.3359,79.833],[25.0991,43.3253,73.4061],[25.1087,43.3123,66.9563],[25.164,43.2867,155.2218],[25.1885,43.2934,132.0273],[25.1902,43.2956,124.0841],[25.1997,43.2983,111.2137],[25.213,43.3063,100.6425],[25.233,43.3118,88.5328],[25.2545,43.324,79.8697],[25.2646,43.3332,91.7761],[25.2725,43.346,134.6472],[25.2748,43.3574,176.8593],[25.2687,43.3738,186.4077],[25.2513,43.3754,148.8551],[25.2164,43.375,165.2012],[25.2106,43.3755,132.5694],[25.2059,43.3783,90.2083],[25.2068,43.383,168.7745],[25.2122,43.39,175.728],[25.2372,43.4114,118.0145],[25.2398,43.4185,116.6328],[25.2384,43.428,125.8601],[25.2293,43.4331,137.4487],[25.2093,43.4355,117.2323],[25.1667,43.4273,147.2487],[25.1459,43.4262,145.9882],[25.1381,43.4296,82.9555],[25.1311,43.4386,51.5361],[25.1299,43.4434,51.3361],[25.1311,43.4474,50.9339],[25.1356,43.4502,56.2864],[25.1758,43.4548,129.4379],[25.19,43.4592,129.0582],[25.2004,43.4646,108.8164],[25.2137,43.4763,86.1014],[25.2152,43.4854,83.2734],[25.2129,43.5094,121.0182],[25.214,43.5169,145.6205],[25.2188,43.5251,114.1237],[25.2285,43.5336,48.8327],[25.2337,43.5423,92.9006],[25.2315,43.5484,82.7382],[25.2268,43.5544,90.5817],[25.2088,43.5694,132.9992],[25.213,43.5766,72.1231],[25.2121,43.601,20.6697],[25.214,43.6048,19.0637],[25.225,43.6128,19.0746],[25.2238,43.622,18.8181],[25.1971,43.6488,19.6543],[25.1956,43.6653,20.0748],[25.2131,43.6905,16.0],[25.1688,43.7001,16.5],[25.1688,43.6978,16.5],[25.1452,43.693,16.5],[25.1441,43.695,16.5],[25.1341,43.6905,16.5],[25.1128,43.6842,16.5],[25.0976,43.6854,16.5],[25.0917,43.6874,16.5],[25.0598,43.6914,16.5],[25.0487,43.6949,17.0],[25.038,43.7037,17.0],[25.017,43.7141,18.6542],[25.0183,43.7152,17.0],[25.0092,43.7249,17.0],[25.0,43.7276,17.0],[24.9609,43.7301,32.2171],[24.949,43.7296,25.0289],[24.9375,43.7254,30.914],[24.9346,43.7236,25.3836],[24.9344,43.7163,17.5],[24.9196,43.7156,17.5],[24.8841,43.7076,17.5],[24.8653,43.7062,18.0],[24.8573,43.7071,18.0],[24.8321,43.7136,18.0],[24.8,43.7096,18.0],[24.8007,43.7082,18.0],[24.7741,43.6949,18.0],[24.754,43.6874,18.0],[24.7359,43.6854,18.0],[24.722,43.6884,18.0],[24.7063,43.6941,18.5],[24.6803,43.7083,18.5],[24.6694,43.7165,18.5],[24.6707,43.7177,18.5],[24.6546,43.7258,19.0],[24.6422,43.7344,20.9744],[24.6246,43.7427,19.0],[24.5794,43.7539,19.5],[24.5257,43.7603,19.5],[24.5142,43.7628,19.5],[24.5144,43.7652,19.5],[24.4998,43.7619,19.5],[24.4476,43.7423,19.5],[24.4459,43.7449,19.5],[24.4441,43.7447,19.5],[24.4101,43.7372,38.0264],[24.4002,43.7306,34.7521],[24.396,43.7255,35.6603],[24.3844,43.7199,37.0835],[24.3808,43.7161,26.4683],[24.3831,43.7131,20.0],[24.3501,43.6977,20.0],[24.3211,43.7003,20.0],[24.3117,43.6823,164.7151],[24.3045,43.6619,121.3887],[24.2972,43.6516,157.3165],[24.2868,43.6513,159.7007],[24.2757,43.6613,170.7107],[24.2717,43.6624,174.4369],[24.2665,43.6603,177.6668],[24.2644,43.649,131.4347],[24.2625,43.6455,151.2424],[24.2606,43.645,131.0125],[24.2533,43.6474,125.6746],[24.2334,43.6627,150.2022],[24.2217,43.6635,182.9485],[24.2118,43.6547,146.7349],[24.1898,43.6204,153.6709],[24.1751,43.6114,152.7802],[24.1659,43.6105,153.2327],[24.1501,43.6123,154.6344],[24.1448,43.6148,154.7596],[24.1302,43.6149,155.3441],[24.1215,43.6242,156.6068],[24.1144,43.6256,156.5128],[24.1092,43.6242,155.3454],[24.1017,43.6187,154.3251],[24.0959,43.618,153.0885],[24.08,43.623,152.8535],[24.072,43.6228,153.3753],[24.0661,43.6202,154.3212],[24.0555,43.6105,156.5915],[24.0468,43.607,154.6411],[24.0473,43.5946,156.2394],[24.0395,43.5561,151.003],[24.038,43.5526,145.4292],[24.025,43.5421,145.9809],[24.0232,43.5365,158.2904],[24.0262,43.5299,142.1359],[24.0301,43.5258,112.176],[24.0368,43.5109,154.8714],[24.0415,43.4847,136.6291],[24.0489,43.4757,141.2208],[24.0767,43.4574,156.0279],[24.0798,43.4521,161.0903],[24.0805,43.4452,160.9882],[24.0768,43.4366,163.5781],[24.0658,43.4252,158.5425],[24.0545,43.4194,163.1173],[24.0486,43.4118,162.2234],[24.0391,43.4059,170.1822],[24.027,43.4013,179.0099],[24.0225,43.3969,176.1352],[24.0187,43.3898,169.8195],[24.0167,43.377,178.8728],[23.9849,43.3628,185.1055],[23.9772,43.3543,201.4855],[23.9763,43.3473,206.9191],[23.9854,43.3248,208.2632],[23.9869,43.3157,136.5069],[23.9851,43.3025,222.437],[23.9814,43.2975,315.985],[23.9799,43.2902,347.2282],[23.9777,43.257,333.5468],[23.9688,43.2492,309.0002],[23.9715,43.2418,295.0669],[23.9821,43.2299,306.2831],[23.9887,43.2261,185.7981],[23.9952,43.2268,271.2888],[24.008,43.2347,211.1581],[24.0167,43.2348,214.3886],[24.0211,43.234,271.1543],[24.0366,43.2253,296.7051],[24.0486,43.2163,196.0555],[24.0634,43.2208,115.4353],[24.0867,43.2244,320.9847],[24.101,43.2436,214.8271],[24.1158,43.2533,205.0759],[24.1285,43.2575,147.6309],[24.1453,43.2594,142.5606],[24.1566,43.2583,133.6301],[24.1815,43.2513,118.8529],[24.1962,43.2503,144.233],[24.2148,43.2517,176.9129],[24.2247,43.2501,163.6709],[24.2371,43.2508,221.9044],[24.2622,43.2542,280.7798],[24.2777,43.2593,255.0024],[24.283,43.2614,241.187],[24.3006,43.2737,198.8139],[24.3131,43.2708,200.1549],[24.32,43.2727,242.038],[24.3223,43.275,249.9504]]]]}}