{"type":"Feature","properties":{"GID_2":"BGR.20.8_1","GID_0":"BGR","country":"Bulgaria","GID_1":"BGR.20_1","state":"Smolyan","NL_NAME_1":"Смолян","county":"Rudozem","VARNAME_2":"NA","NL_NAME_2":"Рудозем","TYPE_2":"Obshtina","ENGTYPE_2":"Municipality","CC_2":"NA","HASC_2":"BG.SM.RU","name":"Rudozem.county"},
"geometry":{"type": "MultiPolygon","coordinates": [[[[24.8868,41.515,678.4531],[24.8787,41.5175,672.6851],[24.8688,41.5177,744.215],[24.8514,41.5155,815.2764],[24.8379,41.5114,768.045],[24.8341,41.5085,809.2996],[24.8301,41.4972,908.0296],[24.8218,41.4956,892.9976],[24.8186,41.4935,752.6396],[24.8047,41.4782,1120.2168],[24.8018,41.4706,952.3491],[24.788,41.462,973.9312],[24.7813,41.4522,1112.1697],[24.7669,41.4385,993.332],[24.7436,41.4269,1126.3483],[24.7467,41.4228,1118.1779],[24.741,41.4168,1395.5104],[24.7467,41.4107,1375.3062],[24.7424,41.384,1562.46],[24.7443,41.3825,1598.7584],[24.743,41.3799,1536.0498],[24.7443,41.3779,1580.1158],[24.7601,41.3739,1646.7935],[24.7587,41.3701,1590.36],[24.7647,41.3649,1604.5353],[24.778,41.3587,1669.7708],[24.7881,41.3569,1594.9282],[24.7893,41.3536,1598.0386],[24.7989,41.346,1546.1044],[24.8018,41.3488,1529.2172],[24.802,41.3544,1551.7354],[24.8044,41.3586,1567.0568],[24.8028,41.3608,1467.0203],[24.803,41.3654,1341.3611],[24.8058,41.3678,1282.9669],[24.8077,41.3754,1329.1477],[24.8125,41.3801,1398.6483],[24.8098,41.391,988.1272],[24.8113,41.3961,1134.5701],[24.8191,41.3959,1343.2368],[24.8258,41.3933,1018.9681],[24.8468,41.3941,906.1791],[24.848,41.3906,880.3906],[24.8573,41.3863,880.3522],[24.8671,41.3888,1196.8132],[24.8732,41.3869,960.1229],[24.8776,41.394,1313.946],[24.887,41.4009,1347.8629],[24.8927,41.403,1283.7738],[24.9033,41.4034,988.5534],[24.9093,41.4035,1068.7104],[24.9101,41.4017,946.8589],[24.9294,41.4097,1045.5511],[24.9356,41.4275,1323.1378],[24.9252,41.4392,957.3392],[24.9228,41.453,912.1924],[24.9199,41.4591,882.9078],[24.9114,41.4624,1029.2708],[24.9062,41.4665,1031.0034],[24.9077,41.4765,887.8578],[24.9159,41.4883,852.3154],[24.9146,41.4972,856.9661],[24.9053,41.5051,905.8242],[24.8868,41.515,678.4531]]]]}}