{"type": "Feature","bbox": [24.4305,41.9185,24.5055,42.0945],"geometry": {"type": "MultiPolygon","coordinates": [[[[24.4305,41.9332,608.3508],[24.4444,41.9234,780.9276],[24.4589,41.9185,785.9757],[24.4662,41.9236,1158.6925],[24.4623,41.9262,1055.1587],[24.4617,41.9298,951.933],[24.4639,41.9366,735.2066],[24.4606,41.9451,715.9563],[24.461,41.9544,464.3441],[24.4697,41.9724,949.3951],[24.4831,42.0076,424.8631],[24.4816,42.0151,377.4663],[24.4742,42.0278,457.2822],[24.4755,42.0376,245.8514],[24.4811,42.0512,218.6865],[24.5024,42.069,204.2122],[24.5043,42.0744,201.5974],[24.4995,42.0725,202.3373],[24.4954,42.074,201.9306],[24.4947,42.0758,201.3179],[24.5054,42.0902,198.1693],[24.5055,42.0945,196.3622],[24.4939,42.0889,200.3609],[24.4784,42.0776,266.9344],[24.4425,42.0681,224.8011],[24.4346,42.057,323.2801],[24.434,42.0539,415.088],[24.4373,42.0438,463.3646],[24.4527,42.0327,639.4764],[24.4625,42.022,561.6459],[24.4646,42.0153,774.3814],[24.4654,42.0009,841.9933],[24.4547,41.9703,516.4463],[24.4429,41.9485,770.38],[24.4338,41.9357,530.5],[24.4305,41.9332,608.3508]]]]}
,"properties": {"GID_2": "BGR.14.6_1","GID_0": "BGR","country": "Bulgaria","GID_1": "BGR.14_1","state": "Plovdiv","NL_NAME_1": "Пловдив","county": "Krichim","VARNAME_2": "NA","NL_NAME_2": "Кричим","TYPE_2": "Obshtina","ENGTYPE_2": "Municipality","CC_2": "NA","HASC_2": "BG.PD.KC","name": "Krichim.county","area_km2": 37.91529,"hist_schema_id": "Elevation0-9000","hist_area_km2": {"200": 5.22506,"225": 7.83958,"250": 1.46406,"275": 0.77149,"300": 0.69278,"325": 1.0079,"350": 0.86623,"375": 0.97648,"400": 0.88197,"425": 1.90657,"450": 1.33903,"475": 1.18172,"500": 1.10309,"525": 2.30191,"550": 1.02442,"575": 0.99291,"600": 0.96148,"625": 0.97721,"650": 0.89855,"675": 0.77245,"700": 0.6779,"725": 0.75682,"750": 0.56764,"775": 0.5203,"800": 0.53612,"825": 0.36262,"850": 0.36272,"875": 0.31539,"900": 0.12618,"925": 0.18925,"950": 0.09464,"975": 0.09464,"1000": 0.04733,"1050": 0.04733,"1075": 0.03155}}}