{"type": "Feature","bbox": [26.179,42.1739,26.7561,42.5898],"geometry": {"type": "MultiPolygon","coordinates": [[[[26.3722,42.1739,168.4883],[26.3743,42.184,180.8095],[26.3804,42.1972,171.2323],[26.3778,42.2129,204.7169],[26.379,42.2196,228.2684],[26.3837,42.2236,242.2792],[26.3938,42.2278,282.2419],[26.4031,42.236,259.3913],[26.4112,42.2376,225.2686],[26.4342,42.2295,202.2811],[26.4418,42.2286,199.5101],[26.4621,42.2338,146.4381],[26.474,42.2296,118.4898],[26.4823,42.2291,141.0429],[26.5055,42.2366,170.884],[26.532,42.2307,158.1359],[26.5421,42.2342,139.9807],[26.5472,42.2417,166.3187],[26.56,42.2446,105.5477],[26.5669,42.2504,116.7621],[26.5821,42.2543,113.8149],[26.5849,42.2616,109.1245],[26.5813,42.2673,120.5232],[26.5805,42.277,109.6014],[26.5858,42.2822,140.0417],[26.5994,42.2873,109.8951],[26.6146,42.2884,148.343],[26.624,42.2907,168.0521],[26.633,42.2942,169.3006],[26.6488,42.3036,152.8794],[26.6672,42.3092,162.2546],[26.6779,42.3096,174.2181],[26.6862,42.3049,195.6738],[26.6951,42.3043,201.1751],[26.7146,42.3141,191.4724],[26.7458,42.3176,235.4585],[26.7426,42.3343,206.4395],[26.7382,42.3389,185.2586],[26.7288,42.344,200.2425],[26.704,42.363,201.0964],[26.6991,42.3754,206.7878],[26.6992,42.3796,211.8092],[26.6995,42.3837,208.2013],[26.7027,42.3899,223.8658],[26.7101,42.3962,229.0045],[26.7182,42.4005,257.1398],[26.7228,42.4111,302.1089],[26.7318,42.4145,290.7534],[26.7402,42.4242,338.0948],[26.7523,42.4278,284.9564],[26.7545,42.431399999999996,285.4808],[26.7561,42.4415,250.5826],[26.7541,42.4456,235.7041],[26.7463,42.4511,232.8131],[26.7207,42.4591,272.244],[26.7181,42.4612,262.417],[26.7078,42.474,218.2606],[26.7048,42.4846,217.8893],[26.6982,42.4932,194.2998],[26.6785,42.498,207.2148],[26.6346,42.5257,169.8903],[26.6122,42.5338,129.9851],[26.606,42.5346,129.1713],[26.597,42.5451,133.0979],[26.5791,42.5528,160.252],[26.5755,42.5556,156.6162],[26.5809,42.5656,160.1799],[26.5804,42.5712,154.0626],[26.5689,42.5898,178.1924],[26.5567,42.5839,165.6235],[26.543,42.5839,153.5995],[26.5283,42.5865,144.0173],[26.5135,42.586,133.5392],[26.4827,42.5702,132.5864],[26.474,42.5636,133.0601],[26.4635,42.5604,134.1426],[26.4382,42.5594,136.2196],[26.4297,42.5614,136.9025],[26.4149,42.5678,139.9742],[26.4061,42.5683,144.5508],[26.4003,42.5669,140.8314],[26.3936,42.5631,142.1184],[26.3708,42.5447,141.8496],[26.3687,42.5411,142.0585],[26.3696,42.538,141.9744],[26.3791,42.5328,141.7873],[26.3863,42.5216,175.9618],[26.3877,42.5129,206.8329],[26.3858,42.5056,213.812],[26.3558,42.4934,156.2288],[26.3498,42.4889,159.1984],[26.341,42.4744,163.1362],[26.3339,42.4701,153.2178],[26.3186,42.4652,145.7623],[26.3147,42.4571,142.6125],[26.3098,42.4538,141.6443],[26.3014,42.4522,143.3188],[26.28,42.4597,149.5119],[26.2746,42.4587,152.4334],[26.2474,42.4657,152.1437],[26.2379,42.4655,160.6344],[26.2295,42.4612,170.0694],[26.2245,42.4545,175.2641],[26.2297,42.4336,180.0409],[26.23,42.4253,176.4492],[26.2281,42.4201,178.7669],[26.2105,42.4191,202.9382],[26.1966,42.4248,220.1396],[26.1896,42.4247,235.2908],[26.184,42.4198,294.3373],[26.1842,42.4138,263.5513],[26.1874,42.405,225.3995],[26.2084,42.3761,184.5326],[26.2154,42.3755,187.4592],[26.2202,42.3777,199.3092],[26.2435,42.3923,211.3819],[26.2489,42.392,205.8506],[26.2511,42.3897,207.3389],[26.2513,42.3777,226.6357],[26.2351,42.3392,183.3133],[26.2268,42.3264,164.3147],[26.2053,42.2992,170.1292],[26.1861,42.267,146.1823],[26.1814,42.2551,136.096],[26.179,42.2396,175.7615],[26.1853,42.2368,186.1496],[26.1873,42.233,204.7039],[26.1926,42.2296,225.4217],[26.2081,42.2255,225.6857],[26.2134,42.2224,243.1131],[26.2273,42.2202,220.9992],[26.2366,42.2168,210.9229],[26.2531,42.2074,215.1708],[26.2899,42.2028,244.8505],[26.3042,42.198,197.4357],[26.3137,42.1896,206.5137],[26.3178,42.1892,206.0688],[26.3245,42.185,190.7551],[26.329,42.1794,187.7032],[26.3722,42.1739,168.4883]],
[[26.5081,42.547,140.3547],[26.5332,42.5516,134.409],[26.5383,42.5432,131.0012],[26.5276,42.5304,128.7321],[26.5286,42.5225,132.3736],[26.5548,42.5318,132.4851],[26.558,42.5172,127.6761],[26.5881,42.5128,148.225],[26.5771,42.5044,184.8149],[26.5765,42.4904,196.733],[26.5593,42.4872,196.2358],[26.5515,42.4683,153.3752],[26.5365,42.4666,142.4108],[26.5266,42.4392,121.2022],[26.4959,42.439,120.9985],[26.4906,42.4225,133.5727],[26.4635,42.4101,159.7609],[26.4546,42.4204,157.8427],[26.4609,42.4313,155.7605],[26.448,42.4446,137.8163],[26.4183,42.4448,153.1316],[26.4189,42.4628,153.9441],[26.442,42.4656,152.832],[26.4448,42.4879,204.5395],[26.4561,42.4892,175.2317],[26.4572,42.5295,171.8861],[26.4727,42.5346,161.7539],[26.4979,42.5235,140.7052],[26.5081,42.547,140.3547]]]]}
,"properties": {"GID_2": "BGR.28.4_1","GID_0": "BGR","country": "Bulgaria","GID_1": "BGR.28_1","state": "Yambol","NL_NAME_1": "Ямбол","county": "Tundzha","VARNAME_2": "Tunca","NL_NAME_2": "Тунджа","TYPE_2": "Obshtina","ENGTYPE_2": "Municipality","CC_2": "NA","HASC_2": "BG.YA.TU","name": "Tundzha.county","area_km2": 1215.4966,"hist_schema_id": "Elevation0-9000","hist_area_km2": {"100": 8.454,"125": 169.1024,"150": 402.3904,"175": 302.292,"200": 145.0677,"225": 79.5758,"250": 44.1967,"275": 26.5536,"300": 13.4103,"325": 7.0017,"350": 5.1062,"375": 3.8687,"400": 2.6001,"425": 2.1461,"450": 1.7703,"475": 1.1757,"500": 0.3923,"525": 0.1884,"550": 0.1099,"575": 0.0785,"600": 0.0157}}}