{"type":"Feature","properties":{"GID_2":"BGR.2.4_1","GID_0":"BGR","country":"Bulgaria","GID_1":"BGR.2_1","state":"Burgas","NL_NAME_1":"Бургас","county":"Karnobat","VARNAME_2":"NA","NL_NAME_2":"Карнобат","TYPE_2":"Obshtina","ENGTYPE_2":"Municipality","CC_2":"NA","HASC_2":"BG.BR.KR","name":"Karnobat.county"},
"geometry":{"type": "MultiPolygon","coordinates": [[[[27.0766,42.7881,562.2393],[27.0654,42.788,595.5176],[27.0642,42.7898,528.0516],[27.0653,42.7951,437.3392],[27.0555,42.7981,359.6038],[27.0484,42.8028,314.0914],[27.0444,42.8093,298.693],[27.0438,42.8173,326.3854],[27.0013,42.8196,345.2667],[26.9887,42.8172,349.7365],[26.9781,42.8097,501.7453],[26.9758,42.8042,631.5608],[26.9734,42.7881,418.0208],[26.9713,42.7835,354.5277],[26.9661,42.7786,279.2426],[26.9626,42.777,275.1588],[26.9557,42.7771,285.9854],[26.9517,42.7824,312.4867],[26.9465,42.7855,387.9774],[26.9406,42.7831,295.6231],[26.9353,42.774,290.1443],[26.9284,42.7733,322.903],[26.9257,42.7796,265.6937],[26.923,42.7784,273.5311],[26.9148,42.7676,420.5404],[26.9116,42.7577,315.5925],[26.9061,42.7496,279.7993],[26.904,42.7434,271.8596],[26.8976,42.7364,236.2598],[26.8906,42.7324,214.8589],[26.8575,42.7249,176.6346],[26.8446,42.7171,222.1907],[26.8402,42.7087,237.8514],[26.8392,42.7,240.4117],[26.8415,42.6692,252.9862],[26.8393,42.6627,255.1424],[26.8362,42.6599,260.9301],[26.8295,42.6577,258.8157],[26.8176,42.6577,242.9823],[26.8123,42.6599,252.583],[26.7927,42.677,311.0989],[26.7868,42.6781,341.1577],[26.7736,42.6716,378.0252],[26.7639,42.6717,397.5557],[26.7505,42.6669,351.5358],[26.7503,42.6641,350.319],[26.7532,42.66,290.0258],[26.7599,42.6552,224.5304],[26.7703,42.6422,158.3629],[26.7899,42.6237,138.2194],[26.7921,42.6179,138.6098],[26.792,42.6057,142.9915],[26.7972,42.5946,152.227],[26.8001,42.5806,152.9377],[26.8069,42.5688,147.0031],[26.825,42.5438,166.5665],[26.8356,42.5341,183.2427],[26.846,42.5122,213.0195],[26.852,42.505,233.1806],[26.8696,42.4985,242.0322],[26.8726,42.4955,247.072],[26.8723,42.4758,203.7478],[26.8744,42.4624,173.0084],[26.8796,42.4546,160.5641],[26.8841,42.4516,149.975],[26.8918,42.4501,148.0536],[26.9269,42.4529,157.6741],[26.9398,42.4513,156.7986],[26.9518,42.4399,126.4996],[26.9584,42.427,100.77],[26.9639,42.4221,93.7081],[26.9802,42.4313,93.2627],[26.9927,42.4473,148.1733],[27.008,42.4484,185.4578],[27.0152,42.4515,200.411],[27.0455,42.4482,171.931],[27.0647,42.4538,164.7784],[27.0849,42.4562,147.2179],[27.1019,42.4625,62.2776],[27.1094,42.4624,51.8323],[27.1266,42.4664,53.9149],[27.1359,42.4661,47.6411],[27.1357,42.4777,51.3732],[27.1245,42.4892,79.5188],[27.1217,42.4957,87.6362],[27.122,42.4983,91.362],[27.1334,42.5075,103.2295],[27.1341,42.5114,89.0818],[27.1229,42.5277,78.0076],[27.1229,42.5364,76.5018],[27.1073,42.5508,89.2954],[27.1061,42.5561,111.5801],[27.0986,42.5683,117.7679],[27.099,42.5775,133.656],[27.1035,42.5851,151.1443],[27.1193,42.5962,242.8952],[27.1235,42.6014,230.9687],[27.1392,42.6084,215.027],[27.154,42.6113,165.4462],[27.159,42.618,154.3582],[27.1581,42.6205,168.9795],[27.1517,42.6256,166.9951],[27.1153,42.6404,217.3479],[27.1046,42.6492,276.0825],[27.1016,42.6558,245.5926],[27.1008,42.6685,266.2682],[27.1109,42.6901,277.1858],[27.1068,42.694,282.5051],[27.0978,42.6975,275.9542],[27.0934,42.7025,263.5768],[27.0818,42.7055,216.1829],[27.0747,42.7117,191.6726],[27.0766,42.718,183.4194],[27.0807,42.7241,186.5188],[27.1039,42.7452,286.928],[27.1089,42.7573,453.1893],[27.1105,42.7672,582.5851],[27.1075,42.7747,638.6309],[27.1024,42.7781,529.6299],[27.0969,42.7782,523.7643],[27.092,42.7751,536.5769],[27.0917,42.7699,537.0986],[27.0982,42.759,468.0272],[27.098,42.7563,438.1474],[27.0955,42.7493,355.3052],[27.0922,42.746,325.6102],[27.0861,42.7436,283.6637],[27.0787,42.7435,272.1968],[27.0714,42.7524,429.4519],[27.0651,42.7572,473.3579],[27.0488,42.7611,299.4428],[27.0435,42.7679,327.4477],[27.0432,42.7743,342.3301],[27.0472,42.7787,370.2119],[27.0505,42.7804,393.1675],[27.0725,42.7826,533.0083],[27.0766,42.7881,562.2393]]]]}}