{"type": "Feature","bbox": [24.6876,42.0787,24.8392,42.1812],"geometry": {"type": "MultiPolygon","coordinates": [[[[24.6926,42.1454,163.586],[24.6905,42.1433,164.0089],[24.688,42.1325,166.2585],[24.6876,42.1216,171.4633],[24.6896,42.115,171.4404],[24.6975,42.1056,173.8554],[24.7022,42.0902,177.4296],[24.7081,42.0858,178.463],[24.7263,42.0793,194.6378],[24.7319,42.0787,196.2357],[24.7359,42.0796,187.1831],[24.7448,42.0895,168.8493],[24.7596,42.0923,166.8405],[24.7654,42.1017,162.5074],[24.7832,42.1035,159.26],[24.7911,42.1071,157.5524],[24.803,42.1162,156.7575],[24.8124,42.1301,153.4268],[24.8339,42.1326,151.5375],[24.8387,42.1367,149.8727],[24.8392,42.1398,150.1287],[24.8371,42.144,149.977],[24.8291,42.1513,152.6409],[24.8106,42.1568,152.63],[24.8054,42.1665,154.7856],[24.8022,42.169,154.5549],[24.7793,42.1721,157.3665],[24.7678,42.1786,159.5802],[24.7566,42.1812,161.9063],[24.7451,42.1791,163.1436],[24.7347,42.164,160.831],[24.7214,42.1598,160.5252],[24.7078,42.1425,163.2981],[24.7016,42.1422,161.1671],[24.6926,42.1454,163.586]]]]}
,"properties": {"GID_2": "BGR.14.11_1","GID_0": "BGR","country": "Bulgaria","GID_1": "BGR.14_1","state": "Plovdiv","NL_NAME_1": "Пловдив","county": "Plovdiv","VARNAME_2": "NA","NL_NAME_2": "Пловдив","TYPE_2": "City","ENGTYPE_2": "City","CC_2": "NA","HASC_2": "BG.PD.PL","name": "Plovdiv.county","area_km2": 81.51159,"hist_schema_id": "Elevation0-9000","hist_area_km2": {"150": 38.67315,"175": 42.03641,"200": 0.62909,"225": 0.14149,"250": 0.01572,"275": 0.01572}}}