{"type": "Feature","bbox": [27.0986,42.4027,27.3709,42.6465],"geometry": {"type": "MultiPolygon","coordinates": [[[[27.1583,42.6199,163.4691],[27.1583,42.6155,145.0609],[27.154,42.6113,165.4462],[27.1392,42.6084,215.027],[27.1235,42.6014,230.9687],[27.1193,42.5962,242.8952],[27.1035,42.5851,151.1443],[27.099,42.5775,133.656],[27.0986,42.5683,117.7679],[27.1061,42.5561,111.5801],[27.1073,42.5508,89.2954],[27.1229,42.5364,76.5018],[27.1229,42.5277,78.0076],[27.1341,42.5114,89.0818],[27.1334,42.5075,103.2295],[27.122,42.4983,91.362],[27.1217,42.4957,87.6362],[27.1245,42.4892,79.5188],[27.1357,42.4777,51.3732],[27.1359,42.4661,47.6411],[27.1434,42.4627,49.7372],[27.158,42.444,88.6319],[27.166,42.4375,92.1081],[27.1838,42.4316,76.6397],[27.1974,42.4297,71.9293],[27.2173,42.4307,7.5774],[27.2324,42.4243,5.3494],[27.2517,42.4222,4.0882],[27.2586,42.4144,1.5574],[27.2645,42.4111,0.602],[27.2894,42.4118,6.8362],[27.3149,42.4028,0.8031],[27.3273,42.4027,3.5],[27.3601,42.4161,8.6254],[27.3584,42.4263,23.4155],[27.3593,42.4428,104.8916],[27.3554,42.4498,86.7072],[27.3527,42.4618,108.1572],[27.3504,42.4647,68.9881],[27.3447,42.4638,70.4574],[27.3375,42.4652,102.8391],[27.3327,42.4677,137.0066],[27.3244,42.4775,67.5722],[27.3131,42.4797,73.4174],[27.3105,42.4824,84.3053],[27.307,42.4989,8.4713],[27.3002,42.5008,10.7864],[27.2925,42.5002,24.9955],[27.2833,42.492,65.0071],[27.2697,42.488,77.3878],[27.2668,42.4809,66.6612],[27.2576,42.4729,64.1689],[27.2548,42.4711,57.2491],[27.2504,42.4724,54.374],[27.2469,42.4766,55.9631],[27.2444,42.4834,69.0716],[27.2268,42.4946,75.2023],[27.2138,42.5057,71.3334],[27.2122,42.5111,74.3149],[27.215,42.5177,78.5382],[27.2141,42.5271,60.5494],[27.2087,42.5401,56.2941],[27.197,42.5541,87.2769],[27.1964,42.5581,99.654],[27.2026,42.5599,96.9677],[27.2201,42.5579,68.2877],[27.2415,42.5576,64.1848],[27.2483,42.555,50.4876],[27.2564,42.5479,35.695],[27.2826,42.5363,22.4948],[27.2891,42.5308,19.2684],[27.2939,42.5295,20.0302],[27.3108,42.5316,7.564],[27.321,42.5352,9.6137],[27.3467,42.5557,56.5684],[27.3594,42.563,33.6374],[27.3687,42.576,66.6173],[27.3709,42.5869,51.2388],[27.3692,42.5902,44.3794],[27.3624,42.5907,49.2468],[27.351,42.5847,46.1069],[27.3468,42.5848,51.8322],[27.3352,42.5926,51.7972],[27.3281,42.5997,60.4356],[27.3025,42.6071,43.3855],[27.287,42.604,32.9496],[27.2732,42.6049,65.8781],[27.2529,42.6015,101.6755],[27.2395,42.605,124.8202],[27.2138,42.6208,199.6013],[27.2106,42.6264,202.5789],[27.2128,42.6319,182.4827],[27.2228,42.6397,134.6457],[27.2241,42.6451,119.6876],[27.223,42.6465,116.8848],[27.2146,42.6453,141.4252],[27.2038,42.6412,161.6911],[27.1842,42.6332,218.3744],[27.1583,42.6199,163.4691]]]]}
,"properties": {"GID_2": "BGR.2.3_1","GID_0": "BGR","country": "Bulgaria","GID_1": "BGR.2_1","state": "Burgas","NL_NAME_1": "Бургас","county": "Kameno","VARNAME_2": "NA","NL_NAME_2": "NA","TYPE_2": "Obshtina","ENGTYPE_2": "Municipality","CC_2": "NA","HASC_2": "BG.BR.KM","name": "Kameno.county","area_km2": 320.2382,"hist_schema_id": "Elevation0-9000","hist_area_km2": {"0": 21.3239,"25": 70.5388,"50": 73.7784,"75": 49.2926,"100": 33.4308,"125": 21.9876,"150": 19.5615,"175": 16.8888,"200": 10.4089,"225": 3.0114,"250": 0.0156}}}