{"type":"Feature","properties":{"GID_2":"BGR.3.8_1","GID_0":"BGR","country":"Bulgaria","GID_1":"BGR.3_1","state":"Dobrich","NL_NAME_1":"Добрич","county":"Tervel","VARNAME_2":"Tarvel|Terval|Terbelis","NL_NAME_2":"Тервел","TYPE_2":"Obshtina","ENGTYPE_2":"Municipality","CC_2":"NA","HASC_2":"BG.DO.TE","name":"Tervel.county"},
"geometry":{"type": "MultiPolygon","coordinates": [[[[27.5865,43.827,187.9913],[27.5666,43.8484,201.7382],[27.5674,43.8618,153.0584],[27.5634,43.8743,134.146],[27.5608,43.9006,195.5307],[27.5579,43.8995,191.6304],[27.5528,43.9007,195.6748],[27.5426,43.9054,211.8365],[27.5321,43.9129,209.5466],[27.5242,43.9141,195.3479],[27.5179,43.9103,201.4984],[27.5136,43.8969,193.1828],[27.5102,43.8791,211.1172],[27.5005,43.8603,185.8375],[27.5,43.8564,158.9457],[27.4961,43.8528,103.1704],[27.4847,43.8458,212.769],[27.4736,43.8466,171.8585],[27.465699999999998,43.8524,128.045],[27.4557,43.8652,121.7873],[27.4504,43.8695,109.6881],[27.4424,43.8702,125.9285],[27.4241,43.8669,171.7176],[27.4053,43.8542,155.7096],[27.3794,43.8297,174.4976],[27.3647,43.8195,194.7001],[27.3516,43.8144,225.7883],[27.333,43.8153,180.0227],[27.3159,43.8135,203.0163],[27.296,43.7927,164.1547],[27.2777,43.7774,213.1656],[27.2742,43.7714,236.9614],[27.2697,43.7681,220.5111],[27.2337,43.7592,163.8431],[27.2268,43.756,204.3276],[27.2203,43.7455,221.1431],[27.2209,43.7321,232.7805],[27.2183,43.7194,216.3329],[27.2216,43.7154,211.0351],[27.2423,43.7039,255.4743],[27.2519,43.6966,243.7692],[27.2546,43.6876,235.4474],[27.2525,43.6821,232.2346],[27.2472,43.6766,240.1465],[27.2355,43.6746,262.1125],[27.2595,43.663,258.1021],[27.285,43.6602,233.8802],[27.2967,43.6561,228.3902],[27.3022,43.6496,211.3045],[27.3162,43.6215,248.1977],[27.3213,43.6152,249.2124],[27.3262,43.6137,250.2197],[27.3403,43.6136,262.6951],[27.3571,43.6171,237.7415],[27.3891,43.6283,250.3998],[27.4015,43.6312,254.38],[27.4093,43.6303,247.9673],[27.4226,43.6209,256.3657],[27.44,43.5986,206.4959],[27.4463,43.5958,193.92],[27.4561,43.5943,238.4017],[27.4729,43.5967,264.2477],[27.4692,43.6063,249.9189],[27.4702,43.6137,220.52],[27.4665,43.6183,208.5567],[27.4689,43.6326,247.1027],[27.463,43.6443,205.6906],[27.464,43.6463,227.5839],[27.4727,43.6502,221.571],[27.4783,43.655,164.3151],[27.4817,43.6653,233.325],[27.4789,43.679,187.2927],[27.4822,43.6832,211.0288],[27.4876,43.6862,194.8023],[27.4926,43.6971,224.2104],[27.4995,43.7304,175.9026],[27.4943,43.7479,230.1561],[27.4949,43.7548,235.7432],[27.5094,43.7611,220.7113],[27.513,43.7648,196.5368],[27.5132,43.7729,240.5245],[27.5158,43.7764,212.8111],[27.5124,43.7832,231.9312],[27.5125,43.7878,230.7388],[27.525,43.7974,173.4893],[27.5262,43.8011,169.2322],[27.5244,43.8132,133.0105],[27.5275,43.8189,148.3532],[27.5338,43.8202,151.2693],[27.5412,43.819,155.4005],[27.5463,43.8153,174.9905],[27.5638,43.7943,232.7876],[27.5683,43.7933,233.0533],[27.5719,43.7941,225.2362],[27.5749,43.7981,205.9818],[27.5751,43.8098,224.3917],[27.5773,43.8143,204.9923],[27.582,43.8152,172.8941],[27.5844,43.8139,178.0672],[27.588,43.8065,205.0545],[27.591,43.8045,208.0087],[27.5935,43.8065,204.44],[27.5925,43.8151,146.3376],[27.5865,43.827,187.9913]]]]}}