{"type":"Feature","properties":{"GID_2":"BGR.12.3_1","GID_0":"BGR","country":"Bulgaria","GID_1":"BGR.12_1","state":"Pernik","NL_NAME_1":"Перник","county":"Pernik","VARNAME_2":"NA","NL_NAME_2":"Перник","TYPE_2":"City","ENGTYPE_2":"City","CC_2":"NA","HASC_2":"BG.PN.PE","name":"Pernik.county"},
"geometry":{"type": "MultiPolygon","coordinates": [[[[23.0388,42.7229,870.2366],[23.0367,42.7352,807.5191],[23.0317,42.7421,746.263],[23.0243,42.7436,796.1699],[22.9972,42.7426,773.0308],[22.9965,42.7344,897.1196],[22.9927,42.7278,872.8007],[22.9831,42.7243,889.6013],[22.9629,42.7218,802.0222],[22.9541,42.7175,769.8171],[22.9511,42.712,736.759],[22.9528,42.7048,732.5146],[22.9557,42.7007,723.2153],[22.9713,42.7011,752.3086],[22.9733,42.7006,753.4966],[22.9744,42.6965,744.025],[22.9725,42.6923,730.1421],[22.9627,42.682,696.1763],[22.9556,42.6664,718.7684],[22.9529,42.6541,717.3355],[22.9484,42.6452,703.2624],[22.9468,42.6285,683.7568],[22.94,42.6292,687.0293],[22.9293,42.6407,672.3757],[22.9221,42.6462,716.4179],[22.8904,42.6563,860.4306],[22.881,42.6564,805.2615],[22.8689,42.6534,856.3047],[22.8604,42.6478,890.5471],[22.8497,42.6366,1036.1716],[22.8361,42.6144,952.2795],[22.8531,42.6078,965.1763],[22.8581,42.5984,960.6627],[22.8607,42.5893,857.783],[22.8653,42.5851,839.3354],[22.8952,42.5769,790.1677],[22.9364,42.5762,663.4767],[22.9514,42.5745,683.8317],[22.9631,42.568,762.1396],[22.9712,42.5588,771.1497],[22.9938,42.5547,856.3201],[23.0082,42.5489,839.7161],[23.0278,42.5365,835.933],[23.0404,42.5308,862.7334],[23.054,42.5296,956.6422],[23.0746,42.5216,994.447],[23.0942,42.509,1014.4634],[23.1189,42.4853,794.2811],[23.1364,42.4741,849.1656],[23.1477,42.4635,896.3221],[23.1646,42.4515,936.9022],[23.1759,42.4458,757.4976],[23.1908,42.4448,835.292],[23.2101,42.4496,973.1238],[23.2287,42.4503,1109.6571],[23.2306,42.4595,1180.8838],[23.2355,42.4675,1273.2135],[23.2521,42.4811,1290.1758],[23.2604,42.4909,1264.4081],[23.2686,42.5045,1278.2295],[23.2821,42.5166,1553.5419],[23.2787,42.5238,1838.5498],[23.2765,42.5357,1945.4346],[23.2699,42.5391,1681.1117],[23.2481,42.5401,1567.4897],[23.2448,42.5419,1574.8124],[23.2393,42.5475,1470.0168],[23.239,42.5504,1442.7076],[23.2346,42.5544,1541.4543],[23.227,42.5661,1729.9662],[23.2179,42.5741,1614.2344],[23.2008,42.5777,1330.6241],[23.1698,42.5769,831.7104],[23.1621,42.5786,848.2133],[23.1592,42.5816,802.314],[23.1614,42.5852,774.3845],[23.179,42.592,1127.8956],[23.1823,42.5948,1107.8868],[23.1815,42.6088,979.266],[23.1761,42.6379,967.4038],[23.1733,42.644,1140.1484],[23.1603,42.6543,1071.1353],[23.1482,42.6573,967.1007],[23.1338,42.6577,895.3535],[23.1198,42.6603,1003.6447],[23.1123,42.6673,1135.0685],[23.1118,42.6733,1125.3789],[23.1073,42.6834,917.95],[23.0998,42.6917,808.0978],[23.0877,42.6979,796.3932],[23.0485,42.7114,952.4329],[23.0394,42.7184,872.9974],[23.0388,42.7229,870.2366]]]]}}