{"type":"Feature","properties":{"GID_2":"BGR.22.9_1","GID_0":"BGR","country":"Bulgaria","GID_1":"BGR.22_1","state":"StaraZagora","NL_NAME_1":"СтараЗагора","county":"PavelBanya","VARNAME_2":"NA","NL_NAME_2":"ПавелБаня","TYPE_2":"Obshtina","ENGTYPE_2":"Municipality","CC_2":"NA","HASC_2":"BG.SZ.PB","name":"PavelBanya.county"},
"geometry":{"type": "MultiPolygon","coordinates": [[[[25.0365,42.7353,1699.8812],[25.0349,42.7233,1441.2833],[25.0406,42.7139,1463.9138],[25.0452,42.7022,1373.069],[25.0389,42.6739,891.3455],[25.0458,42.6541,609.3826],[25.0495,42.637,652.0048],[25.0496,42.6258,597.1305],[25.0259,42.5975,509.3646],[25.0247,42.5906,518.2671],[25.0295,42.5786,571.0577],[25.0467,42.554,750.4972],[25.0567,42.5142,1034.7072],[25.0658,42.5036,998.1364],[25.0755,42.4947,1069.1594],[25.0833,42.491,1018.5121],[25.1066,42.4876,772.2412],[25.1275,42.4789,675.4829],[25.1365,42.4785,702.1707],[25.1511,42.4817,676.6753],[25.172,42.4831,951.3055],[25.1869,42.4898,921.233],[25.1972,42.4916,827.1947],[25.2074,42.4897,862.5335],[25.2145,42.4852,912.4799],[25.2262,42.4696,707.1161],[25.2338,42.47,723.7415],[25.2483,42.4753,964.5995],[25.2588,42.4734,821.5365],[25.271,42.4671,850.8325],[25.2785,42.471,797.3672],[25.282,42.4744,738.1656],[25.2802,42.4835,721.3433],[25.2867,42.4946,823.8689],[25.2842,42.4982,832.3112],[25.2738,42.5028,877.5703],[25.2681,42.5076,755.8589],[25.2628,42.5147,684.1921],[25.2622,42.5189,569.1713],[25.2663,42.5277,523.5313],[25.2617,42.5419,490.6873],[25.2613,42.5492,481.4129],[25.2633,42.5525,506.1278],[25.2709,42.5579,487.0276],[25.2751,42.5648,486.004],[25.2843,42.569,436.7563],[25.2941,42.5768,407.568],[25.3183,42.6133,384.2287],[25.3203,42.6177,387.5],[25.3207,42.6246,412.2008],[25.3178,42.6315,393.6281],[25.3141,42.6341,392.093],[25.2754,42.6489,405.9921],[25.2581,42.6609,431.6771],[25.2494,42.6816,468.9164],[25.2379,42.6942,656.9233],[25.233,42.7029,931.1638],[25.2301,42.7141,1074.597],[25.2306,42.7251,923.7549],[25.2294,42.7302,873.7704],[25.2179,42.7466,1219.615],[25.213,42.7574,1249.736],[25.2117,42.7647,1229.3582],[25.2004,42.7577,1002.1898],[25.1883,42.7528,1160.6733],[25.1695,42.7524,1474.4553],[25.1524,42.7485,1018.3852],[25.1386,42.7434,960.4526],[25.1101,42.7289,1554.541],[25.0885,42.7291,1694.703],[25.0735,42.7342,1918.7241],[25.0365,42.7353,1699.8812]]]]}}