{"type":"Feature","properties":{"GID_2":"BGR.3.4_1","GID_0":"BGR","country":"Bulgaria","GID_1":"BGR.3_1","state":"Dobrich","NL_NAME_1":"Добрич","county":"GeneralToshevo","VARNAME_2":"NA","NL_NAME_2":"NA","TYPE_2":"Obshtina","ENGTYPE_2":"Municipality","CC_2":"NA","HASC_2":"BG.DO.GT","name":"GeneralToshevo.county"},
"geometry":{"type": "MultiPolygon","coordinates": [[[[28.2158,43.5555,181.3748],[28.2311,43.5573,168.7523],[28.2366,43.5605,180.0628],[28.2427,43.5674,174.9482],[28.2433,43.5759,179.2191],[28.2412,43.5792,182.2547],[28.2269,43.5916,172.7849],[28.2225,43.5972,172.0421],[28.2218,43.6006,173.2058],[28.2243,43.6074,177.3585],[28.237,43.6128,149.7691],[28.2425,43.6184,160.2284],[28.2413,43.6228,159.2989],[28.233,43.6326,149.373],[28.2331,43.6351,143.9126],[28.2352,43.637,154.2897],[28.2557,43.635,148.5282],[28.264,43.6308,149.0871],[28.2693,43.626,150.3967],[28.2772,43.6229,146.9729],[28.2837,43.623,141.9248],[28.3028,43.6295,131.2056],[28.3131,43.6356,123.658],[28.3146,43.6387,123.2841],[28.3125,43.6614,122.7299],[28.3181,43.6629,118.9482],[28.3253,43.6625,109.5377],[28.3424,43.6563,112.7414],[28.3489,43.6562,111.1599],[28.3698,43.6673,90.0557],[28.391,43.6692,101.3816],[28.3953,43.677,104.6589],[28.4072,43.684,94.0791],[28.4173,43.6876,89.0411],[28.4273,43.6956,90.8958],[28.4297,43.6996,90.9013],[28.4278,43.7116,96.6683],[28.4284,43.7162,88.3483],[28.4317,43.7186,94.8631],[28.4459,43.7224,79.9477],[28.47,43.7356,73.365],[28.4359,43.7387,70.9435],[28.4371,43.7359,74.5041],[28.3802,43.7467,93.0774],[28.3787,43.7498,89.8361],[28.3501,43.7555,111.842],[28.227,43.7702,149.0067],[28.1914,43.7806,157.5698],[28.1752,43.782,164.0089],[28.1344,43.7936,176.895],[28.1333,43.7924,176.895],[28.1292,43.7937,176.0491],[28.0173,43.8372,199.2604],[27.9957,43.8432,197.4042],[27.9777,43.9012,194.7653],[27.9555,43.9404,189.3346],[27.9457,43.9851,190.0289],[27.9183,44.0085,191.417],[27.845,43.9667,169.5205],[27.8243,43.9647,184.5551],[27.8367,43.9358,196.0333],[27.8504,43.9221,185.6217],[27.8559,43.9041,195.1791],[27.8559,43.8876,199.0905],[27.8512,43.879,200.6154],[27.8415,43.87,192.6288],[27.8408,43.8602,183.5094],[27.8378,43.8537,204.3788],[27.8175,43.8465,205.0611],[27.8142,43.8397,182.6744],[27.801,43.8327,190.8766],[27.7959,43.824,203.4753],[27.7955,43.8156,214.7545],[27.7887,43.8086,199.8091],[27.7885,43.8037,209.5541],[27.7897,43.7996,207.9689],[27.7919,43.7978,200.1199],[27.8125,43.7898,222.2698],[27.819,43.7851,218.2743],[27.8227,43.7801,212.1353],[27.8261,43.7748,207.3282],[27.8341,43.7533,200.395],[27.8427,43.743899999999996,197.8501],[27.8547,43.7345,214.636],[27.8568,43.7257,221.5293],[27.8566,43.7115,211.3996],[27.8593,43.7046,231.9481],[27.861,43.7028,234.7033],[27.8753,43.6998,228.6084],[27.8913,43.6872,239.816],[27.9342,43.6753,251.1284],[27.9356,43.6738,249.9446],[27.9352,43.661,255.5517],[27.9385,43.6541,256.4458],[27.9632,43.6398,223.4779],[27.9766,43.638,241.4496],[27.995,43.6422,233.2987],[28.0079,43.6429,234.9595],[28.0311,43.6388,233.0726],[28.0458,43.6289,229.7758],[28.0609,43.6041,232.6563],[28.0679,43.5975,232.7729],[28.084,43.5953,222.3907],[28.101,43.5998,216.0527],[28.1099,43.598,212.4996],[28.1198,43.5924,211.7848],[28.1349,43.5732,194.7898],[28.1443,43.5655,197.7053],[28.1471,43.5642,196.2572],[28.1549,43.5656,210.0954],[28.1681,43.5596,206.0869],[28.1726,43.5604,204.2743],[28.1759,43.5639,199.3814],[28.1806,43.5784,192.1869],[28.1868,43.5792,191.2739],[28.1935,43.5742,190.7612],[28.2007,43.5626,193.4033],[28.2058,43.5587,186.5798],[28.2158,43.5555,181.3748]]]]}}