{"type": "Feature","bbox": [23.8758,42.548,24.0409,42.7932],"geometry": {"type": "MultiPolygon","coordinates": [[[[23.9662,42.5672,661.7468],[23.9689,42.6035,652.4056],[23.9666,42.6116,753.8483],[23.9708,42.6187,655.3488],[23.9816,42.6257,558.1213],[24.0056,42.6298,571.3123],[24.0198,42.635,745.9071],[24.0244,42.6388,694.7838],[24.03,42.6474,701.1273],[24.032,42.6744,633.3661],[24.0409,42.6841,701.2776],[24.0344,42.6899,775.0317],[24.0326,42.6957,811.2058],[24.037,42.7063,1010.7227],[24.031,42.7297,1432.2629],[24.0311,42.7366,1614.2822],[24.0347,42.7516,1023.6834],[24.0223,42.7514,1388.8431],[24.0145,42.7537,1259.0869],[23.9931,42.7632,1375.7327],[23.9723,42.7684,1553.7357],[23.9456,42.7785,1071.2148],[23.9277,42.7903,1104.1375],[23.9137,42.7932,1215.7422],[23.9156,42.7878,1243.2115],[23.9167,42.7744,1393.376],[23.9088,42.7568,1047.8607],[23.9031,42.7365,1114.8022],[23.8988,42.7067,898.4639],[23.8934,42.6919,838.783],[23.8835,42.6813,819.4874],[23.8758,42.6694,826.6982],[23.8789,42.6642,898.793],[23.8912,42.6578,754.1963],[23.8909,42.6525,699.0151],[23.8785,42.6377,784.0269],[23.8801,42.6339,818.2987],[23.8787,42.6311,797.0121],[23.8823,42.6326,841.4178],[23.8979,42.6286,851.4637],[23.9,42.6269,854.6237],[23.9013,42.6195,853.9011],[23.8942,42.6034,970.202],[23.8942,42.6006,988.3111],[23.8969,42.596,972.4014],[23.8965,42.5912,915.2231],[23.8878,42.5833,944.5809],[23.8881,42.5785,981.8917],[23.8912,42.5737,1063.9297],[23.8882,42.5675,1089.6677],[23.8824,42.5607,1088.3398],[23.8783,42.5504,1184.9374],[23.8944,42.548,1152.4917],[23.9008,42.5553,1032.2845],[23.9053,42.5578,1002.0148],[23.9495,42.5634,802.6694],[23.9662,42.5672,661.7468]]]]}
,"properties": {"GID_2": "BGR.21.16_1","GID_0": "BGR","country": "Bulgaria","GID_1": "BGR.21_1","state": "Sofia","NL_NAME_1": "Sofija","county": "Mirkovo","VARNAME_2": "NA","NL_NAME_2": "NA","TYPE_2": "Obshtina","ENGTYPE_2": "Municipality","CC_2": "NA","HASC_2": "BG.SF.MI","name": "Mirkovo.county","area_km2": 223.6111,"hist_schema_id": "Elevation0-9000","hist_area_km2": {"500": 0.0936,"525": 1.5909,"550": 3.9458,"575": 7.5479,"600": 8.2652,"625": 8.3117,"650": 8.9507,"675": 9.6209,"700": 12.4584,"725": 11.3362,"750": 12.1628,"775": 11.9138,"800": 11.4767,"825": 11.2742,"850": 9.4188,"875": 9.4814,"900": 8.6392,"925": 6.8294,"950": 4.7867,"975": 4.0995,"1000": 3.1636,"1025": 3.724,"1050": 3.4121,"1075": 3.2873,"1100": 2.9598,"1125": 2.71,"1150": 3.0994,"1175": 2.6944,"1200": 2.7565,"1225": 2.445,"1250": 2.4447,"1275": 2.1487,"1300": 1.7905,"1325": 1.7594,"1350": 1.915,"1375": 1.8527,"1400": 2.0707,"1425": 2.1174,"1450": 1.5103,"1475": 1.8528,"1500": 1.7282,"1525": 1.4324,"1550": 1.3702,"1575": 1.3235,"1600": 1.0743,"1625": 1.1833,"1650": 0.9031,"1675": 0.872,"1700": 0.8097,"1725": 0.4671,"1750": 0.2958,"1775": 0.2336}}}