{"type":"Feature","properties":{"GID_2":"BGR.14.16_1","GID_0":"BGR","country":"Bulgaria","GID_1":"BGR.14_1","state":"Plovdiv","NL_NAME_1":"Пловдив","county":"Stamboliyski","VARNAME_2":"NA","NL_NAME_2":"Стамболийски","TYPE_2":"Obshtina","ENGTYPE_2":"Municipality","CC_2":"NA","HASC_2":"BG.PD.ST","name":"Stamboliyski.county"},
"geometry":{"type": "MultiPolygon","coordinates": [[[[24.4425,42.0681,224.8011],[24.4784,42.0776,266.9344],[24.4939,42.0889,200.3609],[24.5111,42.0976,193.0505],[24.5231,42.1078,203.3752],[24.5494,42.1249,182.2408],[24.5686,42.1266,174.1068],[24.5802,42.1315,174.2872],[24.5884,42.1385,174.6379],[24.5903,42.1543,174.0634],[24.5894,42.158,177.1161],[24.5506,42.1685,183.3198],[24.5307,42.1685,186.579],[24.52,42.1584,185.4566],[24.5128,42.1555,183.2024],[24.4993,42.1541,186.2531],[24.4849,42.1503,184.5722],[24.4671,42.1417,185.7569],[24.4473,42.1269,286.1316],[24.4441,42.122,327.7581],[24.4438,42.1142,237.7268],[24.4484,42.1099,248.926],[24.4535,42.0964,320.5556],[24.4488,42.0798,219.3516],[24.4492,42.0764,218.7588],[24.4425,42.0681,224.8011]]]]}}