{"type": "Feature","bbox": [26.6672,43.7988,26.9776,44.1175],"geometry": {"type": "MultiPolygon","coordinates": [[[[26.9134,43.7988,185.165],[26.9436,43.8182,174.7208],[26.962,43.8258,184.1234],[26.9702,43.8315,203.1288],[26.9776,43.841,204.6518],[26.9747,43.8492,202.9917],[26.9706,43.8536,187.4527],[26.9639,43.8573,149.1405],[26.9566,43.8585,145.2157],[26.9379,43.8562,193.9546],[26.9266,43.8599,201.1398],[26.9131,43.8576,204.4966],[26.9106,43.8604,188.17],[26.9083,43.8738,187.8796],[26.9038,43.8847,162.6443],[26.905,43.8878,162.0319],[26.9171,43.901,130.9382],[26.9237,43.9026,125.9276],[26.9285,43.9007,151.1163],[26.9333,43.9135,140.6046],[26.9387,43.9199,125.9692],[26.9531,43.93,110.0732],[26.9606,43.938,114.497],[26.9633,43.9432,78.6583],[26.9643,43.9537,63.74],[26.9603,43.9632,70.4108],[26.9543,43.9682,105.9396],[26.9364,43.9691,76.5315],[26.9291,43.9732,83.3061],[26.9296,43.9763,65.338],[26.9371,43.9827,58.5581],[26.9382,43.9877,48.7409],[26.9358,43.9916,43.5886],[26.9215,44.0017,66.67],[26.9165,44.0123,82.8714],[26.914,44.024,50.846],[26.9169,44.039,88.5731],[26.9164,44.0474,73.4106],[26.9144,44.0523,26.5642],[26.9076,44.0579,27.9742],[26.8801,44.073,113.7051],[26.8724,44.0811,115.3727],[26.8647,44.0937,74.9149],[26.8607,44.1175,8.0],[26.8424,44.1117,8.0],[26.8125,44.097,8.5],[26.7794,44.0827,8.5],[26.7667,44.0788,8.5],[26.7685,44.0329,120.3374],[26.7663,44.0271,128.5164],[26.7578,44.0205,121.0764],[26.7562,44.0169,125.899],[26.7632,44.0061,102.8706],[26.7646,44.0005,115.7812],[26.763,43.9965,120.9292],[26.771,43.9837,119.647],[26.7704,43.9762,94.8739],[26.7616,43.9675,69.2653],[26.7418,43.9553,116.3199],[26.7372,43.9508,126.8176],[26.7294,43.9384,134.4581],[26.7245,43.9271,130.3645],[26.7149,43.9179,118.3175],[26.6985,43.9047,111.141],[26.6733,43.8883,126.0362],[26.6672,43.8816,160.5707],[26.6875,43.8733,155.6255],[26.7006,43.8635,153.3309],[26.7211,43.8622,181.2023],[26.7286,43.8558,207.3884],[26.736,43.8534,206.4842],[26.7635,43.8526,146.7398],[26.7694,43.8482,154.5555],[26.773,43.8354,187.4781],[26.777,43.8326,195.7905],[26.7892,43.8341,194.1841],[26.8011,43.8431,178.9397],[26.805,43.8433,184.1426],[26.8117,43.837,223.5916],[26.8176,43.8366,221.7674],[26.8352,43.8534,205.1822],[26.8398,43.8547,201.1107],[26.8472,43.8537,188.1347],[26.8508,43.8508,177.5689],[26.8589,43.8304,172.8544],[26.868,43.8198,214.5234],[26.8817,43.8111,219.6177],[26.9134,43.7988,185.165]]]]}
,"properties": {"GID_2": "BGR.18.3_1","GID_0": "BGR","country": "Bulgaria","GID_1": "BGR.18_1","state": "Silistra","NL_NAME_1": "Силистра","county": "Glavinitsa","VARNAME_2": "NA","NL_NAME_2": "NA","TYPE_2": "Obshtina","ENGTYPE_2": "Municipality","CC_2": "NA","HASC_2": "BG.SI.GL","name": "Glavinitsa.county","area_km2": 443.2017,"hist_schema_id": "Elevation0-9000","hist_area_km2": {"0": 3.4869,"25": 3.4725,"50": 6.6897,"75": 26.9478,"100": 62.1909,"125": 175.1868,"150": 79.2519,"175": 36.8881,"200": 42.2652,"225": 6.8217}}}