{"type": "Feature","bbox": [28.2158,43.3596,28.571,43.6713],"geometry": {"type": "MultiPolygon","coordinates": [[[[28.2354,43.4043,0.9134],[28.2429,43.4054,0.0],[28.2454,43.4021,2.3457],[28.2512,43.4043,3.6261],[28.254,43.4082,0.0],[28.2668,43.4093,1.7678],[28.2757,43.4135,4.3275],[28.286,43.4121,8.8852],[28.2899,43.4151,0.0],[28.3088,43.4179,9.8423],[28.3282,43.4165,0.0],[28.3451,43.4115,0.0],[28.3565,43.4132,0.6668],[28.359,43.4107,29.7793],[28.3676,43.4079,0.0],[28.3738,43.4076,28.7524],[28.3907,43.4029,24.7411],[28.4057,43.3913,0.0],[28.4154,43.3871,30.1896],[28.4263,43.3838,19.7686],[28.4343,43.3846,27.0314],[28.4529,43.3796,7.2709],[28.4621,43.3701,0.0],[28.4643,43.3654,10.1444],[28.464,43.3601,0.0],[28.4662,43.3596,0.0],[28.4665,43.3676,0.0],[28.471,43.3815,6.9954],[28.4813,43.3896,0.0],[28.4851,43.396,13.3267],[28.4951,43.404,4.3867],[28.4979,43.4107,35.5078],[28.5026,43.411,2.9709],[28.5088,43.4151,0.0],[28.5132,43.4149,3.463],[28.5129,43.4137,0.0],[28.5168,43.4149,0.0],[28.5229,43.4201,4.7928],[28.531,43.424,2.8783],[28.5365,43.4299,1.4896],[28.5393,43.4299,0.0],[28.5551,43.4474,2.1217],[28.559,43.4532,1.9578],[28.5588,43.4562,4.9416],[28.571,43.4724,0.0],[28.5544,43.4724,37.8842],[28.5399,43.4791,46.6781],[28.5212,43.4819,47.4796],[28.516,43.4844,50.9565],[28.5094,43.4905,51.7457],[28.4949,43.4948,58.9506],[28.4859,43.5047,63.3661],[28.4783,43.5203,69.4474],[28.4729,43.5235,78.3413],[28.4666,43.5244,77.511],[28.4284,43.5155,88.3274],[28.4168,43.5147,98.6316],[28.4059,43.5202,99.7037],[28.404,43.523,104.657],[28.4033,43.5292,109.9528],[28.4063,43.5335,101.2117],[28.4458,43.5617,85.3393],[28.4462,43.5659,85.2385],[28.4211,43.5711,96.3805],[28.4183,43.5777,85.9733],[28.4201,43.5824,84.8242],[28.4397,43.5933,81.3891],[28.4425,43.5992,72.0491],[28.4465,43.603,72.8487],[28.4601,43.605,61.3011],[28.4628,43.6088,51.4062],[28.4606,43.6152,49.1375],[28.4518,43.6263,66.9321],[28.4538,43.6481,79.5788],[28.4435,43.6598,83.7174],[28.4386,43.6684,70.5081],[28.4261,43.6713,82.8799],[28.416,43.6713,85.2229],[28.375,43.6681,87.5559],[28.361,43.6635,101.7997],[28.3489,43.6562,111.1599],[28.3424,43.6563,112.7414],[28.3253,43.6625,109.5377],[28.3144,43.6625,121.7829],[28.3125,43.6614,122.7299],[28.3122,43.6571,125.8213],[28.3146,43.6387,123.2841],[28.3131,43.6356,123.658],[28.3079,43.6318,127.9363],[28.2893,43.6246,136.0557],[28.2772,43.6229,146.9729],[28.2693,43.626,150.3967],[28.264,43.6308,149.0871],[28.2557,43.635,148.5282],[28.2352,43.637,154.2897],[28.2331,43.6351,143.9126],[28.233,43.6326,149.373],[28.2413,43.6228,159.2989],[28.2425,43.6184,160.2284],[28.237,43.6128,149.7691],[28.2243,43.6074,177.3585],[28.2217,43.6025,172.3932],[28.2225,43.5972,172.0421],[28.2269,43.5916,172.7849],[28.2385,43.5825,182.9952],[28.2433,43.5759,179.2191],[28.2435,43.5728,176.4772],[28.2415,43.5652,175.6739],[28.2366,43.5605,180.0628],[28.2311,43.5573,168.7523],[28.2158,43.5555,181.3748],[28.2183,43.5522,179.3809],[28.2247,43.5327,164.355],[28.232,43.5218,178.3694],[28.2561,43.5119,152.6007],[28.2821,43.4874,147.56],[28.2794,43.4789,158.1342],[28.2768,43.4755,156.5212],[28.2584,43.4622,161.791],[28.2439,43.4454,167.2043],[28.2357,43.4275,164.2635],[28.2354,43.4043,0.9134]]]]}
,"properties": {"GID_2": "BGR.3.5_1","GID_0": "BGR","country": "Bulgaria","GID_1": "BGR.3_1","state": "Dobrich","NL_NAME_1": "Добрич","county": "Kavarna","VARNAME_2": "Cavarna","NL_NAME_2": "Каварна","TYPE_2": "Obshtina","ENGTYPE_2": "Municipality","CC_2": "NA","HASC_2": "BG.DO.KA","name": "Kavarna.county","area_km2": 531.4213,"hist_schema_id": "Elevation0-9000","hist_area_km2": {"0": 3.019,"25": 4.7579,"50": 32.5056,"75": 102.185,"100": 128.7534,"125": 142.768,"150": 92.1096,"175": 25.3227}}}