{"type": "Feature","bbox": [23.1364,41.3759,23.6572,41.739],"geometry": {"type": "MultiPolygon","coordinates": [[[[23.3544,41.738,1910.3813],[23.341,41.7254,1962.9338],[23.3356,41.7141,2056.1387],[23.326,41.7037,1956.2937],[23.3152,41.6973,1702.8088],[23.2927,41.6894,1171.079],[23.248,41.659,565.4304],[23.2431,41.6533,533.0292],[23.2378,41.6415,368.0417],[23.2311,41.6316,309.834],[23.2231,41.6123,150.0527],[23.2105,41.6035,121.0179],[23.2035,41.5942,277.6678],[23.1906,41.5708,473.7527],[23.1825,41.5651,646.2947],[23.1739,41.5613,641.6061],[23.1689,41.5609,543.0664],[23.1687,41.5582,616.298],[23.159,41.5567,614.5584],[23.1364,41.5462,840.389],[23.1597,41.546,682.4641],[23.1767,41.5392,454.7784],[23.1971,41.5364,304.619],[23.2059,41.5321,340.1207],[23.2014,41.5337,242.6441],[23.235,41.5121,306.0838],[23.2744,41.4816,89.5],[23.2994,41.4703,172.3284],[23.3192,41.4688,190.0201],[23.3338,41.4718,227.7213],[23.3516,41.4793,248.5214],[23.3586,41.4795,272.9974],[23.3612,41.478,256.1596],[23.3675,41.4732,219.9786],[23.371,41.4675,202.8268],[23.3706,41.4469,204.4249],[23.3729,41.4407,184.6781],[23.3877,41.4358,177.2321],[23.3889,41.4339,162.3041],[23.3894,41.4212,173.7487],[23.394,41.4008,129.1542],[23.4025,41.401,115.9465],[23.4092,41.398,174.2288],[23.4297,41.4061,171.5457],[23.4481,41.4027,319.6252],[23.4537,41.4034,358.9863],[23.4744,41.3982,427.7226],[23.4906,41.4019,540.5325],[23.4991,41.4009,604.6223],[23.5094,41.4044,830.0522],[23.5176,41.4053,1071.0216],[23.5272,41.4022,1128.8232],[23.5264,41.398,948.2671],[23.5285,41.3943,996.8962],[23.5334,41.3927,1207.7781],[23.5401,41.3864,1062.7397],[23.571,41.3898,1413.543],[23.5798,41.3871,1485.1696],[23.5922,41.3796,1947.6207],[23.5937,41.3801,1991.2745],[23.6005,41.3764,2015.9821],[23.6044,41.3776,2050.0847],[23.6111,41.376,2049.9277],[23.6156,41.3777,2082.4812],[23.6241,41.3759,2152.3374],[23.6331,41.3805,1950.3671],[23.6357,41.3844,1847.3436],[23.6375,41.3936,1884.2422],[23.6419,41.3965,2136.8516],[23.6492,41.3982,2013.5883],[23.6566,41.4067,1342.7646],[23.652,41.4227,1185.8798],[23.6571,41.4381,1271.4426],[23.6572,41.4715,1639.1174],[23.6471,41.4948,1627.762],[23.6365,41.5116,1867.5631],[23.6276,41.5355,1538.318],[23.6167,41.555,1832.0985],[23.6087,41.5808,1650.8236],[23.6004,41.5964,1521.051],[23.5566,41.6361,2032.749],[23.5278,41.6556,2509.1548],[23.5127,41.675,2264.7324],[23.5085,41.6918,2381.6699],[23.4934,41.696,2631.895],[23.4872,41.7013,2571.4258],[23.4692,41.7073,2321.6411],[23.4555,41.7301,2524.9385],[23.4501,41.7349,2371.0308],[23.4389,41.739,2274.5063],[23.4327,41.7385,2515.5737],[23.4228,41.7338,2320.3599],[23.3916,41.7079,1883.9116],[23.3869,41.7068,1925.4534],[23.3824,41.7086,1936.4407],[23.3798,41.7116,2044.1239],[23.3785,41.7244,2255.1699],[23.3721,41.7331,2470.8406],[23.3675,41.7361,2230.3281],[23.3544,41.738,1910.3813]]]]}
,"properties": {"GID_2": "BGR.1.10_1","GID_0": "BGR","country": "Bulgaria","GID_1": "BGR.1_1","state": "Blagoevgrad","NL_NAME_1": "Благоевград","county": "Sandanski","VARNAME_2": "SvetiVrach","NL_NAME_2": "Сандански","TYPE_2": "Obshtina","ENGTYPE_2": "Municipality","CC_2": "NA","HASC_2": "BG.BL.SN","name": "Sandanski.county","area_km2": 989.6419,"hist_schema_id": "Elevation0-9000","hist_area_km2": {"100": 16.7285,"125": 14.9849,"150": 15.6068,"175": 22.6592,"200": 25.8352,"225": 26.8829,"250": 25.1033,"275": 20.5777,"300": 20.3685,"325": 19.6071,"350": 19.3057,"375": 17.7339,"400": 19.338,"425": 20.1162,"450": 18.0986,"475": 16.8737,"500": 15.539,"525": 16.14,"550": 16.9167,"575": 15.0603,"600": 14.3292,"625": 13.2823,"650": 12.8542,"675": 12.0134,"700": 11.4899,"725": 11.6492,"750": 11.7128,"775": 12.2052,"800": 11.8559,"825": 10.7925,"850": 11.1902,"875": 10.952,"900": 11.4605,"925": 10.6352,"950": 10.6031,"975": 9.603,"1000": 9.9035,"1025": 9.5381,"1050": 9.871,"1075": 10.1403,"1100": 10.3629,"1125": 10.5682,"1150": 10.5049,"1175": 10.9332,"1200": 10.9007,"1225": 10.9645,"1250": 10.2814,"1275": 10.1385,"1300": 11.0422,"1325": 10.3743,"1350": 10.3267,"1375": 10.9447,"1400": 11.1028,"1425": 9.3262,"1450": 11.1654,"1475": 9.9124,"1500": 8.9923,"1525": 9.5318,"1550": 9.5472,"1575": 8.8649,"1600": 9.0554,"1625": 7.9436,"1650": 7.4043,"1675": 7.0396,"1700": 6.6586,"1725": 6.199,"1750": 6.0235,"1775": 5.7223,"1800": 5.0717,"1825": 5.0717,"1850": 5.2461,"1875": 4.6118,"1900": 4.3422,"1925": 4.4219,"1950": 4.5638,"1975": 4.5797,"2000": 4.4377,"2025": 4.2155,"2050": 4.1994,"2075": 4.0718,"2100": 3.803,"2125": 4.0557,"2150": 3.6747,"2175": 3.421,"2200": 3.8798,"2225": 3.7053,"2250": 3.3096,"2275": 3.0244,"2300": 3.3569,"2325": 3.3251,"2350": 3.1667,"2375": 3.2774,"2400": 3.1983,"2425": 2.8338,"2450": 3.1979,"2475": 2.3746,"2500": 2.232,"2525": 2.1846,"2550": 1.4248,"2575": 1.5514,"2600": 1.0132,"2625": 0.6016,"2650": 0.3325,"2675": 0.1742,"2700": 0.1742,"2725": 0.0633,"2750": 0.0317,"2775": 0.0317}}}