{"type":"Feature","properties":{"GID_2":"BGR.13.2_1","GID_0":"BGR","country":"Bulgaria","GID_1":"BGR.13_1","state":"Pleven","NL_NAME_1":"Плевенска","county":"ChervenBryag","VARNAME_2":"NA","NL_NAME_2":"Червенбряг","TYPE_2":"Obshtina","ENGTYPE_2":"Municipality","CC_2":"NA","HASC_2":"BG.PV.CB","name":"ChervenBryag.county"},
"geometry":{"type": "MultiPolygon","coordinates": [[[[24.3298,43.2842,194.1224],[24.3137,43.2956,163.2431],[24.3051,43.2998,194.8409],[24.304,43.308,208.4484],[24.3075,43.3155,207.3891],[24.3049,43.3287,194.3914],[24.3056,43.3373,182.4603],[24.3083,43.3459,184.9734],[24.3079,43.3496,183.4074],[24.3034,43.3559,176.3582],[24.2888,43.3648,167.1564],[24.2693,43.3734,182.2263],[24.2617,43.3749,153.9587],[24.244,43.3731,180.1257],[24.2396,43.3739,189.8181],[24.2351,43.3788,188.0527],[24.2349,43.3923,81.2813],[24.2457,43.4257,62.8543],[24.2441,43.4386,59.2674],[24.2381,43.4351,63.7771],[24.2337,43.4344,57.1125],[24.2198,43.4403,59.2098],[24.2077,43.4408,64.9291],[24.1914,43.4358,70.3983],[24.1666,43.423,80.9481],[24.1333,43.4148,117.4299],[24.1225,43.4097,106.1218],[24.1192,43.4057,118.2435],[24.1184,43.3921,104.2306],[24.1076,43.3832,104.2405],[24.1021,43.373,109.2857],[24.0968,43.3699,105.8497],[24.0892,43.3698,108.8107],[24.0668,43.3751,158.1694],[24.0499,43.3721,139.5881],[24.0383,43.3721,161.871],[24.0167,43.377,178.8728],[23.9849,43.3628,185.1055],[23.9772,43.3543,201.4855],[23.9763,43.3473,206.9191],[23.9861,43.3222,192.1654],[23.9857,43.3051,223.9031],[23.9814,43.2975,315.985],[23.9799,43.2902,347.2282],[23.9777,43.257,333.5468],[23.9688,43.2492,309.0002],[23.9715,43.2418,295.0669],[23.9847,43.2276,291.086],[23.9887,43.2261,185.7981],[23.9952,43.2268,271.2888],[24.0044,43.2336,207.2165],[24.0167,43.2348,214.3886],[24.0211,43.234,271.1543],[24.0366,43.2253,296.7051],[24.0486,43.2163,196.0555],[24.0634,43.2208,115.4353],[24.0867,43.2244,320.9847],[24.101,43.2436,214.8271],[24.1158,43.2533,205.0759],[24.1285,43.2575,147.6309],[24.1453,43.2594,142.5606],[24.1566,43.2583,133.6301],[24.1815,43.2513,118.8529],[24.1962,43.2503,144.233],[24.2148,43.2517,176.9129],[24.229,43.2501,174.692],[24.2492,43.2522,264.1136],[24.2622,43.2542,280.7798],[24.283,43.2614,241.187],[24.3006,43.2737,198.8139],[24.3131,43.2708,200.1549],[24.32,43.2727,242.038],[24.3298,43.2842,194.1224]]]]}}