{"type": "Feature","bbox": [25.1835,43.1119,25.5466,43.4245],"geometry": {"type": "MultiPolygon","coordinates": [[[[25.3416,43.1135,327.5388],[25.3505,43.1201,332.8513],[25.352,43.1238,308.6951],[25.3505,43.1333,235.0543],[25.3516,43.1345,232.4106],[25.3692,43.14,283.1143],[25.3855,43.1562,163.0173],[25.392,43.1565,159.3736],[25.3953,43.1551,196.0376],[25.4015,43.1503,303.3062],[25.4074,43.1484,221.0077],[25.4146,43.1425,191.2267],[25.416,43.1396,180.6866],[25.4155,43.1277,256.3862],[25.4175,43.1222,312.5831],[25.4198,43.121,337.795],[25.4304,43.1225,277.2589],[25.439,43.1275,254.8707],[25.4508,43.1375,258.2805],[25.4578,43.1405,264.3773],[25.481,43.141,240.0952],[25.4851,43.1429,246.7863],[25.4864,43.1454,264.9186],[25.4844,43.1504,218.7373],[25.4762,43.1595,130.5947],[25.4755,43.1639,91.415],[25.477,43.1704,89.8535],[25.4726,43.188,79.463],[25.4792,43.1987,75.1811],[25.4887,43.231,161.7915],[25.4892,43.2344,193.5507],[25.4839,43.2466,217.5795],[25.4841,43.2496,208.8245],[25.487,43.2522,193.7472],[25.4999,43.2543,249.3918],[25.5044,43.2533,255.4662],[25.5139,43.2442,206.7662],[25.5184,43.2421,161.6844],[25.5271,43.2414,131.6979],[25.5351,43.2437,123.6738],[25.5452,43.2575,163.4952],[25.5466,43.2658,208.3716],[25.5462,43.2756,191.3191],[25.5309,43.2838,254.0318],[25.5162,43.295,222.7319],[25.5074,43.2996,208.0073],[25.477,43.3097,165.733],[25.4665,43.3261,99.6203],[25.4457,43.3419,163.5137],[25.4362,43.3519,158.2838],[25.4331,43.3569,149.8107],[25.4332,43.3634,169.508],[25.4398,43.369,179.3802],[25.4533,43.3751,144.3489],[25.458,43.3824,122.8438],[25.4585,43.3875,97.299],[25.4544,43.4026,84.4771],[25.4425,43.4202,126.7015],[25.4377,43.4245,113.7266],[25.4046,43.4235,159.7429],[25.3916,43.4175,80.3624],[25.3811,43.4147,67.2784],[25.367,43.414,83.1155],[25.3598,43.4157,105.6717],[25.3463,43.4158,125.3483],[25.3266,43.4126,149.555],[25.3124,43.4081,181.2001],[25.3015,43.4012,199.391],[25.2862,43.3846,206.5628],[25.2687,43.3738,186.4077],[25.2748,43.3574,176.8593],[25.2739,43.3513,173.7612],[25.2692,43.3393,91.5201],[25.2623,43.3308,85.3681],[25.2545,43.324,79.8697],[25.233,43.3118,88.5328],[25.213,43.3063,100.6425],[25.1997,43.2983,111.2137],[25.1902,43.2956,124.0841],[25.1983,43.2704,137.4934],[25.2152,43.2445,184.6597],[25.2171,43.2376,183.0463],[25.2134,43.2322,204.9402],[25.1986,43.2356,250.3225],[25.1876,43.236,298.266],[25.1835,43.2323,302.321],[25.1837,43.2259,353.8307],[25.1919,43.2202,348.6426],[25.2192,43.212,194.6242],[25.224,43.2033,166.9645],[25.2301,43.1995,157.4908],[25.2369,43.198,157.2512],[25.2511,43.2015,152.3428],[25.2564,43.2013,141.6087],[25.2632,43.1999,128.194],[25.2716,43.1952,110.0087],[25.2777,43.1894,159.2865],[25.284,43.1773,298.2649],[25.2838,43.1605,356.1418],[25.2806,43.1504,314.8319],[25.2842,43.1427,340.5162],[25.2826,43.1358,361.3521],[25.2835,43.1293,335.1511],[25.2992,43.1119,342.2729],[25.3272,43.1148,325.0847],[25.3416,43.1135,327.5388]]]]}
,"properties": {"GID_2": "BGR.25.4_1","GID_0": "BGR","country": "Bulgaria","GID_1": "BGR.25_1","state": "VelikoTarnovo","NL_NAME_1": "ВеликоТърново","county": "Pavlikeni","VARNAME_2": "NA","NL_NAME_2": "Павликени","TYPE_2": "Obshtina","ENGTYPE_2": "Municipality","CC_2": "NA","HASC_2": "BG.VT.PA","name": "Pavlikeni.county","area_km2": 595.0226,"hist_schema_id": "Elevation0-9000","hist_area_km2": {"75": 31.1313,"100": 95.6402,"125": 125.8902,"150": 120.7626,"175": 90.7256,"200": 43.62,"225": 22.6453,"250": 22.8534,"275": 16.8194,"300": 10.7942,"325": 6.0948,"350": 4.5949,"375": 3.3422,"400": 0.1083}}}