{"type":"Feature","properties":{"GID_2":"BGR.22.8_1","GID_0":"BGR","country":"Bulgaria","GID_1":"BGR.22_1","state":"StaraZagora","NL_NAME_1":"СтараЗагора","county":"Opan","VARNAME_2":"NA","NL_NAME_2":"NA","TYPE_2":"Obshtina","ENGTYPE_2":"Municipality","CC_2":"NA","HASC_2":"BG.SZ.OP","name":"Opan.county"},
"geometry":{"type": "MultiPolygon","coordinates": [[[[25.8016,42.0493,133.4279],[25.8227,42.0611,111.2026],[25.808,42.0894,194.5845],[25.8032,42.1208,108.9209],[25.7973,42.1302,133.5085],[25.7854,42.1423,151.1013],[25.7843,42.1616,154.2774],[25.7714,42.1824,162.4747],[25.7701,42.1936,173.41],[25.7723,42.2001,172.1553],[25.7791,42.2046,141.2333],[25.7898,42.2051,155.0506],[25.8015,42.2015,169.343],[25.8126,42.1938,169.2175],[25.8203,42.1933,167.2616],[25.8345,42.2021,124.0518],[25.8431,42.2031,112.7831],[25.8471,42.2053,121.4339],[25.848,42.2107,164.2715],[25.8447,42.2217,140.2427],[25.8334,42.2232,159.0272],[25.8144,42.2352,153.4895],[25.7883,42.244,151.1283],[25.7776,42.2531,156.1687],[25.7737,42.2589,147.9432],[25.7719,42.2681,146.6964],[25.7534,42.2712,153.9794],[25.7199,42.2849,160.1667],[25.6983,42.2877,161.0531],[25.6882,42.2863,163.8708],[25.6555,42.2611,176.59],[25.6538,42.2571,178.685],[25.6539,42.2448,173.0035],[25.6504,42.2372,177.4908],[25.6483,42.221,184.4767],[25.6328,42.2044,169.2822],[25.6305,42.1987,149.4651],[25.6294,42.1937,162.3027],[25.639,42.1882,144.2137],[25.6427,42.1678,151.8507],[25.6398,42.1447,120.8891],[25.6354,42.1258,127.9589],[25.6361,42.117,107.1403],[25.6421,42.1143,109.199],[25.6531,42.1185,159.4581],[25.6667,42.1294,146.636],[25.6876,42.14,172.7015],[25.6965,42.1418,156.5406],[25.7065,42.1412,141.9684],[25.7154,42.1346,167.1167],[25.7199,42.1179,166.978],[25.7245,42.1109,165.1876],[25.7383,42.1023,154.9155],[25.7457,42.0951,139.5059],[25.7496,42.0862,144.7991],[25.7511,42.0591,163.807],[25.7551,42.0528,157.2072],[25.7619,42.0494,141.1007],[25.772,42.0476,139.0623],[25.8016,42.0493,133.4279]]]]}}