{"type": "Feature","bbox": [24.4182,41.384,24.9922,41.7577],"geometry": {"type": "MultiPolygon","coordinates": [[[[24.8038,41.7309,1693.1577],[24.7867,41.719,1591.2629],[24.7846,41.7127,1641.7598],[24.7878,41.6932,1617.5037],[24.7869,41.6877,1501.1697],[24.7839,41.6833,1435.9022],[24.7591,41.6675,1272.0398],[24.7531,41.6597,1092.1821],[24.7506,41.6497,1304.4769],[24.7448,41.6439,1432.3818],[24.7378,41.641,1320.1858],[24.7162,41.6409,1476.3806],[24.711,41.6439,1424.4871],[24.7132,41.6516,1548.1272],[24.7109,41.6571,1418.1083],[24.7046,41.6594,1496.1531],[24.6872,41.6598,1581.8767],[24.6817,41.6622,1548.4249],[24.6634,41.6913,1852.2875],[24.6557,41.6969,1705.8096],[24.6366,41.7032,1715.9462],[24.6303,41.7072,1656.516],[24.6165,41.728,1566.8794],[24.6158,41.7374,1534.8698],[24.6118,41.7462,1667.6674],[24.5866,41.7577,1632.5049],[24.5849,41.734,1831.431],[24.5761,41.7203,1577.151],[24.5607,41.7065,1425.0072],[24.5558,41.7038,1429.85],[24.5376,41.6991,1048.6541],[24.5186,41.684,1226.6833],[24.5118,41.6678,1534.5652],[24.5056,41.6602,1600.0171],[24.5012,41.6595,1625.1432],[24.4914,41.6665,1569.3191],[24.4817,41.6677,1599.9326],[24.4611,41.6607,1676.9919],[24.4481,41.6613,1671.011],[24.4418,41.6641,1663.9497],[24.434,41.6653,1535.4446],[24.4231,41.6615,1276.6077],[24.4214,41.6592,1418.1219],[24.4217,41.6542,1580.724],[24.4263,41.6471,1717.9147],[24.4275,41.6401,1525.3898],[24.4245,41.6331,1542.1135],[24.4187,41.6285,1502.7611],[24.4182,41.6225,1334.0151],[24.4223,41.62,1258.8723],[24.4507,41.6191,1602.7278],[24.4589,41.6151,1632.7104],[24.4696,41.6037,1738.7168],[24.4741,41.5886,1725.6489],[24.4773,41.5831,1767.7275],[24.5016,41.5645,1785.2751],[24.5041,41.5606,1870.2288],[24.5035,41.556,1838.5946],[24.5084,41.5561,1862.2129],[24.5192,41.5652,1852.6138],[24.5237,41.5666,1791.9667],[24.534,41.5628,1788.6021],[24.5337,41.5602,1801.9274],[24.5392,41.5584,1800.9319],[24.5369,41.5509,1787.6263],[24.5379,41.5497,1817.2445],[24.5463,41.5519,1767.0195],[24.5553,41.5451,1674.2296],[24.5557,41.5425,1615.7158],[24.5514,41.5404,1693.5857],[24.5473,41.5346,1681.8682],[24.5532,41.5265,1611.2209],[24.5565,41.5247,1628.9434],[24.5574,41.5218,1569.2565],[24.5548,41.5201,1540.7769],[24.5608,41.5136,1355.0919],[24.5612,41.5094,1299.2059],[24.5587,41.5041,1362.5217],[24.5542,41.4998,1328.0896],[24.5587,41.4973,1252.7474],[24.558,41.4929,1080.9846],[24.5626,41.4886,1208.7329],[24.5623,41.48,969.7684],[24.565,41.477,951.3758],[24.5631,41.4738,838.5014],[24.5753,41.4716,1042.7406],[24.5769,41.4673,1016.6498],[24.5941,41.4636,1212.11],[24.5978,41.4531,1234.4408],[24.5949,41.451,1242.2075],[24.5943,41.4445,1120.9309],[24.5993,41.4319,1405.532],[24.6045,41.4298,1447.4027],[24.6139,41.433,1466.3796],[24.6294,41.4302,1543.9019],[24.6368,41.4328,1514.1941],[24.647,41.4321,1622.2921],[24.6525,41.429,1511.6569],[24.6448,41.4255,1507.6173],[24.6451,41.4202,1475.8125],[24.6405,41.4187,1405.0219],[24.6444,41.4157,1422.9592],[24.6481,41.4183,1500.672],[24.66,41.4162,1644.3538],[24.6679,41.4208,1527.4192],[24.6748,41.4193,1622.5957],[24.6795,41.422,1548.4988],[24.6867,41.4199,1567.3177],[24.6911,41.4152,1573.0718],[24.7073,41.4176,1578.3147],[24.7155,41.4167,1555.7604],[24.72,41.4134,1493.5673],[24.7238,41.4145,1514.9755],[24.7281,41.4132,1538.4351],[24.7344,41.4069,1452.0341],[24.7323,41.4023,1441.865],[24.7347,41.3962,1486.4501],[24.7338,41.3942,1500.7571],[24.7409,41.3886,1569.2251],[24.7398,41.3854,1542.7903],[24.7424,41.384,1562.46],[24.7467,41.4107,1375.3062],[24.741,41.4168,1395.5104],[24.7467,41.4228,1118.1779],[24.7436,41.4269,1126.3483],[24.7669,41.4385,993.332],[24.7813,41.4522,1112.1697],[24.788,41.462,973.9312],[24.8018,41.4706,952.3491],[24.8047,41.4782,1120.2168],[24.8186,41.4935,752.6396],[24.8218,41.4956,892.9976],[24.8301,41.4972,908.0296],[24.8327,41.5019,999.7484],[24.8333,41.5069,852.4755],[24.836,41.5103,746.9479],[24.845,41.5141,881.7889],[24.8688,41.5177,744.215],[24.8787,41.5175,672.6851],[24.8875,41.5151,714.3452],[24.9009,41.5225,720.6667],[24.9275,41.5334,734.8886],[24.9369,41.5402,671.8705],[24.9483,41.5633,947.8082],[24.9465,41.5733,878.2123],[24.9345,41.5854,997.6769],[24.9387,41.5876,1034.6371],[24.9528,41.586,1119.652],[24.9577,41.5918,1203.8851],[24.9755,41.5935,1091.4784],[24.9922,41.6024,943.0942],[24.9579,41.6045,1159.368],[24.9475,41.6072,1093.115],[24.9408,41.6205,864.2814],[24.9385,41.64,1319.2675],[24.9272,41.6657,1080.3256],[24.9188,41.674,1243.7437],[24.9058,41.679,1230.5046],[24.8952,41.6857,1359.1069],[24.8833,41.7021,1532.921],[24.8729,41.6936,1522.7878],[24.8616,41.6741,1537.0776],[24.8517,41.6703,1656.1289],[24.8454,41.6722,1792.6228],[24.8425,41.6748,1807.7802],[24.8375,41.6866,1734.7947],[24.8296,41.6981,1592.4224],[24.8118,41.7067,1743.6506],[24.805,41.7122,1726.7094],[24.8023,41.7248,1763.3064],[24.8038,41.7309,1693.1577]]]]}
,"properties": {"GID_2": "BGR.20.9_1","GID_0": "BGR","country": "Bulgaria","GID_1": "BGR.20_1","state": "Smolyan","NL_NAME_1": "Смолян","county": "Smolyan","VARNAME_2": "NA","NL_NAME_2": "Смолян","TYPE_2": "City","ENGTYPE_2": "City","CC_2": "NA","HASC_2": "BG.SM.SM","name": "Smolyan.county","area_km2": 918.5844,"hist_schema_id": "Elevation0-9000","hist_area_km2": {"625": 0.3015,"650": 1.3174,"675": 1.5078,"700": 1.9837,"725": 2.6344,"750": 2.8724,"775": 4.1897,"800": 6.6495,"825": 8.252,"850": 10.0605,"875": 11.9965,"900": 13.4561,"925": 15.6137,"950": 20.0886,"975": 22.6753,"1000": 25.0228,"1025": 26.3261,"1050": 31.5947,"1075": 33.166,"1100": 33.7858,"1125": 35.2599,"1150": 34.688,"1175": 34.6379,"1200": 32.573,"1225": 28.7923,"1250": 27.4572,"1275": 25.4872,"1300": 24.324,"1325": 23.6261,"1350": 22.2114,"1375": 19.3555,"1400": 18.9759,"1425": 18.5634,"1450": 19.7054,"1475": 20.1967,"1500": 20.8008,"1525": 19.1182,"1550": 19.8632,"1575": 20.558,"1600": 18.4343,"1625": 16.924,"1650": 16.5428,"1675": 15.0207,"1700": 14.7515,"1725": 13.7061,"1750": 13.7079,"1775": 11.5067,"1800": 11.381,"1825": 9.8119,"1850": 7.3231,"1875": 5.627,"1900": 4.66,"1925": 3.6777,"1950": 2.8534,"1975": 2.2036,"2000": 2.2988,"2025": 2.4097,"2050": 1.7437,"2075": 1.7279,"2100": 1.0462,"2125": 0.7926,"2150": 0.5548,"2175": 0.1902}}}