{"type": "Feature","bbox": [25.5386,42.4985,25.787,42.7538],"geometry": {"type": "MultiPolygon","coordinates": [[[[25.5482,42.7368,1077.1067],[25.5439,42.7268,1253.9127],[25.5423,42.7151,1162.8134],[25.5459,42.6719,707.0447],[25.5386,42.6327,897.8589],[25.5408,42.6175,500.5346],[25.5539,42.5883,332.2307],[25.5558,42.5808,325.3981],[25.5549,42.5733,320.5411],[25.5502,42.5615,326.9823],[25.5485,42.5492,304.8124],[25.5515,42.5426,305.0955],[25.5643,42.5317,348.7772],[25.5674,42.5267,378.1686],[25.5676,42.5196,443.6385],[25.5631,42.5072,464.9165],[25.5625,42.4985,553.8356],[25.574,42.5002,524.7834],[25.5897,42.5111,467.9449],[25.6256,42.5142,661.2614],[25.6599,42.5114,572.7978],[25.6784,42.5148,595.5045],[25.6881,42.519,509.4687],[25.6968,42.5272,577.7943],[25.7103,42.5354,646.0415],[25.7115,42.5455,666.6954],[25.7138,42.5479,666.3761],[25.7201,42.5474,692.7992],[25.7342,42.5407,708.7296],[25.7274,42.5567,599.0983],[25.7171,42.5714,369.8557],[25.7169,42.5743,308.6287],[25.7201,42.5779,288.5912],[25.7261,42.581,280.5192],[25.7314,42.5817,282.6585],[25.7462,42.5774,302.08],[25.7487,42.5795,296.7441],[25.7519,42.5868,279.17],[25.7659,42.5972,271.3636],[25.7704,42.5993,270.5354],[25.7839,42.6006,268.767],[25.7869,42.6026,268.1392],[25.787,42.6059,267.1514],[25.7738,42.6078,269.4427],[25.7651,42.6127,269.0972],[25.7614,42.6173,270.4706],[25.7597,42.6279,273.6833],[25.7377,42.6277,349.7798],[25.7289,42.6324,534.4993],[25.7238,42.6399,785.8954],[25.7153,42.6689,512.0373],[25.7058,42.6873,805.4143],[25.6957,42.6944,694.2866],[25.6797,42.7013,829.7097],[25.655,42.7153,638.8774],[25.6539,42.7315,754.4838],[25.6414,42.7337,717.6301],[25.6348,42.7393,776.5399],[25.6304,42.7462,841.8303],[25.623,42.7522,809.2352],[25.616,42.7538,735.0544],[25.5993,42.7524,971.3204],[25.5892,42.7491,898.8612],[25.5772,42.7406,853.5583],[25.5482,42.7368,1077.1067]]]]}
,"properties": {"GID_2": "BGR.22.6_1","GID_0": "BGR","country": "Bulgaria","GID_1": "BGR.22_1","state": "StaraZagora","NL_NAME_1": "СтараЗагора","county": "Maglizh","VARNAME_2": "NA","NL_NAME_2": "Мъглиж","TYPE_2": "Obshtina","ENGTYPE_2": "Municipality","CC_2": "NA","HASC_2": "BG.SZ.MA","name": "Maglizh.county","area_km2": 349.9662,"hist_schema_id": "Elevation0-9000","hist_area_km2": {"275": 31.4172,"300": 57.7783,"325": 25.1484,"350": 9.9137,"375": 6.8543,"400": 6.4951,"425": 5.9636,"450": 7.4933,"475": 9.4144,"500": 11.5675,"525": 11.8946,"550": 11.159,"575": 9.9103,"600": 9.331,"625": 7.7846,"650": 6.9873,"675": 6.892,"700": 7.531,"725": 8.5899,"750": 8.2303,"775": 8.8213,"800": 8.0885,"825": 8.7581,"850": 8.7263,"875": 8.383,"900": 7.1676,"925": 7.1056,"950": 5.61,"975": 4.395,"1000": 3.9434,"1025": 3.0083,"1050": 3.1018,"1075": 2.8214,"1100": 1.9799,"1125": 2.0578,"1150": 1.4498,"1175": 1.0755,"1200": 1.1691,"1225": 0.8572,"1250": 0.5767,"1275": 0.2961,"1300": 0.1714,"1325": 0.0467}}}