{"type":"Feature","properties":{"GID_2":"BGR.9.3_1","GID_0":"BGR","country":"Bulgaria","GID_1":"BGR.9_1","state":"Lovech","NL_NAME_1":"Ловеч","county":"Loukovit","VARNAME_2":"Lukovit","NL_NAME_2":"Луковит","TYPE_2":"Obshtina","ENGTYPE_2":"Municipality","CC_2":"NA","HASC_2":"BG.LV.LU","name":"Loukovit.county"},
"geometry":{"type": "MultiPolygon","coordinates": [[[[24.2888,43.065,338.3481],[24.2985,43.0789,278.5443],[24.3052,43.0828,326.1448],[24.3122,43.0835,328.3293],[24.328,43.0802,335.8028],[24.3347,43.0821,354.1763],[24.3354,43.0841,343.2863],[24.325,43.0982,306.7188],[24.3274,43.104,302.2493],[24.3159,43.1154,263.7757],[24.3146,43.1225,260.8626],[24.3172,43.1276,265.966],[24.3306,43.1394,265.961],[24.3417,43.1695,261.4346],[24.3495,43.1763,316.7574],[24.3546,43.1835,281.5843],[24.3557,43.1969,268.3986],[24.3628,43.2071,262.2232],[24.3693,43.2112,279.0923],[24.3971,43.2223,210.0465],[24.406,43.222,258.5109],[24.4382,43.2159,242.227],[24.4505,43.2182,220.712],[24.4534,43.2215,239.1384],[24.4544,43.2398,290.219],[24.4594,43.2468,258.4212],[24.4513,43.2591,184.23],[24.4156,43.2764,260.2739],[24.4129,43.2793,263.9882],[24.4125,43.284,226.5356],[24.3975,43.2932,225.7799],[24.371,43.294,113.9776],[24.3299,43.2845,194.1224],[24.32,43.2727,242.038],[24.3131,43.2708,200.1549],[24.3006,43.2737,198.8139],[24.283,43.2614,241.187],[24.2622,43.2542,280.7798],[24.2492,43.2522,264.1136],[24.229,43.2501,174.692],[24.2148,43.2517,176.9129],[24.1962,43.2503,144.233],[24.1815,43.2513,118.8529],[24.1566,43.2583,133.6301],[24.1453,43.2594,142.5606],[24.1285,43.2575,147.6309],[24.1158,43.2533,205.0759],[24.101,43.2436,214.8271],[24.0867,43.2244,320.9847],[24.0634,43.2208,115.4353],[24.0486,43.2163,196.0555],[24.0525,43.2101,184.012],[24.0541,43.2024,225.6962],[24.0473,43.1802,184.9622],[24.0494,43.1667,296.7018],[24.0519,43.1604,366.6503],[24.0475,43.1433,294.686],[24.0484,43.1396,258.2263],[24.0524,43.1349,303.8016],[24.0566,43.1205,339.0314],[24.0647,43.1171,362.7067],[24.0806,43.1217,370.6564],[24.0921,43.1206,342.6348],[24.1052,43.1241,297.2858],[24.1177,43.1239,287.492],[24.1264,43.1358,294.5327],[24.1326,43.1371,239.4625],[24.1506,43.1351,162.4811],[24.1719,43.1364,204.8535],[24.1899,43.1395,199.8394],[24.2061,43.1395,198.1538],[24.214,43.138,213.7721],[24.2272,43.1299,276.2843],[24.2362,43.1204,318.1257],[24.238,43.1128,302.9454],[24.2339,43.0977,337.5329],[24.2335,43.0895,417.1311],[24.2352,43.084,328.6613],[24.2405,43.0781,337.3945],[24.2455,43.0756,264.728],[24.2888,43.065,338.3481]]]]}}