{"type":"Feature","properties":{"GID_2":"BGR.6.6_1","GID_0":"BGR","country":"Bulgaria","GID_1":"BGR.6_1","state":"Haskovo","NL_NAME_1":"Хасково","county":"Madzharovo","VARNAME_2":"Dupnitsa","NL_NAME_2":"Маджарово","TYPE_2":"Obshtina","ENGTYPE_2":"Municipality","CC_2":"NA","HASC_2":"BG.KK.MA","name":"Madzharovo.county"},
"geometry":{"type": "MultiPolygon","coordinates": [[[[25.829,41.7345,434.6622],[25.8166,41.7265,564.4838],[25.8123,41.7257,567.4013],[25.7769,41.7247,469.6433],[25.7477,41.7203,393.5189],[25.7438,41.7147,422.7213],[25.7434,41.7072,362.0779],[25.7557,41.6862,212.9061],[25.7522,41.6741,227.9626],[25.754,41.6704,208.0348],[25.761,41.6679,201.9334],[25.78,41.6653,206.6697],[25.7827,41.6602,144.5528],[25.785,41.6488,166.6091],[25.7896,41.6488,159.8091],[25.8066,41.6439,251.0051],[25.8365,41.6432,276.375],[25.8397,41.641,359.2898],[25.8556,41.6113,455.2659],[25.8738,41.5942,514.8163],[25.8877,41.585,595.6964],[25.9012,41.5665,391.7383],[25.905,41.5636,398.2217],[25.9178,41.5595,426.9831],[25.932,41.5598,537.0868],[25.9653,41.5667,243.7783],[25.9737,41.5751,346.9183],[25.9841,41.6036,270.1332],[25.9875,41.61,285.1348],[25.9952,41.6186,266.3237],[25.9837,41.6268,181.862],[25.9791,41.6333,119.4671],[25.973,41.6441,154.2245],[25.9722,41.6564,177.424],[25.9738,41.6637,145.9103],[25.9868,41.6834,196.4118],[25.9918,41.6881,232.4727],[26.0032,41.7122,346.5456],[26.0075,41.734,514.0715],[26.0055,41.7405,537.5298],[25.9959,41.7425,383.4799],[25.9792,41.7402,436.8597],[25.9664,41.7403,477.3129],[25.9633,41.7438,385.7095],[25.9617,41.7491,376.1349],[25.9624,41.7581,319.7644],[25.9457,41.7526,379.1346],[25.9274,41.7517,383.0134],[25.919,41.7498,395.8936],[25.8951,41.7359,528.8882],[25.8811,41.7369,552.943],[25.8718,41.7358,545.8971],[25.8528,41.7306,450.7527],[25.8432,41.734,472.4653],[25.829,41.7345,434.6622]]]]}}