{"type": "Feature","bbox": [23.7627,43.2475,24.0805,43.6154],"geometry": {"type": "MultiPolygon","coordinates": [[[[24.0167,43.377,178.8728],[24.0187,43.3898,169.8195],[24.0225,43.3969,176.1352],[24.027,43.4013,179.0099],[24.0391,43.4059,170.1822],[24.0486,43.4118,162.2234],[24.0545,43.4194,163.1173],[24.0658,43.4252,158.5425],[24.0768,43.4366,163.5781],[24.0805,43.4452,160.9882],[24.0798,43.4521,161.0903],[24.0767,43.4574,156.0279],[24.0489,43.4757,141.2208],[24.0415,43.4847,136.6291],[24.0368,43.5109,154.8714],[24.0301,43.5258,112.176],[24.0262,43.5299,142.1359],[24.0232,43.5365,158.2904],[24.025,43.5421,145.9809],[24.038,43.5526,145.4292],[24.0395,43.5561,151.003],[24.0473,43.5946,156.2394],[24.0468,43.607,154.6411],[24.0424,43.6057,153.6104],[24.0306,43.6066,156.1545],[24.01,43.6148,155.5365],[24.0,43.6154,156.2598],[23.984,43.6104,158.3427],[23.9583,43.6101,159.1324],[23.9431,43.6075,128.3018],[23.9274,43.6019,152.0651],[23.9144,43.6,161.3346],[23.8828,43.6021,83.0852],[23.8739,43.6011,94.5726],[23.8505,43.5892,146.2747],[23.8435,43.5822,67.5296],[23.8345,43.5763,63.1101],[23.8212,43.5735,97.2267],[23.8061,43.5741,103.0502],[23.7733,43.58,74.8839],[23.7665,43.5495,110.1514],[23.7627,43.5435,118.7358],[23.7757,43.5352,119.292],[23.7812,43.5277,126.2898],[23.7894,43.5244,129.6088],[23.8043,43.5124,142.16],[23.8179,43.5068,136.6215],[23.8233,43.5026,142.85],[23.8347,43.4847,151.5367],[23.8357,43.4795,145.4946],[23.840699999999998,43.4703,160.8792],[23.841,43.4642,153.706],[23.8385,43.461,164.7591],[23.8215,43.4497,177.266],[23.8139,43.4306,189.2202],[23.8141,43.4269,187.0701],[23.8183,43.4213,184.5052],[23.8348,43.4164,175.2876],[23.839,43.4117,183.183],[23.84,43.4083,183.3096],[23.8356,43.3955,180.2032],[23.8373,43.3887,168.9632],[23.8366,43.3852,160.7041],[23.8232,43.3742,163.6588],[23.7953,43.3645,237.9194],[23.7773,43.3513,220.2039],[23.7967,43.3361,364.3953],[23.8185,43.3134,275.6297],[23.8224,43.2857,274.8766],[23.8149,43.2669,319.823],[23.8241,43.2635,281.2788],[23.839,43.2653,310.5373],[23.8448,43.2616,371.6738],[23.8488,43.2612,411.2797],[23.8584,43.2657,399.7308],[23.8689,43.2663,424.6404],[23.8949,43.259,424.2473],[23.9095,43.2529,399.2004],[23.9317,43.248,383.3492],[23.9464,43.2475,343.3986],[23.9688,43.2492,309.0002],[23.9777,43.257,333.5468],[23.9799,43.2902,347.2282],[23.9814,43.2975,315.985],[23.9851,43.3025,222.437],[23.9869,43.3157,136.5069],[23.9854,43.3248,208.2632],[23.9763,43.3473,206.9191],[23.9772,43.3543,201.4855],[23.9849,43.3628,185.1055],[24.0167,43.377,178.8728]]]]}
,"properties": {"GID_2": "BGR.27.2_1","GID_0": "BGR","country": "Bulgaria","GID_1": "BGR.27_1","state": "Vratsa","NL_NAME_1": "Враца","county": "ByalaSlatina","VARNAME_2": "NA","NL_NAME_2": "БялаСлатина","TYPE_2": "Obshtina","ENGTYPE_2": "Municipality","CC_2": "NA","HASC_2": "BG.VR.BS","name": "ByalaSlatina.county","area_km2": 656.3949,"hist_schema_id": "Elevation0-9000","hist_area_km2": {"50": 0.8602,"75": 18.101,"100": 35.4598,"125": 67.2856,"150": 242.6115,"175": 109.1934,"200": 35.9016,"225": 30.4853,"250": 19.3271,"275": 22.5111,"300": 27.2034,"325": 21.4498,"350": 13.4268,"375": 7.2537,"400": 3.8272,"425": 1.1578,"450": 0.3397}}}