{"type":"Feature","properties":{"id":137159.0,"name":"Mandra","lge_id":null,"pfafstette":1.0,"lke_type":"N","altitude":2,"objectid":86773,"scalerank":11,"featurecla":"Lake","note":null,"funkyname":0,"min_zoom":6.7,"min_label":7.7},
"geometry":{"type": "Polygon","coordinates": [[[27.318614128521233,42.390936590619077,3.5],[27.318614128521233,42.390936590619077,3.5],[27.334727409771233,42.388495184369077,3.5],[27.359385612896233,42.393072821087827,3.5],[27.382212761333733,42.397894598431577,3.5],[27.391368034771233,42.406378485150327,3.6936],[27.395518425396233,42.421881414837827,3.5],[27.407725456646233,42.427069403119077,3.5],[27.421153191021233,42.417364813275327,3.5],[27.433360222271233,42.409125067181577,3.5],[27.434825066021233,42.417975164837827,16.027],[27.431773308208733,42.433111883587827,4.323],[27.439341667583733,42.441961981244077,1.958],[27.441172722271233,42.454718328900327,1.4485],[27.425059441021233,42.454718328900327,8.726],[27.399912956646233,42.445624090619077,23.5742],[27.376963737896233,42.442267157025327,70.2186],[27.359751823833733,42.427374578900327,15.7952],[27.335703972271233,42.414007879681577,3.5],[27.316661003521233,42.402167059369077,3.0089],[27.318614128521233,42.390936590619077,3.5]]]}}