{"type": "Feature","id": 138163.0,"bbox": [24.157115105083733,41.954718328900327,24.211192253521233,42.017645574994077],"geometry": {"type": "Polygon","coordinates": [[[24.167979362896233,41.954718328900327,1103.0],[24.167979362896233,41.954718328900327,1103.0],[24.193614128521233,41.958136297650327,1103.0],[24.211192253521233,41.970587469525327,1114.146],[24.208506706646233,41.982062078900327,1133.1907],[24.202647331646233,42.002142645306577,1115.5571],[24.195078972271233,42.017645574994077,1145.2141],[24.188731316021233,42.011236883587827,1114.2032],[24.183238151958733,41.992743231244077,1115.7937],[24.166758659771233,41.979681707806577,1265.8268],[24.157115105083733,41.967779852337827,1103.0],[24.167979362896233,41.954718328900327,1103.0]]]}
,"properties": {"name": "Batak","lge_id": null,"pfafstette": 982273.0,"lke_type": "N","altitude": 1108,"objectid": 85883,"scalerank": 12,"featurecla": "Lake","note": null,"funkyname": 0,"min_zoom": 7.0,"min_label": 8.0,"area_km2": 16.06092,"hist_schema_id": "Elevation0-9000","hist_area_km2": {"1100": 13.87027,"1125": 1.22928,"1150": 0.40975,"1175": 0.28368,"1200": 0.14185,"1225": 0.11033,"1250": 0.01576}}}