{"type":"Feature","properties":{"GID_2":"BGR.27.6_1","GID_0":"BGR","country":"Bulgaria","GID_1":"BGR.27_1","state":"Vratsa","NL_NAME_1":"Враца","county":"Mezdra","VARNAME_2":"NA","NL_NAME_2":"Мездра","TYPE_2":"Obshtina","ENGTYPE_2":"Municipality","CC_2":"NA","HASC_2":"BG.VR.ME","name":"Mezdra.county"},
"geometry":{"type": "MultiPolygon","coordinates": [[[[23.7981,43.0579,473.0262],[23.8087,43.0739,466.1277],[23.8256,43.0883,406.0032],[23.8262,43.0921,360.8049],[23.8226,43.0997,449.8074],[23.8228,43.1059,391.6785],[23.8366,43.1136,438.8378],[23.8405,43.1177,442.9407],[23.8416,43.1232,408.0616],[23.8376,43.1387,172.7736],[23.8406,43.1441,241.375],[23.8485,43.1476,321.9196],[23.8579,43.1472,281.2077],[23.8767,43.1429,163.8362],[23.88,43.1434,162.7165],[23.8839,43.1486,171.9292],[23.8849,43.1556,248.3544],[23.8784,43.167,412.4288],[23.8721,43.1726,500.6273],[23.8545,43.1831,488.8376],[23.8504,43.1879,421.0602],[23.8504,43.1905,324.8022],[23.8564,43.2017,337.0584],[23.8606,43.2049,462.13],[23.8765,43.2078,429.8337],[23.8866,43.2148,413.5528],[23.8936,43.2328,374.5296],[23.893,43.2487,416.1474],[23.8949,43.2524,440.1591],[23.9021,43.2561,422.6895],[23.8689,43.2663,424.6404],[23.8584,43.2657,399.7308],[23.8488,43.2612,411.2797],[23.8448,43.2616,371.6738],[23.839,43.2653,310.5373],[23.8221,43.2637,286.9138],[23.8149,43.2669,319.823],[23.805,43.2686,268.1737],[23.7936,43.2654,321.0378],[23.786,43.2593,315.882],[23.7757,43.2557,284.5369],[23.7687,43.2493,340.4015],[23.7558,43.2465,357.1498],[23.7369,43.2458,320.3246],[23.7253,43.2486,326.8569],[23.7229,43.2532,309.0995],[23.7249,43.2628,282.4373],[23.7226,43.2653,270.6987],[23.714,43.264,266.4322],[23.6987,43.2516,319.8293],[23.6682,43.2502,358.0892],[23.6582,43.2476,384.4153],[23.6552,43.2418,588.6952],[23.6558,43.238,588.248],[23.6642,43.2255,579.5829],[23.6653,43.2197,463.734],[23.6642,43.2177,446.2203],[23.6577,43.2123,435.5778],[23.6381,43.2102,399.7215],[23.6276,43.2033,374.0845],[23.6168,43.1857,347.3963],[23.6144,43.1779,328.9281],[23.6142,43.1722,345.6052],[23.6167,43.1671,336.9976],[23.6326,43.1553,341.9606],[23.6403,43.1472,357.5291],[23.6437,43.1338,433.6273],[23.6433,43.1291,432.4139],[23.6411,43.1258,474.4135],[23.6266,43.1183,293.81],[23.6136,43.1091,643.7773],[23.5952,43.106,764.6226],[23.5713,43.1127,908.309],[23.5516,43.1127,644.8632],[23.5169,43.1266,1086.9404],[23.4965,43.1309,1036.9368],[23.4715,43.109,761.7821],[23.4676,43.1038,614.017],[23.4673,43.1007,543.2224],[23.4736,43.0931,523.1532],[23.4834,43.0733,337.6978],[23.5081,43.0551,878.9468],[23.5234,43.0395,1015.9164],[23.532,43.0264,974.9236],[23.543,43.0046,1455.7017],[23.5525,42.9942,1429.7904],[23.5634,42.9863,1478.9995],[23.5695,42.9849,1488.9739],[23.5775,42.9851,1333.5865],[23.5933,42.9918,1187.447],[23.615,43.0159,680.4244],[23.6224,43.0213,676.7225],[23.6358,43.0272,582.5917],[23.6517,43.0403,547.7662],[23.6617,43.0384,622.3795],[23.687,43.0214,604.7772],[23.6992,43.02,670.6558],[23.716,43.0254,735.2972],[23.7496,43.0479,491.5316],[23.7803,43.0568,407.8265],[23.7981,43.0579,473.0262]]]]}}