{"type": "Feature","bbox": [24.565,41.641,24.8192,41.8971],"geometry": {"type": "MultiPolygon","coordinates": [[[[24.6818,41.8971,1030.09],[24.6557,41.8903,1176.3693],[24.634,41.8868,1147.2285],[24.6181,41.8867,1152.6392],[24.5893,41.8821,1401.566],[24.574,41.8812,1570.1727],[24.575,41.8666,1377.2902],[24.5709,41.8549,1407.4441],[24.5734,41.8399,1635.6621],[24.5711,41.8292,1726.3037],[24.5653,41.8179,1687.5519],[24.565,41.811,1627.1467],[24.5744,41.7918,1592.6938],[24.5742,41.7734,1513.0242],[24.5771,41.7673,1636.0173],[24.5869,41.7574,1632.5049],[24.6118,41.7462,1667.6674],[24.6158,41.7374,1534.8698],[24.6165,41.728,1566.8794],[24.6303,41.7072,1656.516],[24.6366,41.7032,1715.9462],[24.6557,41.6969,1705.8096],[24.6634,41.6913,1852.2875],[24.683,41.6612,1505.0026],[24.6872,41.6598,1581.8767],[24.7046,41.6594,1496.1531],[24.7109,41.6571,1418.1083],[24.7132,41.6516,1548.1272],[24.711,41.6439,1424.4871],[24.7138,41.6415,1460.8704],[24.7378,41.641,1320.1858],[24.7448,41.6439,1432.3818],[24.7493,41.6479,1351.2703],[24.7531,41.6597,1092.1821],[24.7591,41.6675,1272.0398],[24.7757,41.6772,1411.5642],[24.7857,41.6858,1495.8815],[24.7878,41.6932,1617.5037],[24.7846,41.7127,1641.7598],[24.7867,41.719,1591.2629],[24.8038,41.7309,1693.1577],[24.8083,41.7413,1359.4668],[24.8169,41.7504,1591.4364],[24.8192,41.7597,1430.233],[24.8185,41.7616,1439.3717],[24.8142,41.7626,1252.8956],[24.7953,41.7603,1400.3113],[24.7939,41.7639,1262.4785],[24.7952,41.7768,1475.829],[24.7933,41.7791,1398.8508],[24.7861,41.777,1320.4182],[24.7804,41.7689,1526.7806],[24.775,41.7697,1685.8049],[24.7623,41.7891,1569.3226],[24.7639,41.7976,1553.363],[24.7775,41.8012,1220.3394],[24.7831,41.8072,1282.8059],[24.7873,41.8201,1077.4131],[24.8003,41.8268,868.4991],[24.8012,41.8316,1032.9803],[24.7955,41.8407,1333.0349],[24.7882,41.8676,1155.4301],[24.782,41.8684,1219.4402],[24.7747,41.8744,1341.817],[24.7639,41.8788,911.3364],[24.7357,41.8786,1134.3669],[24.7233,41.8856,974.1233],[24.7103,41.886,838.6277],[24.6909,41.8897,851.8882],[24.6845,41.8936,1049.4078],[24.6818,41.8971,1030.09]]]]}
,"properties": {"GID_2": "BGR.20.3_1","GID_0": "BGR","country": "Bulgaria","GID_1": "BGR.20_1","state": "Smolyan","NL_NAME_1": "Смолян","county": "Chepelare","VARNAME_2": "NA","NL_NAME_2": "Чепеларе","TYPE_2": "Obshtina","ENGTYPE_2": "Municipality","CC_2": "NA","HASC_2": "BG.SM.CH","name": "Chepelare.county","area_km2": 392.4663,"hist_schema_id": "Elevation0-9000","hist_area_km2": {"650": 0.0158,"675": 0.7262,"700": 1.3263,"725": 2.1316,"750": 2.6686,"775": 3.1265,"800": 3.2056,"825": 3.6637,"850": 3.5848,"875": 3.9956,"900": 4.0905,"925": 4.5958,"950": 5.1176,"975": 4.9123,"1000": 5.9708,"1025": 5.5448,"1050": 6.6348,"1075": 7.2204,"1100": 8.0906,"1125": 8.1542,"1150": 8.7083,"1175": 9.4673,"1200": 10.3373,"1225": 10.9706,"1250": 12.1876,"1275": 12.5836,"1300": 13.0748,"1325": 14.1825,"1350": 14.8158,"1375": 15.1962,"1400": 16.0513,"1425": 17.1758,"1450": 18.3464,"1475": 17.5882,"1500": 16.6223,"1525": 16.2916,"1550": 15.1367,"1575": 13.0967,"1600": 10.7402,"1625": 9.4116,"1650": 7.8304,"1675": 6.802,"1700": 5.2994,"1725": 4.2556,"1750": 3.5281,"1775": 3.1009,"1800": 1.9618,"1825": 1.5822,"1850": 0.8384,"1875": 0.348,"1900": 0.1107,"1925": 0.0158,"1950": 0.0158,"1975": 0.0158}}}