{"type": "Feature","bbox": [26.0139,43.4278,26.2234,43.5491],"geometry": {"type": "MultiPolygon","coordinates": [[[[26.1182,43.5371,302.4025],[26.0887,43.5331,190.6468],[26.0702,43.5276,179.9987],[26.0533,43.5265,128.2605],[26.0441,43.5226,118.9199],[26.0383,43.509,181.1642],[26.0403,43.4942,313.5705],[26.0381,43.4829,361.0501],[26.0314,43.4733,327.7097],[26.0139,43.4567,351.4416],[26.0333,43.4565,367.9219],[26.041,43.4538,366.3796],[26.0475,43.4535,330.2806],[26.0677,43.4552,353.8314],[26.0802,43.4471,307.1359],[26.0916,43.4344,382.7703],[26.1059,43.444,348.1806],[26.1151,43.4446,278.2821],[26.1268,43.4409,309.1377],[26.1471,43.431,326.6863],[26.1608,43.4278,377.7871],[26.1757,43.4305,352.9786],[26.1908,43.4363,160.9551],[26.2005,43.4381,327.3036],[26.2132,43.4442,392.1865],[26.2153,43.4573,267.9774],[26.2088,43.4791,390.1308],[26.2081,43.492,408.9883],[26.2124,43.505,317.452],[26.2234,43.5204,361.871],[26.2199,43.5322,303.8438],[26.2125,43.5444,214.3507],[26.2063,43.5491,149.1381],[26.2037,43.5447,165.0714],[26.1974,43.541,227.6795],[26.1913,43.5402,207.9589],[26.1776,43.5423,321.4031],[26.1615,43.5363,336.3317],[26.1476,43.5364,252.645],[26.1357,43.5318,343.5863],[26.1229,43.5328,314.2998],[26.1187,43.5352,310.4676],[26.1182,43.5371,302.4025]]]]}
,"properties": {"GID_2": "BGR.23.3_1","GID_0": "BGR","country": "Bulgaria","GID_1": "BGR.23_1","state": "Targovishte","NL_NAME_1": "Търговищка","county": "Opaka","VARNAME_2": "NA","NL_NAME_2": "Опака","TYPE_2": "Obshtina","ENGTYPE_2": "Municipality","CC_2": "NA","HASC_2": "BG.TU.OP","name": "Opaka.county","area_km2": 150.2741,"hist_schema_id": "Elevation0-9000","hist_area_km2": {"125": 6.3504,"150": 12.9835,"175": 9.0903,"200": 10.3979,"225": 10.5825,"250": 10.8594,"275": 13.4128,"300": 18.9345,"325": 24.2889,"350": 20.6318,"375": 10.726,"400": 1.6621,"425": 0.2771,"450": 0.077}}}