{"type":"Feature","properties":{"GID_2":"BGR.1.6_1","GID_0":"BGR","country":"Bulgaria","GID_1":"BGR.1_1","state":"Blagoevgrad","NL_NAME_1":"Благоевград","county":"Hadzhidimovo","VARNAME_2":"NA","NL_NAME_2":"Хаджидимово","TYPE_2":"Obshtina","ENGTYPE_2":"Municipality","CC_2":"NA","HASC_2":"BG.BL.HA","name":"Hadzhidimovo.county"},
"geometry":{"type": "MultiPolygon","coordinates": [[[[23.8289,41.5567,489.3066],[23.8214,41.5522,476.385],[23.8171,41.5514,476.8618],[23.7976,41.555,484.1022],[23.7963,41.5524,484.2177],[23.7991,41.545,481.1644],[23.7974,41.5437,481.705],[23.7852,41.5463,485.1067],[23.7625,41.5438,533.1447],[23.7395,41.5456,680.2341],[23.7321,41.5432,859.2702],[23.7221,41.5272,1034.6829],[23.7179,41.5235,1103.8945],[23.7093,41.5218,1213.2708],[23.704,41.5226,1297.8473],[23.6905,41.5291,1390.348],[23.6796,41.5297,1542.7979],[23.6622,41.5236,1675.609],[23.6529,41.5162,1795.8413],[23.6426,41.5012,1666.0439],[23.6549,41.4785,1630.8936],[23.6577,41.4641,1644.5803],[23.6571,41.4381,1271.4426],[23.652,41.4227,1185.8798],[23.6566,41.4067,1342.7646],[23.6492,41.3982,2013.5883],[23.652,41.3988,1872.0381],[23.666,41.4086,1396.9962],[23.67,41.4066,1442.4324],[23.6724,41.4082,1478.48],[23.6876,41.4028,1069.936],[23.7291,41.4059,719.1315],[23.7343,41.403,730.395],[23.7474,41.4015,974.9028],[23.7517,41.3993,934.5842],[23.7518,41.3967,927.9589],[23.7579,41.395,1045.2249],[23.7743,41.4116,1037.3323],[23.7814,41.4147,1192.734],[23.783,41.4201,1040.6531],[23.7964,41.4322,801.1706],[23.8042,41.4338,702.9186],[23.8079,41.4317,676.6687],[23.8181,41.4316,691.1766],[23.8265,41.4324,681.4056],[23.8393,41.4363,791.4571],[23.8455,41.4353,751.2386],[23.8535,41.4439,843.8467],[23.8629,41.4443,785.0689],[23.8649,41.4432,768.373],[23.8774,41.4485,809.8365],[23.8864,41.4453,747.9387],[23.8964,41.4507,783.3868],[23.902,41.4515,759.1408],[23.9062,41.4587,763.0839],[23.9082,41.4665,767.8428],[23.9063,41.4703,819.9432],[23.9072,41.475,822.8065],[23.9128,41.4785,841.9232],[23.9157,41.4752,842.8765],[23.9311,41.4678,957.1191],[23.9297,41.4644,924.0522],[23.9313,41.4609,920.6813],[23.9396,41.4591,973.1987],[23.9412,41.4466,917.1365],[23.9507,41.4464,982.268],[23.9636,41.4368,986.934],[23.9675,41.4359,1028.75],[23.9739,41.4388,1022.0457],[23.9749,41.4417,984.1214],[23.987,41.4466,945.5642],[23.9887,41.4514,862.7103],[23.9962,41.4511,876.8279],[24.0013,41.4538,792.7949],[24.0092,41.4625,549.5261],[24.0122,41.4644,497.1111],[24.0147,41.4628,530.1411],[24.016,41.4637,507.2829],[24.018,41.4704,446.5099],[23.9712,41.4863,460.0942],[23.9552,41.4967,506.2102],[23.9515,41.5095,488.8822],[23.9583,41.5248,556.4252],[23.9549,41.5411,616.682],[23.9457,41.5567,756.7878],[23.9191,41.5689,723.4816],[23.9146,41.5626,747.9222],[23.903199999999998,41.5545,641.3679],[23.8986,41.5529,609.3512],[23.8756,41.5511,563.4775],[23.8527,41.5415,476.1354],[23.847,41.5417,468.6022],[23.8289,41.5567,489.3066]]]]}}