{"type": "Feature","bbox": [23.9575,42.2662,24.2733,42.451],"geometry": {"type": "MultiPolygon","coordinates": [[[[24.0722,42.451,709.7062],[24.0707,42.449,727.2772],[24.0721,42.4388,738.1516],[24.0703,42.43,675.2803],[24.0571,42.4098,543.7104],[24.0534,42.3973,429.0384],[24.0442,42.3857,319.7449],[24.0316,42.3773,423.2718],[24.0239,42.375,514.0956],[23.9951,42.3712,563.4437],[23.9867,42.3715,617.5873],[23.964,42.3674,815.2419],[23.9614,42.3528,874.7331],[23.9575,42.3471,849.4971],[23.9725,42.3458,769.2665],[23.9843,42.3495,546.9046],[24.0012,42.3516,516.2431],[24.0188,42.3509,447.6443],[24.0277,42.3484,394.6414],[24.0483,42.3316,457.3303],[24.0536,42.3298,441.325],[24.0651,42.3279,533.8202],[24.095,42.3303,364.6643],[24.1146,42.3285,342.4531],[24.1314,42.3201,335.4904],[24.1457,42.3076,293.9575],[24.1685,42.2918,293.7515],[24.2059,42.2694,328.0236],[24.2152,42.2662,350.4936],[24.2228,42.2669,306.6496],[24.2418,42.2776,232.5433],[24.265,42.2834,237.1516],[24.2715,42.2885,240.9467],[24.2733,42.299,264.2701],[24.2675,42.3089,311.9752],[24.2487,42.3215,353.1414],[24.2406,42.3287,347.114],[24.2358,42.3354,366.8263],[24.2278,42.3361,388.912],[24.2163,42.3457,485.502],[24.1948,42.3596,536.9034],[24.1803,42.3772,620.7674],[24.171,42.3988,866.5597],[24.1601,42.4102,746.8432],[24.1433,42.4196,721.6757],[24.1099,42.4285,890.6158],[24.0989,42.4332,894.2083],[24.0857,42.4457,880.8069],[24.0765,42.4505,726.1913],[24.0722,42.451,709.7062]]]]}
,"properties": {"GID_2": "BGR.11.4_1","GID_0": "BGR","country": "Bulgaria","GID_1": "BGR.11_1","state": "Pazardzhik","NL_NAME_1": "Пазарджик","county": "Lesichevo","VARNAME_2": "Lesichovo","NL_NAME_2": "NA","TYPE_2": "Obshtina","ENGTYPE_2": "Municipality","CC_2": "NA","HASC_2": "BG.PZ.LE","name": "Lesichevo.county","area_km2": 198.599,"hist_schema_id": "Elevation0-9000","hist_area_km2": {"225": 2.7608,"250": 22.2209,"275": 13.2944,"300": 18.2624,"325": 13.0393,"350": 14.4326,"375": 13.5698,"400": 12.0488,"425": 11.9541,"450": 9.3368,"475": 8.239,"500": 7.283,"525": 6.3118,"550": 5.8103,"575": 5.0897,"600": 4.6983,"625": 4.4786,"650": 3.5232,"675": 3.1627,"700": 2.9591,"725": 2.8963,"750": 3.0685,"775": 2.8178,"800": 2.3794,"825": 1.3775,"850": 0.9236,"875": 1.0017,"900": 0.7983,"925": 0.6259,"950": 0.2191,"975": 0.0156}}}