{"type": "Feature","bbox": [24.3694,42.3744,24.8363,42.5923],"geometry": {"type": "MultiPolygon","coordinates": [[[[24.427,42.4171,497.3448],[24.4502,42.4089,448.6246],[24.4644,42.3975,405.7899],[24.4816,42.3966,368.0872],[24.4843,42.3939,354.41],[24.4846,42.3866,345.1977],[24.4982,42.3836,317.9562],[24.5105,42.3744,296.9709],[24.5182,42.3746,306.3163],[24.5341,42.3812,310.8764],[24.5481,42.3918,307.9921],[24.548,42.3961,315.2743],[24.528,42.4069,297.3558],[24.5289,42.4116,284.1374],[24.5378,42.4151,283.863],[24.5412,42.4183,287.6058],[24.5386,42.4303,298.4604],[24.5398,42.4366,332.5782],[24.5451,42.4398,341.6428],[24.5657,42.4397,292.2162],[24.5746,42.4422,295.7025],[24.5947,42.4546,309.0331],[24.6051,42.4578,314.5887],[24.609,42.4565,316.5399],[24.6108,42.4528,312.4928],[24.6069,42.4395,297.8569],[24.604,42.435,296.0],[24.6034,42.4295,314.4213],[24.6064,42.4256,310.9303],[24.622,42.4173,297.9019],[24.6471,42.416,276.4215],[24.6484,42.4145,280.2121],[24.6473,42.4101,282.6913],[24.6483,42.4088,282.6913],[24.6641,42.4003,279.1487],[24.6656,42.4001,278.4266],[24.6769,42.4097,258.8911],[24.6847,42.4138,272.7839],[24.704,42.4206,272.3201],[24.7206,42.4237,263.3572],[24.7285,42.4236,259.5993],[24.7372,42.421,248.1335],[24.7527,42.4104,244.1724],[24.7558,42.4141,242.1733],[24.7576,42.4343,257.6376],[24.7659,42.4456,278.8359],[24.7677,42.4506,281.2679],[24.7679,42.4604,304.4216],[24.7752,42.4679,329.7217],[24.7818,42.4838,415.8055],[24.7916,42.487,487.4164],[24.8188,42.4816,254.0144],[24.8311,42.495,321.638],[24.8352,42.4964,271.3328],[24.8315,42.5084,319.2996],[24.8363,42.5275,275.4575],[24.8362,42.5338,275.7216],[24.8326,42.5388,279.131],[24.8247,42.5425,281.8784],[24.775,42.548,479.6558],[24.7656,42.5543,333.715],[24.7557,42.566,309.3232],[24.7447,42.5694,359.6118],[24.7242,42.5709,469.1074],[24.7154,42.5744,582.3829],[24.6885,42.5748,557.4407],[24.6639,42.5781,558.4718],[24.6323,42.5641,1055.1083],[24.5757,42.5614,929.5648],[24.5713,42.5624,965.9334],[24.5569,42.5709,1312.0565],[24.5379,42.5717,1418.6696],[24.5328,42.5732,1433.0955],[24.5166,42.5849,1310.9753],[24.5066,42.5903,1380.0896],[24.4932,42.5923,1396.4916],[24.4887,42.5824,1306.5177],[24.4837,42.5772,1162.1979],[24.4599,42.5635,1186.9177],[24.4549,42.5514,1186.5898],[24.4499,42.5473,1209.4275],[24.4408,42.5441,1193.8712],[24.4316,42.5448,1113.8044],[24.4141,42.5425,1094.3619],[24.4125,42.5275,800.7777],[24.4086,42.5199,725.6734],[24.3947,42.5044,685.4191],[24.3803,42.4931,597.9411],[24.3694,42.4766,485.4474],[24.3707,42.4703,457.6964],[24.3798,42.4536,528.6154],[24.4016,42.4412,557.8898],[24.4107,42.4276,453.0789],[24.4233,42.4213,475.761],[24.427,42.4171,497.3448]]]]}
,"properties": {"GID_2": "BGR.14.3_1","GID_0": "BGR","country": "Bulgaria","GID_1": "BGR.14_1","state": "Plovdiv","NL_NAME_1": "Пловдив","county": "Hisar","VARNAME_2": "Hisarya|Hissarya","NL_NAME_2": "Хисаря","TYPE_2": "Obshtina","ENGTYPE_2": "Municipality","CC_2": "NA","HASC_2": "BG.PD.HI","name": "Hisar.county","area_km2": 554.6478,"hist_schema_id": "Elevation0-9000","hist_area_km2": {"250": 5.5716,"275": 30.683,"300": 52.0067,"325": 48.0084,"350": 48.0932,"375": 46.6778,"400": 41.0917,"425": 35.6001,"450": 29.2814,"475": 23.4481,"500": 20.5856,"525": 17.5513,"550": 14.346,"575": 13.6728,"600": 11.2811,"625": 9.8903,"650": 9.3428,"675": 8.7333,"700": 9.2489,"725": 8.5456,"750": 7.639,"775": 6.8109,"800": 5.7483,"825": 5.0767,"850": 4.8266,"875": 4.3579,"900": 3.6861,"925": 3.7016,"950": 3.6391,"975": 2.9676,"1000": 2.8894,"1025": 2.1865,"1050": 2.0147,"1075": 1.9054,"1100": 2.0928,"1125": 1.9209,"1150": 1.7802,"1175": 1.1869,"1200": 1.5616,"1225": 0.7807,"1250": 0.6089,"1275": 0.484,"1300": 0.5152,"1325": 0.6089,"1350": 0.3435,"1375": 0.8742,"1400": 0.4527,"1425": 0.2654,"1450": 0.0468,"1475": 0.0156}}}