{"type": "Feature","id": "2233","bbox": [24.99437,42.01961,26.14335,42.78881],"geometry": {"type": "Polygon","coordinates": [[[25.76859,42.7824,1061.5553],[25.74978,42.78444,750.6819],[25.73169,42.78881,793.5654],[25.69521,42.77633,662.322],[25.6766,42.76496,652.3181],[25.6612,42.75739,789.7742],[25.64353,42.76561,868.2126],[25.62007,42.76695,781.5394],[25.6272,42.7485,943.2668],[25.61273,42.73793,799.837],[25.59278,42.75003,920.4269],[25.57573,42.76723,899.2161],[25.5594,42.77274,954.9211],[25.53573,42.75297,1077.3821],[25.51703,42.75853,1054.1907],[25.50194,42.75134,1248.0803],[25.48385,42.7454,1190.236],[25.46731,42.74946,1217.8069],[25.45047,42.75155,1289.7803],[25.42628,42.73786,1378.6493],[25.39404,42.73579,1408.9333],[25.34184,42.75258,1185.4331],[25.28769,42.76044,1213.9609],[25.24717,42.74277,1391.3413],[25.23074,42.75556,1290.9812],[25.21627,42.77263,1264.6926],[25.16614,42.7707,1421.1399],[25.11457,42.75253,1314.302],[25.06289,42.74509,1904.1887],[25.01153,42.74827,1486.0186],[25.00636,42.71305,1642.6335],[25.0229,42.64156,934.5887],[25.01349,42.6221,792.7012],[24.99437,42.61699,716.3519],[25.01866,42.57668,567.353],[25.01825,42.56329,688.394],[25.026,42.54133,876.8656],[25.04274,42.52428,947.4706],[25.0816,42.50255,915.7728],[25.12656,42.50172,1018.1088],[25.15953,42.50971,1083.62],[25.17586,42.48947,1036.6394],[25.15633,42.45405,690.2816],[25.17927,42.43452,554.4783],[25.19229,42.42976,437.5185],[25.19736,42.41687,362.9798],[25.19105,42.40253,337.6256],[25.17359,42.40423,454.3389],[25.13638,42.41591,519.145],[25.10837,42.40111,451.7932],[25.11426,42.36573,273.2928],[25.11581,42.34129,286.1677],[25.12656,42.31907,225.3133],[25.14909,42.28615,192.1893],[25.11974,42.27341,178.8343],[25.08584,42.26321,176.5902],[25.07313,42.22897,178.7305],[25.08801,42.18805,136.28],[25.10723,42.17763,133.5463],[25.11529,42.18125,136.297],[25.12615,42.172,128.8037],[25.14196,42.16704,127.6165],[25.15291,42.16045,126.347],[25.1494,42.14647,124.7673],[25.16738,42.14399,124.3942],[25.18216,42.16825,140.6343],[25.20056,42.16978,149.8113],[25.2356,42.17683,170.0358],[25.26722,42.17073,177.1793],[25.30453,42.15159,149.3705],[25.32954,42.12451,136.247],[25.3651,42.11299,111.3135],[25.3868,42.11402,113.1624],[25.39817,42.11309,107.7691],[25.40603,42.10924,107.7141],[25.41708,42.10156,106.6931],[25.42856,42.09965,115.0124],[25.43962,42.09994,146.6026],[25.44985,42.09867,124.2339],[25.45946,42.13428,133.4875],[25.47393,42.16652,158.2226],[25.50679,42.17629,158.9847],[25.54049,42.16732,173.8309],[25.58886,42.19275,145.9421],[25.62296,42.18022,157.5772],[25.62441,42.16283,148.5094],[25.62255,42.14549,138.6952],[25.60756,42.12999,149.1724],[25.63258,42.12459,113.1857],[25.66368,42.13577,156.0437],[25.69159,42.11833,169.8434],[25.73293,42.08642,173.6993],[25.7566,42.06152,172.3344],[25.80352,42.07831,140.9229],[25.84507,42.10857,112.5374],[25.85613,42.12048,133.2407],[25.86998,42.1273,89.1808],[25.87845,42.12322,94.7676],[25.94977,42.10808,181.8581],[26.00217,42.06521,200.5336],[26.028,42.03715,287.8446],[26.05705,42.01961,346.9537],[26.09901,42.03586,457.9026],[26.14283,42.0457,458.639],[26.14335,42.07366,394.7277],[26.1296,42.10061,237.5767],[26.13012,42.15704,301.7216],[26.10645,42.1536,241.5592],[26.08443,42.16104,213.9958],[26.05539,42.16032,164.4255],[26.02459,42.15272,139.4703],[25.97436,42.19755,112.5532],[25.97922,42.27086,141.6642],[25.95886,42.31623,126.605],[25.91266,42.36413,122.2746],[25.89933,42.38674,127.0033],[25.90057,42.41178,132.6935],[25.87266,42.44981,149.0777],[25.88434,42.46971,164.5106],[25.88186,42.49379,195.1988],[25.86471,42.51769,364.804],[25.84207,42.52392,369.7214],[25.83101,42.53864,480.3665],[25.883,42.56828,356.0594],[25.87866,42.60404,288.6122],[25.85055,42.64417,260.5],[25.82192,42.71491,896.5789],[25.81086,42.78282,1139.2329],[25.78967,42.78509,1131.2086],[25.76859,42.7824,1061.5553]]]}
,"properties": {"ISO3166-1-Alpha-3": "BGR","country": "Bulgaria","fill": "#FF0","name": "Stara Zagora","area_km2": 4853.151,"hist_schema_id": "Elevation0-9000","hist_area_km2": {"75": 1.792,"100": 75.826,"125": 304.039,"150": 604.481,"175": 546.22,"200": 216.641,"225": 150.09,"250": 116.866,"275": 154.223,"300": 172.444,"325": 182.506,"350": 141.388,"375": 112.849,"400": 167.809,"425": 162.099,"450": 164.816,"475": 164.362,"500": 144.876,"525": 122.567,"550": 102.756,"575": 89.223,"600": 73.363,"625": 63.124,"650": 55.198,"675": 49.586,"700": 46.662,"725": 42.799,"750": 38.753,"775": 39.172,"800": 37.722,"825": 34.989,"850": 33.346,"875": 31.469,"900": 30.032,"925": 28.547,"950": 26.316,"975": 24.878,"1000": 23.783,"1025": 21.304,"1050": 21.661,"1075": 20.565,"1100": 18.57,"1125": 19.238,"1150": 16.745,"1175": 15.81,"1200": 15.28,"1225": 14.439,"1250": 14.438,"1275": 11.307,"1300": 9.812,"1325": 8.052,"1350": 5.981,"1375": 5.685,"1400": 5.046,"1425": 3.785,"1450": 3.287,"1475": 2.664,"1500": 2.788,"1525": 2.368,"1550": 2.228,"1575": 2.29,"1600": 2.009,"1625": 1.791,"1650": 1.745,"1675": 1.713,"1700": 1.667,"1725": 1.776,"1750": 1.698,"1775": 1.417,"1800": 1.651,"1825": 1.417,"1850": 1.729,"1875": 1.698,"1900": 1.48,"1925": 1.433,"1950": 1.246,"1975": 1.246,"2000": 1.044,"2025": 0.794,"2050": 0.981,"2075": 0.748,"2100": 0.685,"2125": 0.748,"2150": 0.654,"2175": 0.405,"2200": 0.202,"2225": 0.125,"2250": 0.078}}}