{"type": "Feature","bbox": [25.0247,42.0106,26.1986,42.7876],"geometry": {"type": "MultiPolygon","coordinates": [[[[26.1549,42.0392,546.8329],[26.1638,42.0418,505.4587],[26.162,42.0555,394.3212],[26.1627,42.0791,356.8734],[26.1583,42.0987,260.8525],[26.1443,42.1188,171.1678],[26.1434,42.1343,227.7552],[26.1453,42.1485,276.0522],[26.1496,42.156,296.4456],[26.1659,42.1672,287.1457],[26.1766,42.1824,258.4529],[26.1838,42.2054,219.0484],[26.1986,42.2279,222.499],[26.1899,42.2311,216.4638],[26.1853,42.2368,186.1496],[26.1769,42.2404,185.2792],[26.1255,42.2499,140.8755],[26.1056,42.2595,146.8849],[26.0935,42.262,139.2229],[26.0819,42.2595,145.6789],[26.0639,42.2483,139.7825],[26.0575,42.249,153.659],[26.0549,42.2542,191.2604],[26.0555,42.2706,160.2858],[26.0506,42.272,144.5074],[26.0267,42.2721,182.8798],[26.0195,42.2752,163.687],[26.0116,42.2825,151.986],[26.0052,42.2951,163.9649],[25.9958,42.3049,142.4334],[25.9839,42.312,137.5659],[25.9594,42.3189,124.4701],[25.952,42.3306,111.3852],[25.9498,42.3381,122.9832],[25.9484,42.3561,126.664],[25.9447,42.3623,126.8058],[25.9357,42.3718,126.3767],[25.924,42.3897,127.5292],[25.921,42.4051,127.8979],[25.9143,42.4133,131.012],[25.9095,42.4164,133.1671],[25.8975,42.4197,135.5752],[25.8905,42.4251,137.4296],[25.888,42.4308,139.9434],[25.8888,42.4351,141.5262],[25.8946,42.4426,142.8619],[25.9107,42.4544,148.2396],[25.9142,42.4611,151.957],[25.9151,42.4691,158.4443],[25.9133,42.4748,161.5503],[25.9048,42.4807,173.4074],[25.8967,42.4895,182.8223],[25.8839,42.5129,263.8699],[25.8806,42.5146,327.9852],[25.8754,42.5211,314.7668],[25.8664,42.538,404.2533],[25.8665,42.5448,507.4188],[25.8719,42.5503,491.8694],[25.9146,42.5663,335.9568],[25.9192,42.5702,322.6968],[25.9204,42.5792,272.563],[25.9179,42.585,284.1666],[25.9138,42.5889,321.8833],[25.8965,42.5984,279.9251],[25.8869,42.6121,359.8544],[25.8818,42.6241,333.7653],[25.879,42.6559,283.7109],[25.8741,42.6769,317.6127],[25.8649,42.6908,359.0942],[25.8564,42.6991,469.2669],[25.8479,42.7341,926.6045],[25.8396,42.7587,1189.708],[25.8402,42.776,1165.6438],[25.8451,42.7835,1005.0449],[25.841,42.7861,1012.3997],[25.8328,42.7872,858.9232],[25.8087,42.7809,1129.2367],[25.799,42.7823,1140.2507],[25.7882,42.7865,1081.7715],[25.7781,42.7876,965.8152],[25.7619,42.7831,935.4927],[25.7477,42.7815,762.9241],[25.7379,42.7786,764.4696],[25.7309,42.7741,573.2938],[25.7185,42.77,572.463],[25.6774,42.7502,753.5081],[25.6745,42.7416,606.3354],[25.6692,42.7369,508.8678],[25.6655,42.7343,594.3152],[25.6551,42.7312,724.5583],[25.6414,42.7337,717.6301],[25.6348,42.7393,776.5399],[25.6304,42.7462,841.8303],[25.623,42.7522,809.2352],[25.6179,42.7536,790.7847],[25.606,42.7537,863.4539],[25.5963,42.7518,1026.5465],[25.5892,42.7491,898.8612],[25.5772,42.7406,853.5583],[25.5482,42.7368,1077.1067],[25.5275,42.7425,998.9521],[25.5181,42.7475,1183.3191],[25.5101,42.7549,1208.8201],[25.501,42.7603,1117.3899],[25.4869,42.7633,1238.3271],[25.4624,42.763,1275.0414],[25.457,42.7617,1260.2563],[25.4562,42.7591,1221.7773],[25.467,42.7321,1177.7384],[25.4661,42.7269,1214.7974],[25.4637,42.7239,1197.8191],[25.4555,42.7224,1312.0511],[25.431,42.7269,1262.5156],[25.4154,42.7322,1414.698],[25.38,42.7354,1048.6919],[25.3377,42.7445,1141.9227],[25.32,42.7455,1225.3123],[25.2913,42.7417,1038.219],[25.285,42.7431,1180.1045],[25.2669,42.7534,1178.616],[25.2513,42.7584,1308.7756],[25.2359,42.7689,1260.431],[25.2263,42.7725,1148.7402],[25.193,42.7541,1156.8136],[25.1845,42.7523,1224.673],[25.1695,42.7524,1474.4553],[25.1553,42.7495,1167.5708],[25.1386,42.7434,960.4526],[25.1101,42.7289,1554.541],[25.0885,42.7291,1694.703],[25.0735,42.7342,1918.7241],[25.0365,42.7353,1699.8812],[25.0349,42.7233,1441.2833],[25.0406,42.7139,1463.9138],[25.0452,42.7022,1373.069],[25.0389,42.6739,891.3455],[25.0458,42.6541,609.3826],[25.0495,42.637,652.0048],[25.0496,42.6258,597.1305],[25.0259,42.5975,509.3646],[25.0247,42.5906,518.2671],[25.0295,42.5786,571.0577],[25.0467,42.554,750.4972],[25.0567,42.5142,1034.7072],[25.0755,42.4947,1069.1594],[25.0833,42.491,1018.5121],[25.1066,42.4876,772.2412],[25.1275,42.4789,675.4829],[25.1365,42.4785,702.1707],[25.1511,42.4817,676.6753],[25.172,42.4831,951.3055],[25.1944,42.4917,847.9235],[25.2074,42.4897,862.5335],[25.2145,42.4852,912.4799],[25.2262,42.4696,707.1161],[25.2213,42.4523,540.3807],[25.2163,42.4455,530.371],[25.2116,42.4424,503.4973],[25.1945,42.4362,428.7043],[25.1895,42.4328,479.8633],[25.1887,42.4285,441.1223],[25.1918,42.4238,426.3384],[25.2033,42.4177,369.36],[25.2378,42.4044,345.5763],[25.2415,42.4001,334.7473],[25.2433,42.3921,322.0108],[25.2417,42.3847,319.1061],[25.2374,42.379,327.9761],[25.2259,42.3765,290.6458],[25.2106,42.3779,298.7182],[25.1929,42.3848,306.1309],[25.1651,42.3929,393.5681],[25.1518,42.3926,410.8295],[25.144,42.3881,394.7617],[25.1432,42.3855,383.7746],[25.1494,42.3548,293.1113],[25.1449,42.3018,212.9789],[25.147,42.2906,186.8009],[25.1505,42.2828,201.8471],[25.1563,42.28,236.0508],[25.1696,42.2803,245.7294],[25.1824,42.2743,238.0597],[25.204,42.2699,243.2182],[25.2148,42.2619,211.7665],[25.2163,42.2539,193.9796],[25.2083,42.2488,189.0654],[25.2041,42.2482,192.503],[25.1392,42.245,165.3195],[25.1174,42.2393,163.6451],[25.1099,42.2348,161.3713],[25.0999,42.2225,166.7939],[25.0984,42.2183,154.9376],[25.0973,42.1862,137.877],[25.1007,42.1671,130.3992],[25.1123,42.1504,128.8736],[25.1339,42.1511,133.0783],[25.1585,42.1431,124.7547],[25.1787,42.1425,126.3379],[25.2064,42.1499,131.6412],[25.2222,42.1498,133.1467],[25.2337,42.1517,154.8957],[25.2532,42.1491,139.9465],[25.2648,42.1494,167.3359],[25.2899,42.1613,157.6797],[25.3048,42.1637,145.3511],[25.3189,42.1438,136.4499],[25.3274,42.1369,122.4651],[25.3495,42.1242,130.5755],[25.3535,42.1205,127.867],[25.3602,42.1047,110.2706],[25.3727,42.0984,110.9292],[25.3763,42.0936,113.7621],[25.3841,42.0989,110.558],[25.4007,42.0983,109.5536],[25.4153,42.0929,102.7058],[25.4347,42.0912,106.0034],[25.4521,42.0785,104.9006],[25.4645,42.0775,102.3889],[25.4719,42.08,103.6421],[25.4756,42.0843,103.3737],[25.4803,42.098,163.125],[25.4926,42.1136,150.0627],[25.4924,42.1204,135.7241],[25.4878,42.1317,159.2112],[25.495,42.1418,154.1242],[25.5165,42.1518,177.6992],[25.5262,42.1538,165.2056],[25.5317,42.1529,177.496],[25.5525,42.1409,176.9165],[25.5641,42.1394,162.5185],[25.5757,42.1404,183.1831],[25.5833,42.1455,169.9482],[25.5835,42.1505,151.9078],[25.5671,42.1517,169.9795],[25.5642,42.1552,169.6591],[25.5709,42.1585,167.2346],[25.593,42.1635,136.2226],[25.5971,42.1691,133.3518],[25.599,42.1787,155.253],[25.6045,42.185,159.7475],[25.613,42.1909,165.2904],[25.6276,42.194,165.0951],[25.6367,42.1906,142.5681],[25.639,42.1882,144.2137],[25.6419,42.1763,135.3818],[25.6415,42.1553,146.258],[25.636,42.1305,126.686],[25.6361,42.117,107.1403],[25.6421,42.1143,109.199],[25.6531,42.1185,159.4581],[25.6667,42.1294,146.636],[25.6876,42.14,172.7015],[25.6965,42.1418,156.5406],[25.7087,42.1403,140.0],[25.7154,42.1346,167.1167],[25.7199,42.1179,166.978],[25.7245,42.1109,165.1876],[25.7383,42.1023,154.9155],[25.7457,42.0951,139.5059],[25.7496,42.0862,144.7991],[25.7511,42.0591,163.807],[25.7551,42.0528,157.2072],[25.7619,42.0494,141.1007],[25.772,42.0476,139.0623],[25.8016,42.0493,133.4279],[25.8217,42.0609,111.2026],[25.8465,42.0656,124.5654],[25.8555,42.0833,152.2858],[25.8576,42.0975,92.9344],[25.8623,42.1055,102.8107],[25.8692,42.1107,85.7903],[25.8759,42.1116,82.3946],[25.8853,42.1089,96.4031],[25.8908,42.1045,112.1934],[25.8949,42.1037,106.3594],[25.9063,42.1075,125.6843],[25.9217,42.1087,169.6714],[25.95,42.0902,165.1345],[25.9839,42.0903,207.0981],[26.0049,42.0754,241.7159],[26.0146,42.0629,221.527],[26.0295,42.0497,258.4571],[26.0363,42.0412,273.3774],[26.0407,42.0298,304.3188],[26.0456,42.0235,327.7352],[26.0679,42.0107,332.9436],[26.0791,42.0106,384.362],[26.0855,42.0135,382.2158],[26.0978,42.028,406.4935],[26.1023,42.0301,389.6118],[26.1198,42.0296,428.6654],[26.1365,42.0378,493.9579],[26.1549,42.0392,546.8329]]]]}
,"properties": {"GID_1": "BGR.22_1","GID_0": "BGR","country": "Bulgaria","state": "StaraZagora","VARNAME_1": "NA","NL_NAME_1": "СтараЗагора","TYPE_1": "Oblast","ENGTYPE_1": "Province","CC_1": "NA","HASC_1": "BG.SZ","ISO_1": "BG-24","name": "StaraZagora.state","area_km2": 5054.411,"hist_schema_id": "Elevation0-9000","hist_area_km2": {"25": 0.236,"50": 4.868,"75": 15.235,"100": 114.175,"125": 381.195,"150": 668.229,"175": 584.696,"200": 232.917,"225": 159.098,"250": 133.824,"275": 164.54,"300": 177.464,"325": 181.341,"350": 141.168,"375": 112.85,"400": 169.928,"425": 164.755,"450": 165.791,"475": 164.553,"500": 144.033,"525": 118.665,"550": 100.103,"575": 85.088,"600": 69.041,"625": 58.116,"650": 50.502,"675": 43.924,"700": 41.5,"725": 37.792,"750": 34.012,"775": 34.805,"800": 33.916,"825": 31.947,"850": 30.789,"875": 30.425,"900": 29.254,"925": 28.065,"950": 25.944,"975": 24.647,"1000": 24.301,"1025": 22.197,"1050": 23.022,"1075": 20.695,"1100": 18.48,"1125": 17.698,"1150": 15.593,"1175": 13.802,"1200": 13.319,"1225": 12.633,"1250": 12.99,"1275": 9.687,"1300": 7.523,"1325": 5.903,"1350": 4.237,"1375": 3.536,"1400": 3.006,"1425": 2.368,"1450": 2.088,"1475": 1.573,"1500": 1.636,"1525": 1.355,"1550": 1.496,"1575": 1.371,"1600": 1.153,"1625": 1.059,"1650": 1.153,"1675": 1.122,"1700": 1.153,"1725": 1.293,"1750": 1.262,"1775": 0.935,"1800": 1.215,"1825": 0.997,"1850": 1.262,"1875": 1.277,"1900": 1.09,"1925": 1.106,"1950": 1.013,"1975": 1.075,"2000": 0.95,"2025": 0.748,"2050": 0.966,"2075": 0.732,"2100": 0.685,"2125": 0.748,"2150": 0.654,"2175": 0.405,"2200": 0.202,"2225": 0.125,"2250": 0.078}}}