{"type":"Feature","properties":{"GID_2":"BGR.22.5_1","GID_0":"BGR","country":"Bulgaria","GID_1":"BGR.22_1","state":"StaraZagora","NL_NAME_1":"СтараЗагора","county":"Kazanlak","VARNAME_2":"NA","NL_NAME_2":"Казанлък","TYPE_2":"City","ENGTYPE_2":"City","CC_2":"NA","HASC_2":"BG.SZ.KA","name":"Kazanlak.county"},
"geometry":{"type": "MultiPolygon","coordinates": [[[[25.2263,42.7725,1148.7402],[25.2117,42.7647,1229.3582],[25.213,42.7574,1249.736],[25.2194,42.744,1213.0581],[25.2294,42.7302,873.7704],[25.2306,42.7251,923.7549],[25.2301,42.7141,1074.597],[25.233,42.7029,931.1638],[25.2379,42.6942,656.9233],[25.2494,42.6816,468.9164],[25.2581,42.6609,431.6771],[25.2754,42.6489,405.9921],[25.3141,42.6341,392.093],[25.3178,42.6315,393.6281],[25.3207,42.6246,412.2008],[25.3203,42.6177,387.5],[25.3183,42.6133,384.2287],[25.2941,42.5768,407.568],[25.2843,42.569,436.7563],[25.2751,42.5648,486.004],[25.2709,42.5579,487.0276],[25.2633,42.5525,506.1278],[25.2613,42.5492,481.4129],[25.2617,42.5419,490.6873],[25.2663,42.5277,523.5313],[25.2622,42.5189,569.1713],[25.2628,42.5147,684.1921],[25.2738,42.5028,877.5703],[25.2859,42.4967,832.4239],[25.2854,42.4906,754.2925],[25.2802,42.4835,721.3433],[25.2805,42.4775,720.5917],[25.2876,42.4661,805.2846],[25.2952,42.4584,629.6274],[25.303,42.4543,560.6289],[25.3128,42.4525,528.1054],[25.3296,42.4522,445.7504],[25.3463,42.455,440.1827],[25.4039,42.4708,589.8694],[25.4191,42.4831,502.9962],[25.427,42.4974,543.1573],[25.4334,42.5018,570.3522],[25.4402,42.5039,619.3834],[25.454,42.503,532.2462],[25.4696,42.4961,477.1745],[25.4863,42.4949,545.3611],[25.4959,42.4913,539.5946],[25.5014,42.4871,531.6986],[25.504,42.482,473.3536],[25.5038,42.4739,455.1801],[25.5053,42.4713,425.338],[25.5148,42.4649,460.0724],[25.5248,42.4651,506.4442],[25.5326,42.4681,551.4885],[25.552,42.4854,518.9823],[25.5625,42.4985,553.8356],[25.5631,42.5072,464.9165],[25.5677,42.5217,420.8254],[25.5674,42.5267,378.1686],[25.5643,42.5317,348.7772],[25.5515,42.5426,305.0955],[25.5485,42.5492,304.8124],[25.5502,42.5615,326.9823],[25.5549,42.5733,320.5411],[25.5558,42.5808,325.3981],[25.5539,42.5883,332.2307],[25.5408,42.6175,500.5346],[25.5389,42.6282,743.8334],[25.5394,42.6412,1083.2136],[25.5459,42.6719,707.0447],[25.5423,42.7151,1162.8134],[25.5439,42.7268,1253.9127],[25.5482,42.7368,1077.1067],[25.5275,42.7425,998.9521],[25.5181,42.7475,1183.3191],[25.5101,42.7549,1208.8201],[25.501,42.7603,1117.3899],[25.4869,42.7633,1238.3271],[25.4588,42.7626,1278.8516],[25.457,42.7617,1260.2563],[25.4569,42.7563,1230.0555],[25.467,42.7321,1177.7384],[25.4661,42.7269,1214.7974],[25.4637,42.7239,1197.8191],[25.4555,42.7224,1312.0511],[25.431,42.7269,1262.5156],[25.4154,42.7322,1414.698],[25.38,42.7354,1048.6919],[25.3377,42.7445,1141.9227],[25.32,42.7455,1225.3123],[25.2913,42.7417,1038.219],[25.285,42.7431,1180.1045],[25.2669,42.7534,1178.616],[25.2513,42.7584,1308.7756],[25.2359,42.7689,1260.431],[25.2263,42.7725,1148.7402]]]]}}