{"type": "Feature","bbox": [25.4324,43.2613,25.8244,43.5078],"geometry": {"type": "MultiPolygon","coordinates": [[[[25.5886,43.504,60.0449],[25.566,43.5035,54.5741],[25.5522,43.5078,76.042],[25.5346,43.4934,70.5548],[25.5217,43.4876,94.9068],[25.4979,43.4815,101.8677],[25.4922,43.4782,131.8977],[25.489,43.473,132.2368],[25.485,43.4587,143.0165],[25.4779,43.4518,127.3496],[25.4506,43.4431,122.8564],[25.4458,43.4386,118.2641],[25.4366,43.4342,110.1006],[25.4362,43.4325,105.3007],[25.4388,43.4286,125.4087],[25.4377,43.4244,113.7266],[25.4425,43.4202,126.7015],[25.4544,43.4026,84.4771],[25.4585,43.3875,97.299],[25.458,43.3824,122.8438],[25.4549,43.3767,145.3835],[25.4362,43.3664,179.6916],[25.4324,43.3617,170.9309],[25.4331,43.3569,149.8107],[25.4374,43.3502,166.0068],[25.4457,43.3419,163.5137],[25.4665,43.3261,99.6203],[25.477,43.3097,165.733],[25.5074,43.2996,208.0073],[25.5162,43.295,222.7319],[25.5309,43.2838,254.0318],[25.5543,43.2706,184.4796],[25.5627,43.2677,190.7482],[25.6079,43.2664,175.2851],[25.6332,43.2738,95.6268],[25.6451,43.2757,45.1929],[25.6516,43.2733,45.2747],[25.658,43.2645,47.0154],[25.6609,43.2628,47.3835],[25.6658,43.2613,47.8017],[25.6758,43.2621,46.6922],[25.712,43.2718,303.4486],[25.733,43.2726,278.7827],[25.7404,43.2743,264.0987],[25.7482,43.2796,231.6302],[25.7512,43.2895,342.2626],[25.7526,43.3054,238.4043],[25.7567,43.3125,362.6149],[25.7659,43.3184,346.2711],[25.7756,43.3207,271.1953],[25.7812,43.3255,331.8713],[25.7974,43.3318,342.063],[25.7998,43.334,311.717],[25.8076,43.3514,268.6595],[25.8114,43.3519,261.8226],[25.813,43.3454,245.9924],[25.818,43.3461,234.6295],[25.8194,43.3499,197.2266],[25.8179,43.3637,181.2974],[25.8244,43.3788,204.8358],[25.7989,43.3712,268.2032],[25.7859,43.3694,241.8391],[25.7557,43.3809,337.6896],[25.7241,43.4089,104.9629],[25.7179,43.4127,83.8615],[25.709,43.413,90.308],[25.7022,43.4102,83.2511],[25.6909,43.3982,91.2127],[25.6841,43.3958,78.2893],[25.6792,43.3962,61.8279],[25.6708,43.3988,33.007],[25.6665,43.402,37.1454],[25.63,43.4111,110.6025],[25.6218,43.4184,152.3135],[25.5997,43.4226,141.0444],[25.5763,43.4333,142.7733],[25.5731,43.4376,135.8708],[25.5742,43.4411,140.6652],[25.5838,43.4472,125.6098],[25.590699999999998,43.4539,171.008],[25.5865,43.4701,104.5852],[25.589,43.4817,96.3932],[25.5886,43.504,60.0449]]]]}
,"properties": {"GID_2": "BGR.25.5_1","GID_0": "BGR","country": "Bulgaria","GID_1": "BGR.25_1","state": "VelikoTarnovo","NL_NAME_1": "ВеликоТърново","county": "PolskiTrambesh","VARNAME_2": "NA","NL_NAME_2": "NA","TYPE_2": "Obshtina","ENGTYPE_2": "Municipality","CC_2": "NA","HASC_2": "BG.VT.PT","name": "PolskiTrambesh.county","area_km2": 468.1719,"hist_schema_id": "Elevation0-9000","hist_area_km2": {"25": 3.4829,"50": 57.1179,"75": 47.2831,"100": 63.6948,"125": 68.7154,"150": 65.8926,"175": 51.9388,"200": 31.2736,"225": 17.49,"250": 12.0759,"275": 11.427,"300": 13.5239,"325": 15.142,"350": 8.1116,"375": 1.0025}}}