{"type": "Feature","bbox": [24.8833,41.5785,25.1306,41.8234],"geometry": {"type": "MultiPolygon","coordinates": [[[[25.1006,41.7186,1149.0505],[25.0964,41.7225,1029.2434],[25.0957,41.7275,1145.2174],[25.0891,41.7408,982.1057],[25.0888,41.7564,1118.0828],[25.0927,41.7667,925.4544],[25.0953,41.7698,824.5498],[25.114,41.7775,550.3644],[25.1019,41.7795,542.0989],[25.0895,41.7843,620.3874],[25.0707,41.7867,885.5999],[25.0637,41.7941,916.1536],[25.0617,41.8038,701.9683],[25.0592,41.8075,884.6812],[25.0346,41.8219,935.8815],[25.029,41.8234,886.7172],[25.0195,41.823,1021.4373],[25.001,41.8132,880.3988],[24.9805,41.8058,1178.2656],[24.9766,41.8018,1302.8943],[24.9755,41.7877,1066.6062],[24.9787,41.7651,1050.4026],[24.9834,41.7594,1243.3716],[24.9968,41.7519,1228.0146],[24.997,41.7473,1184.521],[24.9946,41.7422,1224.5223],[24.9812,41.7316,1270.1572],[24.9739,41.7289,1358.3109],[24.9612,41.7293,1496.4579],[24.9452,41.733,1701.8789],[24.9277,41.7392,1690.5524],[24.9128,41.7399,1824.3002],[24.9037,41.7379,1530.1685],[24.8991,41.7313,1444.3162],[24.899,41.7099,1842.2025],[24.8833,41.7021,1532.921],[24.8952,41.6857,1359.1069],[24.9058,41.679,1230.5046],[24.9188,41.674,1243.7437],[24.9272,41.6657,1080.3256],[24.9385,41.64,1319.2675],[24.9408,41.6205,864.2814],[24.9475,41.6072,1093.115],[24.9579,41.6045,1159.368],[24.9895,41.6031,861.229],[25.0028,41.6001,968.7401],[25.0196,41.5785,795.2734],[25.0359,41.5817,759.3548],[25.0818,41.5821,865.9709],[25.0915,41.5835,976.3035],[25.1113,41.5936,948.4044],[25.1223,41.6033,831.5729],[25.1275,41.6129,643.4667],[25.1208,41.6344,618.7689],[25.1213,41.6415,529.0256],[25.1306,41.6548,458.1577],[25.1301,41.6597,526.9968],[25.124,41.6663,594.4381],[25.1059,41.6944,702.1189],[25.1054,41.7008,853.041],[25.0998,41.7143,1143.9113],[25.1006,41.7186,1149.0505]]]]}
,"properties": {"GID_2": "BGR.20.1_1","GID_0": "BGR","country": "Bulgaria","GID_1": "BGR.20_1","state": "Smolyan","NL_NAME_1": "Смолян","county": "Banite","VARNAME_2": "NA","NL_NAME_2": "Баните","TYPE_2": "Obshtina","ENGTYPE_2": "Municipality","CC_2": "NA","HASC_2": "BG.SM.BA","name": "Banite.county","area_km2": 332.9364,"hist_schema_id": "Elevation0-9000","hist_area_km2": {"400": 0.1109,"425": 0.1743,"450": 0.5547,"475": 0.7924,"500": 1.8384,"525": 1.8223,"550": 2.5351,"575": 2.8677,"600": 3.818,"625": 3.9291,"650": 4.9745,"675": 5.655,"700": 6.2883,"725": 7.4129,"750": 8.3147,"775": 10.3255,"800": 11.2749,"825": 12.8265,"850": 15.2169,"875": 14.5663,"900": 16.2456,"925": 17.1637,"950": 16.246,"975": 16.7196,"1000": 15.0248,"1025": 14.3271,"1050": 13.3606,"1075": 12.6484,"1100": 11.9983,"1125": 11.1914,"1150": 9.466,"1175": 8.8799,"1200": 7.5504,"1225": 6.8697,"1250": 5.3497,"1275": 4.5898,"1300": 4.1466,"1325": 3.6878,"1350": 2.6748,"1375": 2.01,"1400": 2.026,"1425": 1.4878,"1450": 1.4403,"1475": 1.5195,"1500": 1.2187,"1525": 0.9021,"1550": 0.7438,"1575": 0.7755,"1600": 1.1394,"1625": 0.8546,"1650": 1.1077,"1675": 0.8545,"1700": 0.7754,"1725": 0.6963,"1750": 0.3956,"1775": 0.4906,"1800": 0.3482,"1825": 0.3007,"1850": 0.1899,"1875": 0.1108,"1900": 0.0633,"1925": 0.0475}}}