{"type":"Feature","properties":{"GID_2":"BGR.25.9_1","GID_0":"BGR","country":"Bulgaria","GID_1":"BGR.25_1","state":"VelikoTarnovo","NL_NAME_1":"ВеликоТърново","county":"VelikoTarnovo","VARNAME_2":"VelikoTurnovo|Timova","NL_NAME_2":"ВеликоТърново","TYPE_2":"City","ENGTYPE_2":"City","CC_2":"NA","HASC_2":"BG.VT.VT","name":"VelikoTarnovo.county"},
"geometry":{"type": "MultiPolygon","coordinates": [[[[25.5955,42.9117,612.8186],[25.6086,42.9014,657.334],[25.6116,42.9006,617.5803],[25.6371,42.902,492.9218],[25.645,42.8992,399.5739],[25.6465,42.8975,414.3672],[25.6472,42.883,388.5968],[25.646,42.8677,406.5056],[25.6635,42.8638,469.4893],[25.6683,42.8601,456.6085],[25.6694,42.8558,421.1878],[25.6664,42.8494,555.2842],[25.657,42.8424,577.3928],[25.6402,42.8352,422.8726],[25.6268,42.8273,435.6771],[25.623,42.8206,489.9528],[25.6226,42.8154,589.3555],[25.6241,42.8093,698.7506],[25.637,42.7967,810.6438],[25.641,42.7901,868.1591],[25.6431,42.7685,796.6176],[25.6523,42.7646,777.4],[25.6638,42.7621,625.0839],[25.6781,42.7499,756.4379],[25.7185,42.77,572.463],[25.7309,42.7741,573.2938],[25.7379,42.7786,764.4696],[25.7372,42.7867,708.5854],[25.7389,42.7918,790.8281],[25.7633,42.8238,552.2831],[25.7645,42.837,703.1827],[25.7662,42.84,718.1931],[25.774,42.8432,754.7717],[25.7833,42.8443,749.985],[25.7861,42.8458,786.4102],[25.7872,42.8486,778.0134],[25.7881,42.8514,701.2643],[25.7856,42.855,605.0656],[25.7609,42.8658,830.7286],[25.7552,42.8704,751.6531],[25.7514,42.8778,693.0891],[25.7517,42.8899,688.1738],[25.7592,42.8979,520.3907],[25.7601,42.9017,503.9376],[25.7602,42.9153,389.6469],[25.758,42.9186,369.2725],[25.7486,42.9199,375.736],[25.7327,42.9161,491.2775],[25.7289,42.9176,480.6766],[25.7256,42.9218,523.4635],[25.7259,42.9256,567.8946],[25.7289,42.9278,591.2184],[25.7438,42.93,410.3393],[25.7476,42.9322,378.7183],[25.7455,42.9372,518.6024],[25.7406,42.9419,512.9686],[25.7392,42.9465,553.1146],[25.7395,42.9491,567.7065],[25.7431,42.9534,584.1193],[25.7451,42.9619,590.0984],[25.7514,42.9664,262.1099],[25.7643,42.9667,465.8615],[25.7745,42.9644,633.8267],[25.7946,42.9632,593.2852],[25.8082,42.9667,576.0962],[25.8182,42.965,673.0639],[25.8305,42.9658,662.0701],[25.840699999999998,42.9611,527.2409],[25.8518,42.9609,485.7654],[25.8595,42.9654,547.4363],[25.8708,42.9674,521.8179],[25.8755,42.9701,515.6881],[25.8756,42.9836,475.0552],[25.8812,42.9957,247.373],[25.88,43.0033,179.5989],[25.8765,43.0073,179.087],[25.8756,43.0205,351.6768],[25.8609,43.0339,106.9128],[25.857,43.0393,112.1568],[25.8555,43.0504,100.8209],[25.8505,43.0541,130.9403],[25.8464,43.0556,133.4369],[25.8434,43.0463,125.1684],[25.8372,43.0378,204.9759],[25.8312,43.0339,145.6027],[25.8221,43.0322,119.1418],[25.7995,43.0373,193.8841],[25.7945,43.0423,257.541],[25.7846,43.0483,290.0396],[25.7595,43.0472,267.812],[25.7558,43.0511,248.8975],[25.7546,43.072,244.9987],[25.7329,43.0972,172.0717],[25.7255,43.1114,175.6155],[25.7105,43.1113,193.5289],[25.6871,43.1199,161.3569],[25.6589,43.1247,372.7554],[25.6487,43.1299,259.7727],[25.6455,43.1346,152.9291],[25.6475,43.1474,95.9003],[25.6459,43.153,105.1664],[25.6385,43.1721,95.5261],[25.6247,43.1897,72.5539],[25.6232,43.2004,56.1555],[25.633,43.2189,70.0101],[25.6499,43.2335,106.1121],[25.6552,43.243899999999996,71.7227],[25.6572,43.2562,48.1391],[25.6563,43.2666,46.5288],[25.6516,43.2733,45.2747],[25.647,43.2755,44.7161],[25.6332,43.2738,95.6268],[25.6131,43.2672,158.646],[25.602,43.2661,186.2044],[25.5627,43.2677,190.7482],[25.5543,43.2706,184.4796],[25.5462,43.2756,191.3191],[25.5466,43.2658,208.3716],[25.5452,43.2575,163.4952],[25.5398,43.2488,130.8698],[25.5322,43.2422,124.655],[25.5184,43.2421,161.6844],[25.511,43.2461,204.5691],[25.5044,43.2533,255.4662],[25.4999,43.2543,249.3918],[25.4851,43.251,201.8752],[25.4839,43.2466,217.5795],[25.4879,43.2397,249.4965],[25.4887,43.231,161.7915],[25.4792,43.1987,75.1811],[25.4726,43.188,79.463],[25.477,43.1704,89.8535],[25.4755,43.1639,91.415],[25.4762,43.1595,130.5947],[25.4844,43.1504,218.7373],[25.4864,43.1454,264.9186],[25.4851,43.1429,246.7863],[25.481,43.141,240.0952],[25.4578,43.1405,264.3773],[25.4508,43.1375,258.2805],[25.439,43.1275,254.8707],[25.4304,43.1225,277.2589],[25.4198,43.121,337.795],[25.4175,43.1222,312.5831],[25.4155,43.1277,256.3862],[25.416,43.1396,180.6866],[25.4146,43.1425,191.2267],[25.4074,43.1484,221.0077],[25.4015,43.1503,303.3062],[25.3953,43.1551,196.0376],[25.392,43.1565,159.3736],[25.3855,43.1562,163.0173],[25.3692,43.14,283.1143],[25.3535,43.1355,254.529],[25.3505,43.1333,235.0543],[25.3514,43.1222,323.0674],[25.3416,43.1135,327.5388],[25.3461,43.0953,372.6042],[25.3348,43.0742,344.955],[25.3326,43.0672,380.4674],[25.333,43.0629,384.9914],[25.3378,43.056,442.5175],[25.3437,43.0528,347.1663],[25.3768,43.0524,372.5873],[25.3895,43.056,434.7212],[25.4142,43.0554,397.8247],[25.4192,43.054,377.5177],[25.4277,43.0439,283.898],[25.4359,43.0388,331.847],[25.4477,43.0394,343.4833],[25.4748,43.0458,411.0659],[25.4975,43.0462,429.6551],[25.5087,43.0368,354.8164],[25.517,43.0341,289.3649],[25.5364,43.0375,267.2606],[25.5446,43.0373,302.3234],[25.5523,43.0323,164.7262],[25.5612,43.0224,460.4764],[25.5688,43.0182,353.6625],[25.6049,43.0161,242.8715],[25.6139,43.0133,222.2468],[25.6211,43.0038,256.3742],[25.622,42.9995,243.9724],[25.6213,42.9936,191.7912],[25.6165,42.9823,191.1229],[25.589,42.9652,421.8316],[25.5778,42.9613,489.0146],[25.5767,42.9584,545.0878],[25.5765,42.9552,535.2544],[25.5807,42.9486,430.7372],[25.5824,42.9402,465.7307],[25.5754,42.9317,355.4141],[25.5751,42.9291,336.0346],[25.5905,42.9142,616.3795],[25.5955,42.9117,612.8186]]]]}}