{"type":"Feature","properties":{"GID_2":"BGR.21.3_1","GID_0":"BGR","country":"Bulgaria","GID_1":"BGR.21_1","state":"Sofia","NL_NAME_1":"Sofija","county":"Bozhurishte","VARNAME_2":"NA","NL_NAME_2":"Божурище","TYPE_2":"Obshtina","ENGTYPE_2":"Municipality","CC_2":"NA","HASC_2":"BG.SF.BZ","name":"Bozhurishte.county"},
"geometry":{"type": "MultiPolygon","coordinates": [[[[23.2232,42.7658,539.7772],[23.2111,42.7673,544.9371],[23.2078,42.7695,546.1111],[23.1823,42.7944,556.7211],[23.1682,42.8039,556.7988],[23.1583,42.8065,563.9684],[23.1404,42.8043,577.1597],[23.1308,42.806399999999996,584.6707],[23.1,42.8322,562.7958],[23.0915,42.8199,589.9648],[23.0856,42.8163,613.7915],[23.0601,42.8107,700.1308],[23.0428,42.7944,783.9677],[23.0351,42.7849,820.9642],[23.0161,42.7789,859.4084],[22.9892,42.7674,827.1697],[22.9848,42.7634,843.3414],[22.9807,42.7621,823.0671],[22.9845,42.7556,892.6009],[22.9979,42.7423,773.0308],[23.0243,42.7436,796.1699],[23.0317,42.7421,746.263],[23.0367,42.7352,807.5191],[23.0388,42.7229,870.2366],[23.051,42.7268,854.1049],[23.0859,42.7267,831.9904],[23.1563,42.7215,651.5927],[23.178,42.7238,621.0274],[23.194,42.7296,593.923],[23.226,42.732,564.3296],[23.2313,42.7372,556.7417],[23.2311,42.7413,553.9062],[23.2207,42.7557,545.1157],[23.2197,42.7611,544.6238],[23.2232,42.7658,539.7772]]]]}}