{"type": "Feature","id": "2254","bbox": [26.49898,41.90116,28.02036,42.98841],"geometry": {"type": "Polygon","coordinates": [[[27.4952,42.87568,376.5785],[27.4458,42.88374,200.2567],[27.40012,42.90389,247.5262],[27.37676,42.90583,377.9433],[27.35536,42.91144,412.6368],[27.32415,42.94833,276.0739],[27.28488,42.97671,184.1295],[27.23651,42.98841,401.274],[27.17677,42.96301,332.6339],[27.1191,42.95366,490.5637],[27.07207,42.93839,602.0823],[27.0237,42.9288,643.1595],[26.98154,42.94022,455.5367],[26.94195,42.93898,488.9791],[26.90919,42.93399,554.9587],[26.87756,42.9496,619.2817],[26.82082,42.94611,728.9477],[26.80098,42.94691,636.3489],[26.78382,42.9387,562.8776],[26.76233,42.90839,607.0964],[26.72874,42.89423,702.7375],[26.68967,42.88891,761.8851],[26.65463,42.89997,685.6785],[26.65546,42.92219,745.2281],[26.64523,42.93717,545.9257],[26.57236,42.92376,1000.5522],[26.57577,42.904,811.0401],[26.56637,42.88113,654.0668],[26.58073,42.85434,588.7969],[26.59231,42.82863,450.1652],[26.57743,42.81403,516.7327],[26.57319,42.79553,388.7164],[26.57825,42.77059,478.7062],[26.55531,42.75548,836.1401],[26.52399,42.7469,785.7237],[26.49898,42.73011,700.6388],[26.51283,42.70419,553.5969],[26.54446,42.69662,592.9158],[26.56885,42.68497,540.9052],[26.59314,42.67559,441.5718],[26.62766,42.68321,313.882],[26.66083,42.69584,298.9918],[26.71943,42.68918,399.0476],[26.75747,42.63422,139.7611],[26.76553,42.60639,138.5249],[26.77762,42.58099,150.8105],[26.79075,42.57223,150.2248],[26.79798,42.559,142.9621],[26.79995,42.54624,148.9328],[26.80852,42.53699,171.2836],[26.8478,42.50102,250.6188],[26.86919,42.49177,225.0095],[26.87002,42.47146,188.2176],[26.96056,42.42191,75.0475],[26.96872,42.40408,147.4889],[26.97968,42.38718,132.0263],[27.00903,42.37953,69.3652],[27.04014,42.37914,68.4669],[27.07032,42.36491,61.3843],[27.08954,42.33731,51.5587],[27.08334,42.30602,224.3948],[27.05006,42.29176,100.4648],[27.03662,42.27453,161.762],[27.03662,42.25135,260.1336],[27.03993,42.23409,277.2681],[27.02939,42.21357,327.4283],[27.01988,42.18445,313.4563],[27.03394,42.15743,236.1972],[27.05492,42.13032,333.8689],[27.04706,42.09348,441.7752],[27.04789,42.08309,495.3255],[27.0479,42.08292,495.3255],[27.06551,42.0827,532.2662],[27.0837,42.07841,486.1864],[27.10065,42.0711,566.1622],[27.11605,42.06183,545.0084],[27.12721,42.06258,547.9171],[27.14959,42.06183,628.152],[27.17382,42.05707,606.393],[27.17816,42.05836,631.9752],[27.17899,42.06188,646.3378],[27.18158,42.06588,653.5456],[27.2038,42.08813,487.8992],[27.21641,42.09562,531.5775],[27.23821,42.09792,512.2094],[27.27335,42.09175,445.4906],[27.30529,42.07759,336.523],[27.33247,42.05743,314.0165],[27.37485,42.0087,484.832],[27.39686,41.98932,590.3691],[27.42084,41.97372,642.2216],[27.49432,41.94284,492.5651],[27.50946,41.93318,459.7331],[27.53318,41.90806,353.2744],[27.54641,41.90116,364.5184],[27.56274,41.90644,316.3887],[27.54889,41.91088,352.2067],[27.55127,41.9131,307.6606],[27.55747,41.9155,425.3019],[27.56067,41.91768,316.7202],[27.55794,41.91907,403.9877],[27.55489,41.92034,423.6964],[27.5521,41.92184,438.905],[27.55075,41.92421,424.5597],[27.5722,41.92984,316.8706],[27.58238,41.93488,311.7161],[27.59054,41.94289,283.2386],[27.59809,41.9386,297.1873],[27.60336,41.93863,342.4078],[27.60687,41.94351,255.4062],[27.6093,41.95349,313.6702],[27.68707,41.9686,243.3952],[27.72397,41.96759,257.7545],[27.77616,41.94612,224.5538],[27.78981,41.94269,170.866],[27.80283,41.94307,213.3808],[27.81534,41.94679,135.8702],[27.81828,41.95287,84.771],[27.80273,41.96005,225.4255],[27.8049,41.96989,235.0659],[27.80495,41.98343,197.2567],[27.808,41.99348,203.6154],[27.81192,41.9947,190.0786],[27.81596,41.99514,155.5136],[27.81993,41.9947,114.7559],[27.82402,41.99348,34.1709],[27.84303,41.99576,160.9237],[27.85223,41.99545,26.6394],[27.87693,41.99072,82.6071],[27.90339,41.98106,63.6399],[27.91703,41.9779,31.0374],[27.96592,41.98214,76.6543],[27.98101,41.97852,103.5514],[28.01678,41.97253,45.4932],[28.01677,41.97256,45.4932],[28.01385,41.98265,37.3103],[28.02036,41.99457,62.099],[28.01905,42.00845,22.7475],[28.01157,42.02139,4.5498],[28.00017,42.03046,43.9303],[28.00343,42.03148,28.9439],[28.00611,42.03156,26.3959],[28.00758,42.0329,4.7261],[28.00701,42.03791,0.0],[27.99692,42.04401,26.1601],[27.98732,42.05174,32.8561],[27.98243,42.0611,24.4817],[27.98658,42.07209,0.0],[27.97267,42.07538,0.0],[27.96437,42.08462,0.0],[27.95777,42.09431,0.0],[27.90398,42.11982,15.7865],[27.88673,42.14737,0.0],[27.87908,42.15424,0.0],[27.84938,42.16706,7.6853],[27.85141,42.17011,9.866],[27.85418,42.17792,0.0],[27.85621,42.1813,0.0],[27.8449,42.1861,3.5989],[27.83139,42.19501,0.0],[27.82,42.20466,0.0],[27.81528,42.21198,0.0],[27.80974,42.21841,0.0],[27.77369,42.23591,18.3779],[27.77565,42.23965,18.2079],[27.77605,42.24067,14.9333],[27.78045,42.24335,0.0],[27.75587,42.25849,0.0],[27.75115,42.27704,1.4967],[27.76295,42.2956,48.7122],[27.78785,42.31098,8.8232],[27.77914,42.31631,37.8994],[27.77442,42.32172,0.0],[27.77459,42.32722,49.008],[27.78045,42.33271,48.2725],[27.78045,42.33893,0.0],[27.7645,42.33832,0.0],[27.75213,42.33539,0.0],[27.74041,42.3343,0.0],[27.72584,42.33893,48.5316],[27.71437,42.34919,3.2482],[27.70834,42.3631,0.5],[27.70948,42.37678,51.4401],[27.719,42.3867,0.0],[27.70965,42.38813,0.0],[27.70541,42.39061,2.78],[27.69801,42.40038,45.3254],[27.71323,42.40595,18.0225],[27.719,42.40721,14.7675],[27.719,42.4147,0.0],[27.70786,42.41275,0.0],[27.69907,42.41389,6.9425],[27.69353,42.41889,11.3957],[27.69166,42.42829,0.0],[27.66774,42.41608,0.0],[27.65219,42.41852,0.0],[27.64243,42.43089,14.897],[27.63649,42.44819,14.9265],[27.63982,42.44977,0.3835],[27.64177,42.44953,8.3463],[27.64283,42.45051,0.0],[27.64332,42.45563,0.0],[27.62941,42.45864,6.8742],[27.61948,42.45588,0.0],[27.60963,42.45116,0.0],[27.59555,42.44819,13.9494],[27.58774,42.45148,19.0309],[27.5796,42.45722,0.0],[27.57106,42.45848,0.0],[27.56202,42.44819,0.0],[27.54444,42.46003,0.0],[27.53443,42.45527,0.0],[27.52638,42.44367,0.0],[27.51417,42.43513,0.0],[27.50392,42.43732,18.5227],[27.47267,42.46186,0.0],[27.46567,42.44135,0.3153],[27.46941,42.4372,0.0],[27.4699,42.43708,0.0],[27.46844,42.43578,0.0],[27.46567,42.42829,1.7734],[27.46111,42.44355,0.6609],[27.46209,42.44872,0.3415],[27.46567,42.45563,0.0],[27.45338,42.46524,0.0],[27.45289,42.48013,0.0],[27.46225,42.48957,3.7138],[27.48015,42.4829,0.0],[27.49147,42.50776,0.0],[27.49855,42.53246,0.0],[27.51149,42.55305,6.2435],[27.54086,42.5655,39.2165],[27.63404,42.56371,3.4368],[27.65016,42.55805,0.0],[27.64145,42.57477,0.0],[27.63038,42.60273,0.0],[27.62843,42.62897,5.223],[27.64674,42.64057,7.6561],[27.6692,42.6437,26.7285],[27.71274,42.65766,12.2005],[27.73951,42.66108,0.0],[27.72413,42.66698,0.0],[27.71697,42.67451,0.0],[27.71583,42.68374,0.0],[27.719,42.69457,0.0],[27.7256,42.70848,4.8901],[27.73268,42.7145,67.2476],[27.74317,42.71605,51.4548],[27.78736,42.71516,228.3083],[27.84108,42.70832,60.0854],[27.89226,42.71052,100.0672],[27.8947,42.71747,123.4182],[27.89715,42.73623,0.0],[27.89715,42.784,0.0],[27.89161,42.81037,0.0],[27.88356,42.83194,0.0],[27.88395,42.8479,24.1685],[27.88391,42.8479,24.1685],[27.87688,42.8478,50.3856],[27.8528,42.84074,38.5147],[27.83151,42.82659,13.0835],[27.80185,42.82206,67.613],[27.7727,42.83041,109.4794],[27.7448,42.84108,82.7685],[27.71886,42.85496,64.2748],[27.69736,42.87514,53.9896],[27.67328,42.89178,133.7259],[27.64765,42.90322,146.4914],[27.62057,42.9094,158.2174],[27.58315,42.89198,208.9229],[27.4952,42.87568,376.5785]]]}
,"properties": {"ISO3166-1-Alpha-3": "BGR","country": "Bulgaria","fill": "#F0F","name": "Burgas","area_km2": 7636.767,"hist_schema_id": "Elevation0-9000","hist_area_km2": {"0": 356.482,"25": 467.176,"50": 458.058,"75": 448.691,"100": 419.652,"125": 379.259,"150": 461.923,"175": 515.067,"200": 534.54,"225": 496.77,"250": 463.442,"275": 414.382,"300": 384.264,"325": 361.682,"350": 315.26,"375": 238.152,"400": 197.201,"425": 164.512,"450": 133.684,"475": 95.365,"500": 68.919,"525": 53.76,"550": 43.263,"575": 39.669,"600": 32.929,"625": 24.589,"650": 16.737,"675": 10.917,"700": 8.328,"725": 7.146,"750": 5.856,"775": 4.816,"800": 4.412,"825": 3.48,"850": 2.082,"875": 1.414,"900": 0.808,"925": 0.497,"950": 0.606,"975": 0.481,"1000": 0.357,"1025": 0.109}}}