{"type":"Feature","properties":{"GID_1":"BGR.2_1","GID_0":"BGR","country":"Bulgaria","state":"Burgas","VARNAME_1":"Bourgas","NL_NAME_1":"Бургас","TYPE_1":"Oblast","ENGTYPE_1":"Province","CC_1":"NA","HASC_1":"BG.BR","ISO_1":"BG-02","name":"Burgas.state"},
"geometry":{"type": "MultiPolygon","coordinates": [[[[27.7435,42.3288,0.0],[27.7388,42.3282,3.4464],[27.7299,42.3357,1.5464],[27.7313,42.3401,0.0],[27.729,42.3404,21.5825],[27.729,42.3435,5.4635],[27.7304,42.3451,0.0],[27.7254,42.3446,14.4464],[27.724,42.3471,1.4594],[27.7224,42.3468,7.4038],[27.7224,42.3488,0.6185],[27.7082,42.3662,1.0499],[27.7082,42.369,2.9038],[27.7107,42.3721,7.1122],[27.7126,42.3721,7.1122],[27.7129,42.3707,0.4568],[27.716,42.3718,0.0],[27.7171,42.376,4.981],[27.7221,42.3768,0.0],[27.724,42.379,1.1446],[27.7174,42.3824,0.0],[27.7088,42.3832,11.7211],[27.7071,42.3851,5.236],[27.706,42.3946,3.9744],[27.7101,42.4004,3.079],[27.7249,42.3999,2.7301],[27.7265,42.4035,9.6211],[27.7299,42.4043,0.0],[27.7282,42.4063,0.9321],[27.7296,42.4101,0.0],[27.7196,42.409,0.0],[27.7179,42.4101,4.4732],[27.7165,42.4085,20.7936],[27.7146,42.4087,0.0],[27.7135,42.4063,18.0225],[27.7121,42.4079,1.9863],[27.7051,42.409,1.2418],[27.6999,42.4146,6.9425],[27.7032,42.4196,0.0],[27.6999,42.4204,9.5064],[27.6965,42.419,0.0],[27.6946,42.4212,0.0],[27.6971,42.424,11.0665],[27.7013,42.4251,0.0],[27.6988,42.4271,0.0],[27.6876,42.4257,0.0],[27.6882,42.4224,0.6921],[27.6904,42.4226,0.0],[27.6924,42.426,0.471],[27.6938,42.4251,5.1663],[27.691,42.4232,0.0],[27.6918,42.4204,0.9683],[27.6876,42.4201,0.0],[27.6893,42.4182,0.0],[27.686,42.416,6.5728],[27.6857,42.414,0.0],[27.6776,42.4132,1.2543],[27.6746,42.409,1.0485],[27.6682,42.4087,2.5234],[27.6593,42.411,1.0194],[27.6476,42.4182,4.3373],[27.6437,42.4246,3.1568],[27.6451,42.4279,1.6158],[27.6443,42.4301,7.7014],[27.6521,42.4315,3.3796],[27.6543,42.4293,2.5373],[27.6563,42.4307,4.1562],[27.6526,42.4326,2.8552],[27.6537,42.436,0.0],[27.6468,42.4388,17.2355],[27.6479,42.4413,12.5895],[27.6499,42.441,0.0],[27.6524,42.4435,0.0],[27.6501,42.4443,0.0],[27.6499,42.4463,0.4778],[27.6518,42.451,0.0],[27.6415,42.4501,8.3463],[27.6393,42.4476,8.7541],[27.6346,42.449,0.0],[27.6338,42.4499,17.0924],[27.6354,42.4521,0.0],[27.6293,42.456,7.0986],[27.6285,42.4576,6.8742],[27.6304,42.4596,0.0],[27.6282,42.4596,0.0],[27.6262,42.4579,0.0],[27.6279,42.4515,0.9242],[27.6254,42.4499,0.804],[27.6254,42.4463,4.8724],[27.6151,42.444,0.0],[27.6068,42.4451,4.4062],[27.6001,42.4485,1.3185],[27.5943,42.4535,4.5074],[27.594,42.4557,0.0],[27.5868,42.459,21.6855],[27.5876,42.4624,0.0],[27.5854,42.4635,9.2627],[27.5832,42.4624,3.3116],[27.5815,42.4562,11.3489],[27.5743,42.4529,0.0],[27.5751,42.4518,0.0],[27.5796,42.4526,0.6167],[27.5824,42.4468,2.0194],[27.5713,42.4446,6.1073],[27.5632,42.4457,2.8726],[27.5493,42.4521,5.5879],[27.5462,42.4554,5.814],[27.5432,42.4549,23.5404],[27.5393,42.4574,0.0],[27.5346,42.4529,0.0],[27.5385,42.4476,2.0237],[27.5312,42.4451,0.0],[27.5287,42.4407,0.642],[27.529,42.4376,0.0],[27.5229,42.4338,0.0],[27.5226,42.4307,1.2398],[27.5107,42.4285,1.2722],[27.5085,42.4301,5.5198],[27.5104,42.4343,0.3768],[27.509,42.4379,0.0],[27.5029,42.4399,3.9456],[27.4979,42.4446,6.477],[27.4954,42.4443,4.4443],[27.4901,42.4476,4.0894],[27.4815,42.4565,7.2358],[27.4796,42.4621,0.0],[27.4735,42.4582,0.0],[27.4749,42.4562,7.8442],[27.4718,42.4529,0.0],[27.4749,42.4501,4.8682],[27.4674,42.446,0.0992],[27.464,42.4496,0.1135],[27.461,42.4482,0.6711],[27.4615,42.4501,0.3674],[27.4579,42.4496,0.3327],[27.4554,42.4526,1.1303],[27.4518,42.4532,1.3814],[27.4524,42.4571,0.0],[27.449,42.4568,2.1648],[27.4482,42.4588,0.0],[27.4438,42.4607,0.9527],[27.4499,42.4626,0.0],[27.4468,42.4679,3.416],[27.4465,42.4765,2.4647],[27.4513,42.479,1.6464],[27.4521,42.4815,0.0],[27.4499,42.4829,0.3384],[27.4526,42.4832,0.0],[27.4551,42.4863,0.6183],[27.4568,42.486,0.0],[27.4551,42.4843,0.0],[27.456,42.4821,1.3473],[27.4613,42.481,1.0148],[27.4638,42.4846,0.0],[27.4635,42.4882,2.892],[27.466,42.4882,2.1192],[27.4718,42.4829,2.2876],[27.4793,42.4829,0.0],[27.4796,42.4843,0.4043],[27.4726,42.4868,0.0],[27.4796,42.4879,0.0],[27.4815,42.4863,0.0],[27.4815,42.4832,0.0],[27.4837,42.4821,0.3259],[27.4837,42.4868,0.0],[27.4815,42.4899,5.5979],[27.484,42.4951,0.9025],[27.4835,42.5054,2.6088],[27.4862,42.5215,0.1323],[27.4876,42.5215,0.7683],[27.4915,42.5307,0.4862],[27.4951,42.5335,0.0],[27.5004,42.5424,10.2098],[27.5093,42.5515,1.5422],[27.5232,42.5582,13.3598],[27.5326,42.5596,8.3551],[27.5404,42.5588,15.9986],[27.551,42.5529,0.0],[27.5593,42.5504,0.0],[27.5671,42.5526,1.8887],[27.5763,42.5621,2.9557],[27.584,42.5649,1.2225],[27.5888,42.5651,2.0659],[27.5957,42.5629,12.8522],[27.6004,42.5576,1.3911],[27.606,42.5635,0.0],[27.6162,42.5649,0.0],[27.6346,42.5599,2.6335],[27.6421,42.554,5.3448],[27.6399,42.5507,0.0],[27.6424,42.5526,0.7428],[27.646,42.5521,6.7304],[27.651,42.5546,0.0],[27.6354,42.5726,0.9042],[27.6324,42.5849,0.358],[27.631,42.6076,0.0],[27.6338,42.6218,0.8033],[27.6374,42.6299,2.774],[27.6449,42.6382,2.2181],[27.6482,42.6393,6.5562],[27.6549,42.636,1.1021],[27.6632,42.6393,9.7612],[27.6674,42.6376,7.3863],[27.6751,42.6379,4.9016],[27.6768,42.6374,9.5328],[27.6771,42.6351,0.0],[27.6849,42.6457,2.4686],[27.6893,42.6499,2.5982],[27.6918,42.6499,0.0],[27.6918,42.6521,7.2896],[27.6993,42.6518,0.0],[27.7107,42.646,1.33],[27.7124,42.6512,8.8176],[27.7179,42.6568,2.4865],[27.7224,42.6582,1.0605],[27.7262,42.6574,0.0],[27.7262,42.6587,0.0],[27.7285,42.659,0.3107],[27.7304,42.6568,0.42],[27.7299,42.6543,0.0],[27.7313,42.6543,0.0],[27.7343,42.6574,11.9532],[27.741,42.6587,0.0],[27.7415,42.6599,0.0],[27.7393,42.6615,3.9951],[27.7324,42.661,0.0],[27.7304,42.659,1.4645],[27.724,42.6604,14.9237],[27.7201,42.6651,2.2584],[27.7138,42.6671,1.415],[27.7118,42.671,1.9172],[27.7129,42.6879,0.0],[27.7135,42.6904,1.0627],[27.7154,42.6912,0.0],[27.714,42.6937,3.6243],[27.721,42.7018,0.0],[27.7213,42.704,3.8987],[27.7265,42.7082,4.8901],[27.7343,42.7096,4.4506],[27.7396,42.7068,0.0],[27.7465,42.7088,11.3344],[27.7515,42.7074,2.8657],[27.7657,42.7082,6.1135],[27.7757,42.7051,0.0],[27.7929,42.7035,8.8258],[27.7932,42.7021,13.5736],[27.8051,42.7035,0.0],[27.8082,42.7007,2.64],[27.8121,42.7012,0.0],[27.8154,42.7038,32.2776],[27.8229,42.7046,8.7412],[27.8401,42.7004,0.0],[27.8721,42.7001,0.0],[27.876,42.7012,9.4547],[27.8924,42.6974,10.3717],[27.9001,42.7001,0.0],[27.9013,42.7021,3.4792],[27.8999,42.7057,45.2722],[27.9024,42.7132,0.0],[27.9015,42.7188,15.7569],[27.8932,42.7343,47.568],[27.8885,42.7526,2.6817],[27.8926,42.7557,0.0],[27.8943,42.7624,0.0],[27.8976,42.7632,0.0],[27.9007,42.7663,3.5538],[27.901,42.7721,2.1825],[27.8985,42.7754,8.717],[27.8971,42.7796,15.7129],[27.8979,42.7821,0.0],[27.8913,42.7965,22.0403],[27.8826,42.8337,4.0805],[27.8453,42.8345,14.1728],[27.8153,42.8236,52.4405],[27.7857,42.8196,82.6329],[27.7776,42.8211,112.5465],[27.7749,42.8266,139.1848],[27.7691,42.8314,109.615],[27.7589,42.8342,104.7362],[27.7454,42.8336,162.2876],[27.7329,42.8441,109.2638],[27.7274,42.8461,76.3786],[27.7049,42.8656,42.6414],[27.7057,42.8701,38.7871],[27.7117,42.8765,76.6062],[27.7117,42.88,104.9859],[27.7066,42.8859,101.4138],[27.7007,42.8894,152.2307],[27.6952,42.8903,120.9153],[27.6057,42.9011,123.0045],[27.5794,42.9005,155.613],[27.5598,42.8975,164.0421],[27.5349,42.8848,312.2181],[27.528199999999998,42.8835,408.0857],[27.5198,42.8842,346.0785],[27.5122,42.8937,286.0971],[27.5061,42.8954,319.1579],[27.468,42.8911,268.6414],[27.4579,42.8917,302.1212],[27.4292,42.9057,395.9903],[27.4177,42.9138,184.2535],[27.408,42.9241,242.5741],[27.4005,42.9263,260.6096],[27.3909,42.933,404.299],[27.371,42.9412,144.0524],[27.36,42.9562,348.2037],[27.3458,42.9663,178.7506],[27.3,42.9754,58.5],[27.2401,42.9801,320.7535],[27.2143,42.9786,283.7587],[27.1977,42.9719,205.9212],[27.1874,42.9639,295.2417],[27.1597,42.9509,506.1656],[27.149,42.9476,430.6333],[27.1367,42.946,518.6265],[27.1232,42.9473,496.8685],[27.1013,42.9447,394.1003],[27.0454,42.9201,559.6399],[27.0346,42.9169,563.631],[27.0223,42.9158,630.4716],[27.0154,42.924,613.1564],[27.0058,42.9271,575.1626],[26.9996,42.9325,588.3342],[26.9889,42.9466,608.3182],[26.9733,42.9457,383.2726],[26.9607,42.9413,521.3123],[26.9468,42.9433,476.4504],[26.9243,42.9363,458.3427],[26.9104,42.9377,454.1389],[26.8929,42.9456,642.4463],[26.8744,42.95,664.867],[26.8549,42.9482,520.0615],[26.8497,42.9429,663.7673],[26.8311,42.9428,779.5126],[26.8134,42.9467,703.9333],[26.8004,42.947,636.3489],[26.7824,42.9435,570.8462],[26.7593,42.9266,566.4957],[26.728,42.9101,602.2062],[26.7183,42.9088,578.6178],[26.6775,42.9112,706.0761],[26.6492,42.9068,817.0156],[26.6455,42.9074,815.4393],[26.6404,42.9132,716.5191],[26.6411,42.9197,736.5305],[26.6489,42.9352,643.7676],[26.643,42.9396,534.5822],[26.6033,42.9427,580.0969],[26.5858,42.9398,799.6239],[26.5803,42.9361,638.9891],[26.58,42.9288,729.2474],[26.5851,42.9279,782.16],[26.5863,42.9222,1007.17],[26.5768,42.9076,824.5923],[26.5761,42.8948,727.0875],[26.5963,42.8661,447.215],[26.5989,42.8547,488.7721],[26.5966,42.8464,436.2989],[26.5867,42.8357,403.113],[26.5819,42.8275,430.3273],[26.5811,42.8213,484.996],[26.5841,42.8107,495.6288],[26.5914,42.8006,406.3054],[26.598,42.7962,436.9592],[26.6054,42.7944,425.4989],[26.6403,42.7937,364.7656],[26.6451,42.7908,422.7121],[26.6516,42.7827,424.1365],[26.6619,42.78,455.8917],[26.6692,42.7674,475.774],[26.6743,42.7619,357.643],[26.7069,42.7397,213.5789],[26.7094,42.7354,221.9887],[26.7091,42.7277,249.1943],[26.7051,42.7189,286.0299],[26.6988,42.713,262.333],[26.7115,42.7072,334.5504],[26.7166,42.7031,347.7065],[26.7327,42.6857,429.3967],[26.743,42.6717,404.1956],[26.7505,42.6669,351.5358],[26.7503,42.6641,350.319],[26.7532,42.66,290.0258],[26.7599,42.6552,224.5304],[26.7703,42.6422,158.3629],[26.7899,42.6237,138.2194],[26.7921,42.6179,138.6098],[26.792,42.6057,142.9915],[26.7972,42.5946,152.227],[26.8001,42.5806,152.9377],[26.8069,42.5688,147.0031],[26.825,42.5438,166.5665],[26.8356,42.5341,183.2427],[26.846,42.5122,213.0195],[26.852,42.505,233.1806],[26.8696,42.4985,242.0322],[26.8726,42.4955,247.072],[26.8723,42.4758,203.7478],[26.8737,42.4659,182.5133],[26.8744,42.4624,173.0084],[26.8796,42.4546,160.5641],[26.8841,42.4516,149.975],[26.8918,42.4501,148.0536],[26.9269,42.4529,157.6741],[26.9398,42.4513,156.7986],[26.9518,42.4399,126.4996],[26.9584,42.427,100.77],[26.9639,42.4221,93.7081],[26.9483,42.4122,177.5597],[26.9391,42.4084,176.1886],[26.8788,42.4012,215.9412],[26.8697,42.3998,210.5454],[26.8622,42.3966,229.6443],[26.8583,42.3903,238.1142],[26.8583,42.3862,235.974],[26.8626,42.3617,250.78809999999999],[26.8648,42.3569,246.6517],[26.8685,42.3539,234.9847],[26.8888,42.3462,212.7234],[26.9045,42.3364,232.2372],[26.9156,42.3209,215.8044],[26.9177,42.3075,199.1402],[26.9266,42.295,176.2723],[26.9334,42.2914,141.7781],[26.9516,42.2875,131.6128],[26.9606,42.2873,143.9558],[26.9629,42.2843,133.122],[26.9589,42.271,115.5766],[26.9429,42.2591,171.9822],[26.9358,42.2423,154.9491],[26.9386,42.2347,239.1409],[26.9489,42.2239,261.1506],[26.9638,42.2161,307.3866],[26.9675,42.2126,331.4849],[26.9697,42.2069,311.5537],[26.9688,42.2017,308.5612],[26.9589,42.1949,305.6831],[26.9483,42.191,300.381],[26.9444,42.187,285.3656],[26.9428,42.1812,277.3447],[26.9427,42.1755,288.2151],[26.9451,42.1692,303.6564],[26.9434,42.1591,392.52],[26.9442,42.1519,394.4188],[26.9555,42.133,342.9891],[26.9667,42.1241,342.3652],[26.9826,42.1177,356.3606],[26.9909,42.1152,340.3691],[27.0316,42.1098,352.4524],[27.037,42.1071,368.9705],[27.0437,42.1025,383.1127],[27.0462,42.0976,408.6075],[27.0426,42.0888,506.714],[27.0385,42.0838,500.1762],[27.0509,42.0839,501.163],[27.0605,42.087,535.8636],[27.0697,42.0923,617.6433],[27.0777,42.0943,539.479],[27.1029,42.09,540.5151],[27.1142,42.0902,534.1741],[27.1239,42.0869,485.6405],[27.1397,42.0751,507.2653],[27.1485,42.0723,555.0513],[27.1716,42.0701,618.0739],[27.1824,42.0742,579.2501],[27.1864,42.0742,558.0526],[27.2033,42.065,634.9246],[27.2095,42.0649,616.7483],[27.2126,42.0696,566.7762],[27.2093,42.0742,569.6313],[27.2074,42.0811,536.1302],[27.208,42.084,560.8093],[27.2217,42.0897,482.7263],[27.2298,42.1011,523.0021],[27.2481,42.1067,472.6456],[27.2628,42.1035,492.9933],[27.2719,42.1063,488.4347],[27.2757,42.1051,471.369],[27.2857,42.099,457.4528],[27.2987,42.0964,425.8811],[27.3095,42.0904,425.9865],[27.3294,42.0841,365.6661],[27.3356,42.0781,279.2834],[27.3387,42.0716,322.9269],[27.3396,42.0657,300.0822],[27.3381,42.064,279.4742],[27.3396,42.0622,317.7744],[27.3548,42.0607,384.3267],[27.3647,42.0581,416.3073],[27.3716,42.0544,390.7486],[27.3769,42.0495,429.1862],[27.3842,42.0344,463.4441],[27.387,42.0248,492.7798],[27.3943,42.0133,586.7633],[27.4108,41.9998,556.0904],[27.4159,41.9901,457.8781],[27.4197,41.9889,466.506],[27.4282,41.9899,529.2583],[27.4319,41.9869,536.739],[27.4361,41.9748,649.803],[27.4414,41.9699,642.7007],[27.4528,41.9685,623.1022],[27.4605,41.9696,662.7186],[27.4635,41.9683,645.0026],[27.4709,41.9592,518.3641],[27.4807,41.9524,561.8984],[27.4899,41.9511,479.8355],[27.5053,41.9532,440.482],[27.509,41.9507,410.6175],[27.5216,41.9367,383.2425],[27.5354,41.9131,442.0815],[27.5514,41.8996,330.7037],[27.5639,41.9014,337.4434],[27.5674,41.9063,310.901],[27.5654,41.9103,336.38],[27.5574,41.9122,380.7786],[27.5574,41.9136,380.7786],[27.569,41.9178,292.458],[27.5686,41.9204,288.5482],[27.5608,41.922,332.2417],[27.5687,41.9315,281.9676],[27.5686,41.9366,351.1584],[27.5716,41.9366,293.1957],[27.5774,41.9315,347.8775],[27.5807,41.9309,353.7045],[27.5969,41.9442,288.2597],[27.6023,41.9424,286.7051],[27.6026,41.9361,321.1748],[27.6081,41.9376,265.5758],[27.6226,41.9452,258.543],[27.6147,41.9509,271.866],[27.6141,41.9532,298.7325],[27.6166,41.9543,316.9927],[27.625,41.9518,244.0422],[27.6323,41.9544,241.0527],[27.634,41.9504,355.3605],[27.6429,41.9554,232.7925],[27.6496,41.9566,296.7138],[27.6512,41.9521,311.2702],[27.6536,41.9516,314.0409],[27.6632,41.9577,213.59],[27.6654,41.9522,246.8938],[27.6685,41.9526,231.4479],[27.6704,41.9575,204.8472],[27.6738,41.9584,273.3322],[27.6761,41.9649,219.7153],[27.6813,41.9669,215.5849],[27.6936,41.9649,212.6604],[27.6961,41.9665,264.4599],[27.692,41.9709,176.4038],[27.6926,41.973,142.1183],[27.7152,41.9707,270.0712],[27.7223,41.967,295.3565],[27.7251,41.9679,219.6147],[27.7291,41.9727,117.0552],[27.7404,41.9677,179.8896],[27.7349,41.9625,278.9685],[27.7375,41.9603,331.1081],[27.7541,41.9598,266.3051],[27.7636,41.9546,293.5634],[27.7701,41.9582,196.2799],[27.7787,41.9542,79.5907],[27.7725,41.9464,227.0728],[27.7736,41.9452,258.5219],[27.7776,41.946,210.9905],[27.7831,41.9411,237.882],[27.7947,41.9439,130.3119],[27.7986,41.9417,250.4305],[27.7994,41.9367,274.4468],[27.8025,41.9357,267.4392],[27.8053,41.9372,251.7363],[27.8065,41.9438,176.4449],[27.8144,41.9448,124.4731],[27.8164,41.9414,158.3703],[27.8202,41.941,193.8822],[27.8244,41.9423,130.3428],[27.8274,41.9454,106.8139],[27.8269,41.9514,150.677],[27.8243,41.9533,167.7766],[27.8192,41.9506,149.6031],[27.8165,41.9511,168.0382],[27.8144,41.954,83.3281],[27.8162,41.9589,181.8053],[27.8155,41.9646,186.1788],[27.8129,41.9658,228.4158],[27.8107,41.9706,159.8864],[27.813,41.9798,163.1378],[27.821,41.9867,58.8517],[27.829,41.9837,145.8986],[27.8364,41.9834,181.9456],[27.8378,41.9914,61.4663],[27.8422,41.9916,30.844],[27.8432,41.9834,178.5003],[27.8464,41.9837,172.0163],[27.8499,41.986,143.609],[27.8493,41.9949,29.8586],[27.8519,41.9966,26.6394],[27.8563,41.9961,59.3411],[27.8762,41.9851,228.4169],[27.8888,41.9842,171.4589],[27.8906,41.9819,102.1585],[27.8885,41.9761,188.1643],[27.8894,41.9738,190.4278],[27.8967,41.9689,92.9525],[27.9028,41.9686,161.943],[27.9095,41.9724,81.2727],[27.916,41.9698,61.7884],[27.9192,41.9776,18.7963],[27.9314,41.9748,57.0381],[27.9379,41.9778,52.2504],[27.9399,41.9724,171.815],[27.9574,41.9789,35.9319],[27.9606,41.9835,108.9981],[27.9653,41.9845,124.8153],[27.976,41.9769,127.4696],[27.9941,41.9763,85.7416],[28.0154,41.9787,25.9067],[28.0193,41.981,5.4502],[28.0171,41.986,9.2795],[28.0313,41.987,35.5137],[28.0347,41.9824,0.1826],[28.036,41.9829,0.0],[28.034,41.9943,0.0],[28.0224,42.004,5.2787],[28.024,42.0051,0.0],[28.0199,42.0071,0.0],[28.0215,42.0088,0.0],[28.0187,42.0112,0.0],[28.0201,42.0126,0.0],[28.0187,42.0129,0.0],[28.0176,42.0207,0.0],[28.0093,42.0224,0.0],[28.0093,42.0238,18.3593],[28.0121,42.0249,0.0],[28.0149,42.0246,0.0],[28.0157,42.0276,0.0],[28.0101,42.0332,0.0],[28.0049,42.034,0.0],[28.0035,42.0357,0.0],[28.0032,42.0368,0.0],[28.0051,42.0371,0.0],[28.0051,42.0418,0.0],[27.9982,42.0462,0.809],[27.9921,42.0462,7.1948],[27.991,42.0485,0.0],[27.9926,42.0499,0.0],[27.9907,42.0532,0.0],[27.9854,42.0535,5.6014],[27.9854,42.0551,2.1774],[27.994,42.059,0.0],[27.9918,42.0638,0.0],[27.9849,42.0646,0.2043],[27.9826,42.0624,7.3189],[27.9807,42.0654,5.1671],[27.9788,42.0643,12.0058],[27.9779,42.0662,1.0383],[27.9743,42.0657,0.0],[27.9718,42.0671,1.1796],[27.9704,42.0657,1.4043],[27.9688,42.0685,3.1073],[27.9701,42.0724,0.0],[27.9679,42.0737,1.0534],[27.9679,42.0762,0.0],[27.9626,42.0776,5.17],[27.9651,42.0835,0.0],[27.9626,42.0829,9.8917],[27.9562,42.0854,13.9557],[27.9562,42.0921,0.0],[27.9501,42.0946,3.6268],[27.9504,42.0985,0.7075],[27.9465,42.0968,16.6194],[27.944,42.0985,6.1211],[27.9454,42.1001,0.0],[27.9493,42.1004,0.0],[27.9471,42.1043,0.6774],[27.9412,42.1021,0.0],[27.9368,42.1051,0.0],[27.9351,42.1024,2.7579],[27.9321,42.1012,13.7267],[27.9249,42.1018,15.4948],[27.9229,42.106,0.0],[27.9204,42.106,23.8264],[27.9179,42.1093,4.7034],[27.9135,42.1104,27.6677],[27.914,42.116,1.6922],[27.909,42.1188,4.0595],[27.9146,42.1229,0.0],[27.9132,42.1271,0.0],[27.9088,42.1293,0.0],[27.9046,42.1287,12.0109],[27.9035,42.1346,0.0],[27.8985,42.1346,4.79],[27.9001,42.1379,0.0],[27.8962,42.1435,0.0],[27.894,42.1424,2.0213],[27.8921,42.1443,0.0],[27.8854,42.1437,21.6046],[27.8838,42.1471,0.0],[27.8762,42.1488,7.2679],[27.8757,42.1499,7.2679],[27.8787,42.1524,0.0],[27.8785,42.1554,0.0],[27.8749,42.1565,11.4948],[27.876,42.1596,0.4299],[27.8743,42.1613,1.6875],[27.8715,42.1599,9.1139],[27.8701,42.1568,11.3591],[27.8676,42.1563,11.0778],[27.8649,42.1585,3.8587],[27.8662,42.1618,5.7257],[27.8621,42.1632,7.8811],[27.8635,42.1643,0.0],[27.8626,42.166,1.0337],[27.8587,42.1632,13.9489],[27.8532,42.1654,18.7129],[27.8521,42.1665,3.6245],[27.8529,42.1696,0.0],[27.8596,42.1701,0.0],[27.8599,42.174,0.0],[27.851,42.1735,3.2343],[27.8507,42.176,0.0],[27.8529,42.1774,0.0],[27.8526,42.1787,0.0],[27.8493,42.1804,5.2438],[27.8451,42.1787,2.9616],[27.8432,42.1815,1.2684],[27.8465,42.1843,0.0],[27.8468,42.1868,0.0],[27.8438,42.1854,15.2888],[27.8429,42.1896,0.0],[27.8388,42.1879,4.9249],[27.8363,42.1888,0.0],[27.8376,42.1912,3.4575],[27.841,42.1918,0.0],[27.8418,42.1949,0.0],[27.8368,42.1935,9.4464],[27.8343,42.1957,0.0],[27.8337,42.194,3.4995],[27.8299,42.1932,9.0966],[27.8301,42.1993,0.0],[27.8282,42.1974,6.3987],[27.8246,42.1974,1.5619],[27.824,42.1993,0.0],[27.8199,42.1987,9.6768],[27.8179,42.2021,0.0],[27.8196,42.2074,0.0],[27.8143,42.2088,0.4881],[27.8135,42.2107,0.0],[27.8107,42.209,1.3667],[27.8104,42.2104,1.3667],[27.804,42.2121,0.8136],[27.8032,42.2143,0.4599],[27.8051,42.2165,0.2044],[27.7987,42.214,2.2589],[27.7971,42.2157,0.0],[27.7962,42.2143,7.8685],[27.7924,42.2149,4.0121],[27.7865,42.2196,7.0333],[27.7868,42.2224,0.0],[27.7832,42.2232,5.4813],[27.7829,42.226,0.0],[27.7787,42.226,1.8105],[27.7765,42.2282,0.8784],[27.7765,42.2318,0.0],[27.7787,42.2346,3.3121],[27.7824,42.2335,0.0],[27.7857,42.2349,1.1578],[27.7849,42.2382,0.0],[27.7812,42.2368,13.4591],[27.7785,42.2382,20.3301],[27.7779,42.2426,0.9774],[27.7751,42.2432,5.0838],[27.774,42.2451,4.0242],[27.7707,42.2449,4.4272],[27.7715,42.241,4.6497],[27.7676,42.2404,8.1308],[27.7651,42.2435,5.3977],[27.7554,42.2457,1.6578],[27.7504,42.2507,2.8573],[27.7485,42.2535,3.5304],[27.7485,42.2576,2.4343],[27.754,42.2649,0.2298],[27.7596,42.2632,0.0],[27.766,42.2651,0.8914],[27.7601,42.2685,10.0505],[27.7571,42.2732,1.8163],[27.7543,42.2729,11.1304],[27.7521,42.2788,3.0767],[27.7524,42.286,7.1481],[27.7576,42.2893,5.9361],[27.7593,42.2882,0.0],[27.7657,42.2893,1.1608],[27.7693,42.2935,0.6151],[27.7732,42.2946,0.0],[27.7738,42.2968,0.0],[27.7696,42.2993,10.3895],[27.7699,42.3007,16.9052],[27.7787,42.3018,0.0],[27.7821,42.3057,7.9465],[27.7857,42.3071,12.3404],[27.7935,42.306,1.0407],[27.7951,42.3071,0.0],[27.7868,42.3124,0.0],[27.7801,42.3135,32.5643],[27.7821,42.319,0.0],[27.7726,42.3201,19.413],[27.7824,42.3237,0.0],[27.7826,42.3251,0.8673],[27.7804,42.3262,16.5565],[27.7838,42.3282,0.0],[27.7829,42.3304,0.0],[27.7862,42.334,3.6925],[27.7849,42.3363,0.0],[27.7804,42.336,0.0],[27.7799,42.3346,19.6929],[27.7757,42.336,0.0],[27.7746,42.3329,22.197],[27.7726,42.3376,0.0],[27.7638,42.3329,10.8593],[27.7588,42.3343,0.0],[27.7565,42.3329,7.4196],[27.7557,42.3274,1.9943],[27.7524,42.3249,4.4336],[27.7435,42.3288,0.0]]],
[[[27.6954,42.4404,6.6437],[27.689,42.4407,0.0],[27.6857,42.4368,0.0],[27.6943,42.4365,0.0],[27.6971,42.4382,0.0],[27.6954,42.4404,6.6437]]]]}}