{"type": "Feature","id": 137128.0,"bbox": [27.349131706646233,42.488165594525327,27.447520378521233,42.524054266400327],"geometry": {"type": "Polygon","coordinates": [[[27.352061394146233,42.490607000775327,0.0],[27.352061394146233,42.490607000775327,0.0],[27.365733269146233,42.488165594525327,0.0],[27.373789909771233,42.494513250775327,0.0],[27.386485222271233,42.500006414837827,0.0],[27.414805534771233,42.490301824994077,0.0],[27.443003776958733,42.494574285931577,0.0],[27.447520378521233,42.514044500775327,11.3772],[27.431162956646233,42.521612860150327,19.2197],[27.413218620708733,42.522223211712827,16.065],[27.400401237896233,42.524054266400327,7.7112],[27.374522331646233,42.520636297650327,8.0267],[27.349131706646233,42.503973699994077,1.5818],[27.352061394146233,42.490607000775327,0.0]]]}
,"properties": {"name": null,"lge_id": null,"pfafstette": 211.0,"lke_type": "N","altitude": -2,"objectid": 86649,"scalerank": 12,"featurecla": "Lake","note": "_untitled_86649","funkyname": 0,"min_zoom": 7.0,"min_label": 8.0,"area_km2": 22.52317,"hist_schema_id": "Elevation0-9000","hist_area_km2": {"0": 21.80433,"25": 0.71884}}}