{"type":"Feature","properties":{"GID_2":"BGR.10.1_1","GID_0":"BGR","country":"Bulgaria","GID_1":"BGR.10_1","state":"Montana","NL_NAME_1":"Монтана","county":"Berkovitsa","VARNAME_2":"NA","NL_NAME_2":"Берковица","TYPE_2":"Obshtina","ENGTYPE_2":"Municipality","CC_2":"NA","HASC_2":"BG.MT.BE","name":"Berkovitsa.county"},
"geometry":{"type": "MultiPolygon","coordinates": [[[[23.0108,43.198,1842.4889],[23.0183,43.1981,1867.4001],[23.0263,43.1958,1800.0618],[23.0313,43.1899,1797.1213],[23.0371,43.1771,1601.4547],[23.0442,43.1705,1801.3021],[23.0654,43.1636,1712.1134],[23.087,43.1526,1589.2736],[23.0949,43.1434,1447.4216],[23.1032,43.1253,1405.5302],[23.1092,43.1184,1285.9381],[23.1192,43.1118,1384.322],[23.1276,43.1086,1398.2439],[23.1419,43.1065,1420.342],[23.2114,43.1067,1533.4189],[23.2173,43.1082,1478.8431],[23.1997,43.1187,1682.0168],[23.1894,43.1287,1693.4342],[23.1879,43.1459,1554.2771],[23.1928,43.1579,1184.9211],[23.2062,43.1747,635.9396],[23.2088,43.1895,490.0252],[23.221,43.1974,535.8804],[23.2305,43.211,387.1702],[23.245,43.2191,326.7438],[23.2447,43.225,311.9674],[23.2326,43.2335,367.2468],[23.2261,43.2406,491.1705],[23.2253,43.2459,503.3101],[23.2271,43.2512,561.7717],[23.2694,43.2718,435.7871],[23.2853,43.2772,257.866],[23.2908,43.2807,253.4456],[23.3212,43.2908,268.6745],[23.3298,43.3111,205.6753],[23.304,43.3276,258.4554],[23.2961,43.3421,193.8431],[23.2865,43.3489,211.6501],[23.2769,43.3499,236.7883],[23.2588,43.3472,276.1565],[23.2454,43.3497,280.483],[23.2122,43.3476,235.353],[23.1838,43.3563,181.7426],[23.1746,43.3608,180.5],[23.1667,43.3614,194.5383],[23.1534,43.3686,258.7779],[23.1328,43.3677,277.8282],[23.1227,43.3696,242.7804],[23.1152,43.3764,270.8406],[23.1174,43.3873,215.7871],[23.0934,43.3813,280.4032],[23.0676,43.3797,294.4531],[23.0554,43.3735,373.5889],[23.0475,43.3652,532.451],[23.0355,43.3595,686.4669],[23.0331,43.3552,520.6299],[23.0326,43.3429,632.2108],[23.023,43.3333,610.1972],[23.0159,43.3293,464.6078],[23.0151,43.3271,467.0522],[23.0153,43.3212,472.3389],[23.0221,43.3044,557.7676],[23.0252,43.2832,782.5217],[23.0195,43.2743,649.1892],[23.0043,43.2652,805.228],[23.0001,43.2584,1024.5966],[22.9994,43.2511,1104.8533],[23.002,43.2406,1066.2769],[23.005,43.2356,1281.4631],[23.0058,43.2069,1743.6887],[23.0108,43.198,1842.4889]]]]}}