{"type":"Feature","properties":{"GID_2":"BGR.6.7_1","GID_0":"BGR","country":"Bulgaria","GID_1":"BGR.6_1","state":"Haskovo","NL_NAME_1":"Хасково","county":"MineralniBani","VARNAME_2":"NA","NL_NAME_2":"NA","TYPE_2":"Obshtina","ENGTYPE_2":"Municipality","CC_2":"NA","HASC_2":"BG.KK.MB","name":"MineralniBani.county"},
"geometry":{"type": "MultiPolygon","coordinates": [[[[25.3496,41.966,249.6746],[25.3488,41.9577,240.1391],[25.3441,41.9446,288.4241],[25.3286,41.9284,414.699],[25.3181,41.9197,537.2657],[25.2926,41.9013,757.14],[25.2749,41.8919,501.204],[25.277,41.8921,584.431],[25.2719,41.884,492.7995],[25.2697,41.8745,568.362],[25.2705,41.8635,511.8676],[25.2798,41.8405,364.0806],[25.2803,41.8142,463.6364],[25.2861,41.8109,537.0421],[25.3087,41.8046,424.6694],[25.3158,41.7978,455.1967],[25.3195,41.7903,526.1192],[25.3226,41.789,503.3945],[25.3277,41.789,500.5864],[25.334,41.7928,437.6202],[25.3387,41.8075,438.2979],[25.3443,41.8118,434.6149],[25.3587,41.813,350.834],[25.3677,41.8163,317.6487],[25.3796,41.8298,274.0974],[25.3901,41.8353,265.0352],[25.3928,41.8461,247.0],[25.4129,41.8508,247.0],[25.4274,41.8595,276.9684],[25.4295,41.8616,257.3762],[25.4378,41.8818,292.2681],[25.4437,41.8868,283.85],[25.4478,41.8953,289.9572],[25.4571,41.9079,219.9024],[25.4606,41.918,228.5255],[25.4611,41.9251,250.9018],[25.4551,41.9334,233.4423],[25.4362,41.9446,268.37],[25.4309,41.9518,267.0848],[25.4297,41.9548,260.7452],[25.4328,41.9718,200.5075],[25.4289,41.9733,217.1631],[25.4305,41.9825,231.7701],[25.4288,41.9858,223.3776],[25.4206,41.9856,215.0],[25.4126,41.9808,248.8911],[25.4019,41.9778,254.755],[25.3864,41.9797,253.9246],[25.3745,41.979,253.3922],[25.3609,41.9706,298.8038],[25.3496,41.966,249.6746]]]]}}