{"type": "Feature","bbox": [22.8607,42.0404,23.1721,42.1621],"geometry": {"type": "MultiPolygon","coordinates": [[[[23.1721,42.097,1236.6929],[23.161,42.1006,1144.3762],[23.1353,42.0986,786.9304],[23.123,42.1041,550.4257],[23.0878,42.1081,515.7999],[23.0714,42.1115,490.544],[23.0684,42.114,510.626],[23.066,42.1198,539.236],[23.0704,42.1356,554.5925],[23.0598,42.1329,571.5535],[23.0277,42.1288,363.0592],[23.0222,42.1266,395.7607],[23.0147,42.1174,419.8672],[23.007,42.1133,508.6995],[22.9907,42.1117,551.3089],[22.986,42.1141,570.2981],[22.9841,42.1269,438.4814],[22.9754,42.1334,557.9472],[22.9628,42.1382,590.9661],[22.9521,42.1543,856.8534],[22.9434,42.1607,857.1558],[22.9174,42.1621,982.9257],[22.9039,42.1606,991.8976],[22.8966,42.1545,994.8665],[22.8832,42.1384,1035.5358],[22.8788,42.1286,913.3438],[22.8824,42.1171,1013.8333],[22.8728,42.1089,1071.1245],[22.8707,42.0973,1016.4715],[22.8646,42.0876,1145.4714],[22.8607,42.0765,1026.2527],[22.8648,42.0682,968.0249],[22.8731,42.0615,1097.6455],[22.9008,42.0625,1131.0486],[22.9145,42.088,1054.3679],[22.9181,42.092,936.3469],[22.9247,42.0962,964.8666],[22.9353,42.0979,989.6359],[22.9448,42.0899,1022.7172],[22.9466,42.0807,900.6219],[22.9501,42.073,887.1471],[22.9532,42.0678,843.3946],[22.9584,42.0636,796.5125],[22.962,42.0617,806.7394],[22.9768,42.0599,753.7494],[23.0008,42.0618,540.7778],[23.0212,42.0604,418.1743],[23.0257,42.0578,343.6466],[23.031,42.0436,373.332],[23.0336,42.0414,335.2493],[23.0429,42.0404,397.098],[23.1043,42.053,548.3461],[23.1164,42.0571,609.9089],[23.1284,42.0647,668.0615],[23.1534,42.0855,992.9198],[23.1721,42.097,1236.6929]]]]}
,"properties": {"GID_2": "BGR.8.4_1","GID_0": "BGR","country": "Bulgaria","GID_1": "BGR.8_1","state": "Kyustendil","NL_NAME_1": "Кюстендил","county": "Kocherinovo","VARNAME_2": "NA","NL_NAME_2": "NA","TYPE_2": "Obshtina","ENGTYPE_2": "Municipality","CC_2": "NA","HASC_2": "BG.KY.KO","name": "Kocherinovo.county","area_km2": 171.4669,"hist_schema_id": "Elevation0-9000","hist_area_km2": {"325": 0.1732,"350": 8.7327,"375": 8.8744,"400": 10.9211,"425": 11.519,"450": 8.8739,"475": 7.8349,"500": 6.6707,"525": 6.2303,"550": 5.9158,"575": 5.6795,"600": 5.4748,"625": 4.7353,"650": 4.7822,"675": 4.6718,"700": 4.703,"725": 5.0175,"750": 4.5298,"775": 4.8759,"800": 4.7185,"825": 5.4108,"850": 4.8763,"875": 4.6718,"900": 4.3731,"925": 4.7193,"950": 4.4831,"975": 4.1687,"1000": 3.8228,"1025": 3.0836,"1050": 2.6746,"1075": 1.5578,"1100": 1.1173,"1125": 0.8655,"1150": 0.4091,"1175": 0.2203,"1200": 0.0629,"1225": 0.0157}}}