{"type":"Feature","properties":{"GID_2":"BGR.1.9_1","GID_0":"BGR","country":"Bulgaria","GID_1":"BGR.1_1","state":"Blagoevgrad","NL_NAME_1":"Благоевград","county":"Razlog","VARNAME_2":"NA","NL_NAME_2":"Разлог","TYPE_2":"Obshtina","ENGTYPE_2":"Municipality","CC_2":"NA","HASC_2":"BG.BL.RA","name":"Razlog.county"},
"geometry":{"type": "MultiPolygon","coordinates": [[[[23.5936,41.8596,724.7546],[23.5769,41.8772,819.3519],[23.5529,41.891,854.8643],[23.5395,41.9031,812.322],[23.5192,41.9363,872.4716],[23.5157,41.955,891.0323],[23.5102,41.9608,975.5195],[23.5065,41.9709,1042.2214],[23.5067,41.9983,1195.776],[23.5054,42.0056,1531.0001],[23.5015,42.0103,1651.9366],[23.5,42.0177,1659.0173],[23.5131,42.0188,1577.8],[23.5159,42.03,1704.15],[23.5088,42.0402,1671.3823],[23.496,42.0507,1685.265],[23.4878,42.062,1867.1561],[23.4723,42.0719,2275.281],[23.4676,42.0772,2370.3818],[23.4467,42.0605,2586.5969],[23.4407,42.0486,2185.2842],[23.4341,42.0418,2261.3445],[23.4133,42.027,2219.8892],[23.4019,42.0154,2200.9771],[23.3903,42.0115,2071.282],[23.3836,42.0063,2199.8149],[23.3691,41.9854,2262.2854],[23.3557,41.9745,2243.0176],[23.3507,41.9633,1980.7607],[23.3513,41.9448,2037.0157],[23.3396,41.9351,1651.4851],[23.3222,41.9258,1318.9238],[23.3187,41.9153,1157.3398],[23.3159,41.8942,1042.3469],[23.307,41.8812,1258.314],[23.2956,41.8687,1800.6896],[23.2897,41.8598,2309.7],[23.2874,41.8513,2261.4414],[23.291,41.8424,2315.7771],[23.306,41.8306,1949.6024],[23.3347,41.8184,2422.2466],[23.3438,41.8131,2422.2075],[23.3578,41.7984,2544.1899],[23.3774,41.793,2741.7573],[23.3873,41.7873,2786.2556],[23.395,41.7916,2479.0825],[23.4075,41.8036,2418.1226],[23.4092,41.8142,2010.8765],[23.4175,41.8261,1352.7968],[23.4324,41.8365,1039.0989],[23.4582,41.8481,884.6666],[23.4721,41.8524,881.4799],[23.4878,41.8532,873.631],[23.5198,41.8431,858.7112],[23.5366,41.8415,893.8545],[23.5689,41.8487,1015.4125],[23.5893,41.8564,784.5906],[23.5936,41.8596,724.7546]]]]}}