{"type":"Feature","properties":{"GID_2":"BGR.10.4_1","GID_0":"BGR","country":"Bulgaria","GID_1":"BGR.10_1","state":"Montana","NL_NAME_1":"Монтана","county":"Chiprovtsi","VARNAME_2":"NA","NL_NAME_2":"Чипровци","TYPE_2":"Obshtina","ENGTYPE_2":"Municipality","CC_2":"NA","HASC_2":"BG.MT.CH","name":"Chiprovtsi.county"},
"geometry":{"type": "MultiPolygon","coordinates": [[[[22.9798,43.4676,813.4309],[22.9443,43.4718,665.7767],[22.9259,43.4787,774.9126],[22.9008,43.4784,775.2975],[22.8946,43.4936,649.4125],[22.8845,43.4967,650.4471],[22.8525,43.4958,787.8071],[22.833,43.5004,688.3452],[22.8052,43.4953,523.9636],[22.7931,43.4909,507.9113],[22.7837,43.4791,482.4235],[22.7832,43.4722,477.3664],[22.7912,43.4477,933.7159],[22.7906,43.441,1181.4211],[22.7861,43.4331,1445.437],[22.7671,43.4156,1406.3811],[22.7548,43.4078,1175.3577],[22.7395,43.4019,1281.064],[22.7287,43.3911,1872.1018],[22.7138,43.3801,1373.1885],[22.7203,43.3754,1201.6947],[22.7346,43.3708,1284.0405],[22.7358,43.3609,1106.7885],[22.7379,43.3562,1166.7207],[22.7551,43.3473,1166.5166],[22.7665,43.3351,1418.8344],[22.7773,43.3287,1784.3057],[22.7876,43.3273,1796.3058],[22.8019,43.3213,1564.5417],[22.8228,43.3364,1687.1521],[22.8395,43.3462,1239.655],[22.8615,43.3483,876.9925],[22.8836,43.3539,647.6826],[22.9047,43.3629,641.0413],[22.9231,43.3738,529.7596],[22.945,43.3789,742.0125],[22.9598,43.3883,473.6527],[22.9839,43.3958,511.4353],[23.002,43.4072,345.3184],[23.0269,43.4163,239.667],[23.0249,43.4217,264.3824],[23.0115,43.4296,310.9418],[23.0074,43.4336,324.6458],[22.996,43.4575,481.9939],[22.9798,43.4676,813.4309]]]]}}