{"type": "Feature","bbox": [25.7256,42.7693,26.1973,43.0302],"geometry": {"type": "MultiPolygon","coordinates": [[[[26.1973,42.9529,489.9731],[26.1941,42.9593,497.6016],[26.1808,42.9702,358.1027],[26.1427,42.9875,307.0951],[26.1206,42.9887,447.4533],[26.1147,42.9909,464.5135],[26.0739,42.9904,560.7033],[26.0578,42.9936,549.6224],[26.0487,42.9998,500.1932],[26.0325,43.0216,452.4652],[26.0225,43.0302,401.6835],[26.0115,43.0297,358.1649],[26.004,43.0269,363.9543],[25.9813,43.0061,351.196],[25.9599,42.9953,505.793],[25.9384,42.9913,431.9336],[25.915,42.9973,309.226],[25.901,42.9961,292.1053],[25.8902,42.982,192.2504],[25.8811,42.9729,527.7888],[25.874,42.9685,460.1729],[25.8627,42.9665,568.546],[25.8518,42.9609,485.7654],[25.840699999999998,42.9611,527.2409],[25.8286,42.966,672.1355],[25.8182,42.965,673.0639],[25.8082,42.9667,576.0962],[25.7946,42.9632,593.2852],[25.7745,42.9644,633.8267],[25.7643,42.9667,465.8615],[25.7514,42.9664,262.1099],[25.7451,42.9619,590.0984],[25.7431,42.9534,584.1193],[25.7395,42.9491,567.7065],[25.7392,42.9465,553.1146],[25.7406,42.9419,512.9686],[25.7455,42.9372,518.6024],[25.7476,42.9322,378.7183],[25.7438,42.93,410.3393],[25.7289,42.9278,591.2184],[25.7259,42.9256,567.8946],[25.7256,42.9218,523.4635],[25.7289,42.9176,480.6766],[25.7327,42.9161,491.2775],[25.7486,42.9199,375.736],[25.758,42.9186,369.2725],[25.7602,42.9153,389.6469],[25.7601,42.9017,503.9376],[25.7592,42.8979,520.3907],[25.7517,42.8899,688.1738],[25.7514,42.8778,693.0891],[25.7577,42.8681,763.561],[25.7818,42.8573,575.5361],[25.7881,42.8514,701.2643],[25.7861,42.8458,786.4102],[25.7833,42.8443,749.985],[25.774,42.8432,754.7717],[25.7662,42.84,718.1931],[25.7645,42.837,703.1827],[25.7633,42.8238,552.2831],[25.7389,42.7918,790.8281],[25.7372,42.7867,708.5854],[25.7379,42.7786,764.4696],[25.7781,42.7876,965.8152],[25.7882,42.7865,1081.7715],[25.799,42.7823,1140.2507],[25.8087,42.7809,1129.2367],[25.8328,42.7872,858.9232],[25.841,42.7861,1012.3997],[25.8485,42.7821,1061.5555],[25.8725,42.7759,958.5452],[25.883,42.7716,904.2465],[25.9018,42.7693,835.1606],[25.9119,42.7708,975.0746],[25.9256,42.7775,1063.4329],[25.9635,42.7862,1380.8483],[25.9759,42.7883,1385.2836],[25.9881,42.7876,1168.3645],[25.996,42.7904,1085.184],[26.0075,42.8017,1092.2732],[26.013,42.8094,954.1056],[26.028199999999998,42.8177,929.4377],[26.0405,42.8285,821.1116],[26.0594,42.8342,966.5766],[26.077,42.8417,876.1566],[26.0833,42.8464,713.6603],[26.0864,42.85,663.3804],[26.0857,42.8563,599.5183],[26.0757,42.8698,600.9753],[26.075,42.8738,630.7534],[26.079,42.8825,578.5793],[26.091,42.889,493.0586],[26.1146,42.8956,427.3115],[26.1296,42.9054,448.1635],[26.1597,42.9146,389.9835],[26.1698,42.922,422.5388],[26.1738,42.9298,381.466],[26.1973,42.9529,489.9731]]]]}
,"properties": {"GID_2": "BGR.25.1_1","GID_0": "BGR","country": "Bulgaria","GID_1": "BGR.25_1","state": "VelikoTarnovo","NL_NAME_1": "ВеликоТърново","county": "Elena","VARNAME_2": "NA","NL_NAME_2": "Елена","TYPE_2": "Obshtina","ENGTYPE_2": "Municipality","CC_2": "NA","HASC_2": "BG.VT.EL","name": "Elena.county","area_km2": 655.8052,"hist_schema_id": "Elevation0-9000","hist_area_km2": {"175": 0.0155,"200": 0.3878,"225": 0.3568,"250": 2.002,"275": 5.0284,"300": 9.9028,"325": 20.7537,"350": 22.2599,"375": 29.6654,"400": 36.7755,"425": 46.6648,"450": 49.6147,"475": 46.2489,"500": 38.9852,"525": 35.854,"550": 32.7064,"575": 32.3557,"600": 31.3669,"625": 29.0409,"650": 26.2294,"675": 25.3785,"700": 21.0133,"725": 18.7306,"750": 16.0572,"775": 12.1875,"800": 9.7777,"825": 8.6902,"850": 6.4833,"875": 5.3025,"900": 4.4173,"925": 3.7646,"950": 3.3293,"975": 3.1272,"1000": 2.9096,"1025": 2.7539,"1050": 2.4272,"1075": 2.1005,"1100": 1.7737,"1125": 1.6026,"1150": 1.447,"1175": 1.2603,"1200": 1.1202,"1225": 1.0891,"1250": 0.7157,"1275": 0.4512,"1300": 0.4201,"1325": 0.4979,"1350": 0.4668,"1375": 0.2645,"1400": 0.0311}}}