{"type":"Feature","properties":{"GID_2":"BGR.13.8_1","GID_0":"BGR","country":"Bulgaria","GID_1":"BGR.13_1","state":"Pleven","NL_NAME_1":"Плевенска","county":"Levski","VARNAME_2":"NA","NL_NAME_2":"Левски","TYPE_2":"Obshtina","ENGTYPE_2":"Municipality","CC_2":"NA","HASC_2":"BG.PV.LE","name":"Levski.county"},
"geometry":{"type": "MultiPolygon","coordinates": [[[[25.164,43.2867,155.2218],[25.1885,43.2934,132.0273],[25.1902,43.2956,124.0841],[25.1997,43.2983,111.2137],[25.213,43.3063,100.6425],[25.2306,43.3108,89.4044],[25.2545,43.324,79.8697],[25.2677,43.337,112.0506],[25.2739,43.3513,173.7612],[25.2748,43.3574,176.8593],[25.2687,43.3738,186.4077],[25.2513,43.3754,148.8551],[25.2164,43.375,165.2012],[25.2106,43.3755,132.5694],[25.2059,43.3783,90.2083],[25.2068,43.383,168.7745],[25.2122,43.39,175.728],[25.2385,43.4136,128.0737],[25.2398,43.4249,119.1284],[25.2358,43.4303,124.4983],[25.2245,43.434,154.3747],[25.2093,43.4355,117.2323],[25.1667,43.4273,147.2487],[25.1495,43.4258,162.9077],[25.1434,43.4266,125.0187],[25.1381,43.4296,82.9555],[25.1301,43.4405,51.3105],[25.1302,43.4448,50.8069],[25.1329,43.4492,51.4625],[25.144,43.4519,118.4618],[25.1758,43.4548,129.4379],[25.1852,43.4574,127.455],[25.1982,43.4632,112.9554],[25.2128,43.4748,87.0895],[25.2151,43.4829,80.7844],[25.2129,43.5094,121.0182],[25.214,43.5169,145.6205],[25.2188,43.5251,114.1237],[25.2285,43.5336,48.8327],[25.2337,43.5423,92.9006],[25.2315,43.5484,82.7382],[25.2268,43.5544,90.5817],[25.209,43.5689,132.9992],[25.1984,43.5658,25.6559],[25.1895,43.5614,65.0706],[25.1768,43.5507,114.5961],[25.1688,43.5466,123.2717],[25.158,43.5233,117.8712],[25.1497,43.5173,151.7253],[25.0928,43.5015,150.528],[25.0856,43.5013,147.7714],[25.0725,43.5066,148.3703],[25.0669,43.514,156.5857],[25.0642,43.5258,178.3741],[25.0587,43.5336,179.6292],[25.0476,43.5316,158.6833],[25.0275,43.5243,87.1823],[25.0094,43.5219,41.6691],[25.005,43.5185,43.3755],[25.0068,43.5102,37.7505],[24.9993,43.5054,43.8794],[24.9916,43.5041,48.0111],[24.9384,43.507,114.6778],[24.9103,43.5102,155.8115],[24.9231,43.4989,109.2015],[24.9418,43.487,52.0235],[24.9456,43.481,45.8641],[24.9472,43.4738,42.2616],[24.9636,43.4677,41.6437],[24.9672,43.4631,42.7493],[24.9667,43.4593,42.0045],[24.9544,43.448,72.3973],[24.9481,43.4363,68.7016],[24.948,43.4121,120.0314],[24.9492,43.4031,132.3246],[24.952,43.3981,131.8016],[24.9658,43.3934,127.1753],[24.9939,43.3997,118.1352],[25.0195,43.3989,108.9215],[25.039,43.3962,91.2005],[25.0622,43.3893,73.1739],[25.0755,43.3786,88.8111],[25.0854,43.365,90.1516],[25.0973,43.3378,80.3792],[25.0991,43.3253,73.4061],[25.1087,43.3123,66.9563],[25.164,43.2867,155.2218]]]]}}