{"type": "Feature","bbox": [26.8369,42.9158,27.2594,43.1322],"geometry": {"type": "MultiPolygon","coordinates": [[[[27.128,42.9472,498.2874],[27.1374,42.9707,263.5881],[27.1377,42.9785,211.385],[27.134,42.9829,203.4452],[27.1298,42.9844,212.9798],[27.102,42.9857,340.258],[27.0969,42.988,400.3784],[27.0966,42.992,375.423],[27.1025,43.0032,396.3186],[27.1044,43.0108,314.7631],[27.1011,43.0153,298.3043],[27.0893,43.0215,354.5958],[27.0884,43.0231,340.0144],[27.09,43.0256,396.2876],[27.0998,43.0276,433.0474],[27.1216,43.0254,333.2341],[27.1336,43.0261,426.622],[27.1377,43.0295,321.8636],[27.1408,43.0391,343.4524],[27.1497,43.0433,213.7732],[27.1822,43.0423,42.2662],[27.2032,43.048,172.8809],[27.2229,43.0505,312.6958],[27.2445,43.0496,177.3807],[27.2539,43.0476,189.8979],[27.2585,43.0487,151.7298],[27.2594,43.0537,111.1885],[27.258,43.0559,92.4885],[27.2448,43.0661,193.5737],[27.2464,43.0694,225.0457],[27.2454,43.0726,229.4173],[27.2384,43.0864,291.0946],[27.2407,43.0958,173.4283],[27.2283,43.1017,156.4745],[27.2061,43.1035,231.7055],[27.1944,43.109,209.881],[27.1876,43.1194,196.4845],[27.1888,43.1304,160.7752],[27.164,43.1322,257.3851],[27.145,43.1295,337.8152],[27.1275,43.1174,294.9389],[27.1157,43.1132,250.2672],[27.1062,43.1131,236.7786],[27.0924,43.1156,265.3475],[27.0608,43.126,213.6376],[27.0459,43.1263,90.9658],[26.9773,43.1087,126.6295],[26.9647,43.0997,125.3981],[26.9602,43.0934,109.2609],[26.9558,43.0825,133.2916],[26.948,43.0768,214.6115],[26.941,43.0761,157.3976],[26.9166,43.082,212.958],[26.9092,43.0821,266.7146],[26.8958,43.0788,348.5494],[26.8907,43.0756,388.1687],[26.8928,43.0641,498.0978],[26.8888,43.0536,464.0293],[26.8885,43.0482,476.1945],[26.8789,43.0329,511.0384],[26.8574,43.0225,473.774],[26.8532,43.0148,405.2895],[26.8531,43.0061,428.6185],[26.8422,42.9935,244.0961],[26.8379,42.9848,345.0005],[26.8369,42.9747,365.4637],[26.8383,42.9701,349.3046],[26.8431,42.9616,391.8079],[26.8549,42.9482,520.0615],[26.8695,42.9501,667.4294],[26.8824,42.9487,614.1578],[26.9104,42.9377,454.1389],[26.9243,42.9363,458.3427],[26.9468,42.9433,476.4504],[26.9607,42.9413,521.3123],[26.9733,42.9457,383.2726],[26.9889,42.9466,608.3182],[26.9996,42.9325,588.3342],[27.0058,42.9271,575.1626],[27.0154,42.924,613.1564],[27.0223,42.9158,630.4716],[27.0346,42.9169,563.631],[27.0454,42.9201,559.6399],[27.1013,42.9447,394.1003],[27.128,42.9472,498.2874]]]]}
,"properties": {"GID_2": "BGR.17.8_1","GID_0": "BGR","country": "Bulgaria","GID_1": "BGR.17_1","state": "Shumen","NL_NAME_1": "Шумен","county": "Smyadovo","VARNAME_2": "NA","NL_NAME_2": "NA","TYPE_2": "Obshtina","ENGTYPE_2": "Municipality","CC_2": "NA","HASC_2": "BG.SH.SM","name": "Smyadovo.county","area_km2": 466.3791,"hist_schema_id": "Elevation0-9000","hist_area_km2": {"50": 21.8218,"75": 21.2777,"100": 24.3923,"125": 21.6523,"150": 14.5615,"175": 20.4981,"200": 25.7554,"225": 30.6245,"250": 32.5939,"275": 30.8088,"300": 29.4468,"325": 26.877,"350": 27.1143,"375": 25.9849,"400": 23.5237,"425": 21.1511,"450": 17.6771,"475": 15.6776,"500": 11.8338,"525": 7.5232,"550": 4.3604,"575": 2.6853,"600": 2.5147,"625": 2.1266,"650": 1.5989,"675": 1.2419,"700": 0.8848,"725": 0.1708}}}