{"type": "Feature","bbox": [25.0973,42.1425,25.4028,42.4752],"geometry": {"type": "MultiPolygon","coordinates": [[[[25.1099,42.2348,161.3713],[25.0999,42.2225,166.7939],[25.0984,42.2183,154.9376],[25.0973,42.1862,137.877],[25.1007,42.1671,130.3992],[25.1123,42.1504,128.8736],[25.1339,42.1511,133.0783],[25.1585,42.1431,124.7547],[25.1787,42.1425,126.3379],[25.2064,42.1499,131.6412],[25.2222,42.1498,133.1467],[25.2337,42.1517,154.8957],[25.2532,42.1491,139.9465],[25.2648,42.1494,167.3359],[25.2899,42.1613,157.6797],[25.3048,42.1637,145.3511],[25.3077,42.1697,142.1005],[25.3097,42.1797,145.6376],[25.309,42.1867,155.5229],[25.3021,42.2098,169.6206],[25.3016,42.2177,174.6324],[25.3043,42.2238,186.7422],[25.3172,42.2377,239.8123],[25.3192,42.2495,249.2418],[25.318,42.2537,247.4678],[25.3119,42.2606,238.273],[25.299,42.2694,256.7293],[25.2985,42.2741,266.6579],[25.3082,42.2997,365.5352],[25.3162,42.3161,382.4283],[25.3216,42.3201,471.5673],[25.3354,42.3254,532.5641],[25.3477,42.3394,440.3705],[25.3549,42.3434,377.3744],[25.3632,42.3447,453.4715],[25.3707,42.35,409.1128],[25.3904,42.3764,516.2429],[25.393,42.3898,322.3389],[25.3932,42.4056,377.9484],[25.3964,42.4092,401.9069],[25.3991,42.4209,518.2282],[25.3975,42.455,531.3428],[25.4028,42.4705,601.0836],[25.3463,42.455,440.1827],[25.3296,42.4522,445.7504],[25.3128,42.4525,528.1054],[25.2971,42.4569,613.3414],[25.2898,42.4636,729.3234],[25.282,42.4744,738.1656],[25.2757,42.4688,785.3284],[25.271,42.4671,850.8325],[25.2588,42.4734,821.5365],[25.2517,42.4752,941.7711],[25.2451,42.4745,805.4686],[25.2338,42.47,723.7415],[25.2262,42.4696,707.1161],[25.219,42.4483,497.818],[25.2116,42.4424,503.4973],[25.1918,42.4345,455.0773],[25.1895,42.4328,479.8633],[25.1887,42.4285,441.1223],[25.1918,42.4238,426.3384],[25.2033,42.4177,369.36],[25.2401,42.4027,339.0633],[25.2432,42.3884,320.503],[25.2374,42.379,327.9761],[25.2259,42.3765,290.6458],[25.2106,42.3779,298.7182],[25.171,42.3919,381.3796],[25.1601,42.3933,385.8245],[25.1518,42.3926,410.8295],[25.1451,42.3893,406.171],[25.1432,42.3855,383.7746],[25.1494,42.3548,293.1113],[25.1449,42.3018,212.9789],[25.147,42.2906,186.8009],[25.1505,42.2828,201.8471],[25.1563,42.28,236.0508],[25.1696,42.2803,245.7294],[25.1824,42.2743,238.0597],[25.204,42.2699,243.2182],[25.2148,42.2619,211.7665],[25.2163,42.2539,193.9796],[25.2083,42.2488,189.0654],[25.2041,42.2482,192.503],[25.1392,42.245,165.3195],[25.1174,42.2393,163.6451],[25.1099,42.2348,161.3713]]]]}
,"properties": {"GID_2": "BGR.22.1_1","GID_0": "BGR","country": "Bulgaria","GID_1": "BGR.22_1","state": "StaraZagora","NL_NAME_1": "СтараЗагора","county": "BratyaDaskalovi","VARNAME_2": "NA","NL_NAME_2": "NA","TYPE_2": "Obshtina","ENGTYPE_2": "Municipality","CC_2": "NA","HASC_2": "BG.SZ.BD","name": "BratyaDaskalovi.county","area_km2": 528.873,"hist_schema_id": "Elevation0-9000","hist_area_km2": {"125": 24.8628,"150": 84.3823,"175": 58.7814,"200": 31.1145,"225": 32.6249,"250": 27.0162,"275": 24.9994,"300": 24.9779,"325": 25.3645,"350": 25.5323,"375": 23.8529,"400": 24.0846,"425": 21.1858,"450": 19.5411,"475": 15.5957,"500": 13.9354,"525": 12.0402,"550": 9.0171,"575": 7.7636,"600": 5.18,"625": 3.6926,"650": 2.7692,"675": 2.1276,"700": 2.0806,"725": 1.1733,"750": 0.6257,"775": 0.6256,"800": 0.9072,"825": 0.9697,"850": 0.7038,"875": 0.6256,"900": 0.5005,"925": 0.172,"950": 0.0313,"975": 0.0156}}}