{"type":"Feature","properties":{"GID_2":"BGR.15.1_1","GID_0":"BGR","country":"Bulgaria","GID_1":"BGR.15_1","state":"Razgrad","NL_NAME_1":"Разград","county":"Isperih","VARNAME_2":"Kemallar","NL_NAME_2":"Исперих","TYPE_2":"Obshtina","ENGTYPE_2":"Municipality","CC_2":"NA","HASC_2":"BG.RG.IS","name":"Isperih.county"},
"geometry":{"type": "MultiPolygon","coordinates": [[[[26.7177,43.6237,295.319],[26.7617,43.6167,315.2921],[26.7873,43.6187,338.0262],[26.7928,43.6227,310.0746],[26.8068,43.6409,300.9863],[26.8114,43.6437,269.9348],[26.8335,43.6474,303.7713],[26.8365,43.6525,284.6639],[26.8367,43.6702,286.7463],[26.8386,43.6786,290.4204],[26.8422,43.6826,290.2398],[26.8512,43.6837,289.7937],[26.8721,43.6836,271.2758],[26.9001,43.6757,271.4784],[26.9183,43.6741,281.3184],[26.9403,43.6699,254.3866],[26.9498,43.6642,291.2504],[26.9712,43.6429,305.0083],[26.989,43.6531,257.8527],[27.0009,43.6558,282.1891],[27.0139,43.6567,301.4731],[27.0258,43.6625,302.2036],[27.0273,43.6672,286.4482],[27.028,43.691,234.0881],[27.026,43.6944,233.6657],[27.015,43.6998,264.5544],[27.0104,43.7043,264.7346],[27.0054,43.7133,271.4994],[27.0053,43.7174,265.1078],[26.9912,43.723,253.1244],[26.9809,43.7313,201.2322],[26.9744,43.7476,224.028],[26.9734,43.7543,251.0491],[26.971,43.7577,236.7816],[26.9613,43.7599,256.1996],[26.9486,43.7573,238.6393],[26.9216,43.7646,241.3926],[26.9161,43.7706,248.4917],[26.9134,43.7988,185.165],[26.8817,43.8111,219.6177],[26.8719,43.8166,221.8309],[26.8589,43.8304,172.8544],[26.8508,43.8508,177.5689],[26.8472,43.8537,188.1347],[26.8375,43.8545,201.5195],[26.8329,43.852,203.2229],[26.8176,43.8366,221.7674],[26.8117,43.837,223.5916],[26.805,43.8433,184.1426],[26.8011,43.8431,178.9397],[26.7892,43.8341,194.1841],[26.7848,43.834,220.4367],[26.7867,43.8267,204.9068],[26.7956,43.8205,211.2243],[26.8023,43.8114,211.0494],[26.8,43.8012,208.307],[26.7822,43.7752,221.9831],[26.7774,43.7727,215.2043],[26.7691,43.7722,209.5526],[26.7661,43.787,173.3499],[26.7598,43.7871,139.2273],[26.7529,43.7723,231.8443],[26.737,43.7587,212.2253],[26.7383,43.7365,227.9782],[26.7368,43.7295,255.1222],[26.7229,43.7019,267.3016],[26.7192,43.6968,276.3975],[26.7013,43.6827,251.2797],[26.6907,43.6715,261.5394],[26.6872,43.6613,256.9072],[26.689,43.6536,258.1446],[26.7107,43.636,255.044],[26.715,43.6312,297.6011],[26.7177,43.6237,295.319]]]]}}