{"type": "Feature","bbox": [26.1351,43.8534,26.3967,44.0344],"geometry": {"type": "MultiPolygon","coordinates": [[[[26.3876,43.9589,45.8862],[26.3754,43.9731,42.742],[26.3733,43.9817,29.409],[26.3934,43.9986,28.1408],[26.3967,44.0031,18.0284],[26.3948,44.0084,15.0243],[26.3869,44.0134,14.2298],[26.3566,44.0235,15.9684],[26.3444,44.0344,10.5],[26.3078,44.0254,11.0],[26.3063,44.0269,11.0],[26.2812,44.0118,11.0],[26.2818,44.0105,11.0],[26.2541,44.002,11.0],[26.2451,44.0007,18.7996],[26.2287,43.9941,11.0],[26.1933,43.9835,11.0],[26.1816,43.9835,26.7245],[26.1812,43.9853,11.5],[26.1595,43.9857,11.5],[26.1351,43.9812,11.5],[26.148,43.963,17.0522],[26.148,43.9561,20.2563],[26.1418,43.9483,25.8876],[26.1443,43.9425,35.1493],[26.1597,43.927,27.2715],[26.1785,43.9191,31.5581],[26.1998,43.8986,55.2353],[26.2259,43.8875,74.8203],[26.2309,43.8778,108.8713],[26.2329,43.8673,109.1622],[26.2477,43.8534,102.6076],[26.2571,43.8548,105.8247],[26.2713,43.8653,110.1838],[26.3058,43.8674,113.4446],[26.3133,43.8759,134.4156],[26.312,43.8886,131.1292],[26.3166,43.8939,133.6965],[26.3157,43.9049,69.1353],[26.3198,43.9111,86.1469],[26.3274,43.9179,66.5576],[26.3383,43.924,63.1264],[26.3454,43.9342,69.1394],[26.3793,43.9499,61.9783],[26.3876,43.9589,45.8862]]]]}
,"properties": {"GID_2": "BGR.16.6_1","GID_0": "BGR","country": "Bulgaria","GID_1": "BGR.16_1","state": "Ruse","NL_NAME_1": "Русенска","county": "SlivoPole","VARNAME_2": "NA","NL_NAME_2": "NA","TYPE_2": "Obshtina","ENGTYPE_2": "Municipality","CC_2": "NA","HASC_2": "BG.RS.SP","name": "SlivoPole.county","area_km2": 225.9426,"hist_schema_id": "Elevation0-9000","hist_area_km2": {"0": 9.5169,"25": 114.312,"50": 63.8392,"75": 21.7699,"100": 7.0603,"125": 8.1912,"150": 1.2532}}}