{"type": "Feature","bbox": [22.8554,42.7621,23.0999,42.9029],"geometry": {"type": "MultiPolygon","coordinates": [[[[22.9807,42.7621,823.0671],[22.9848,42.7634,843.3414],[22.9892,42.7674,827.1697],[23.0161,42.7789,859.4084],[23.0351,42.7849,820.9642],[23.0428,42.7944,783.9677],[23.0601,42.8107,700.1308],[23.0856,42.8163,613.7915],[23.0915,42.8199,589.9648],[23.0979,42.8281,571.2025],[23.0999,42.8315,564.2197],[23.0995,42.8337,562.7958],[23.0837,42.8461,579.4944],[23.0746,42.8596,686.8896],[23.0725,42.8713,556.3007],[23.0752,42.8867,669.2845],[23.0737,42.9006,815.8788],[23.054,42.8981,752.6961],[23.0116,42.897,692.1808],[22.9893,42.8948,661.3718],[22.9639,42.9021,732.5419],[22.9553,42.9029,743.8107],[22.9525,42.9019,724.4865],[22.9447,42.8937,710.233],[22.9391,42.891,713.1187],[22.9162,42.8895,677.3093],[22.909,42.8866,678.6752],[22.9061,42.8847,668.2899],[22.8952,42.8682,676.2514],[22.8777,42.8603,694.4913],[22.8727,42.853,706.847],[22.8643,42.8461,841.2828],[22.8554,42.8442,884.9285],[22.8583,42.8405,927.5995],[22.86,42.8338,946.5922],[22.8597,42.8261,855.7706],[22.8658,42.8191,865.0739],[22.8685,42.8179,882.3439],[22.8924,42.8194,847.8342],[22.9006,42.8176,903.7332],[22.9055,42.8145,898.0857],[22.9121,42.8046,863.6685],[22.9165,42.7893,969.8976],[22.9252,42.7797,965.1136],[22.9402,42.7738,978.3859],[22.9711,42.7707,827.0398],[22.9807,42.7621,823.0671]]]]}
,"properties": {"GID_2": "BGR.21.20_1","GID_0": "BGR","country": "Bulgaria","GID_1": "BGR.21_1","state": "Sofia","NL_NAME_1": "Sofija","county": "Slivnitsa","VARNAME_2": "NA","NL_NAME_2": "Сливница","TYPE_2": "Obshtina","ENGTYPE_2": "Municipality","CC_2": "NA","HASC_2": "BG.SF.SL","name": "Slivnitsa.county","area_km2": 196.5911,"hist_schema_id": "Elevation0-9000","hist_area_km2": {"550": 1.6161,"575": 10.6008,"600": 12.1712,"625": 16.4622,"650": 25.1794,"675": 24.1822,"700": 22.023,"725": 16.8817,"750": 9.235,"775": 8.3511,"800": 10.1412,"825": 11.9622,"850": 11.0297,"875": 8.7276,"900": 5.3362,"925": 1.8201,"950": 0.6691,"975": 0.1245,"1000": 0.0778}}}