{"type": "Feature","bbox": [22.8747,42.9549,23.2376,43.1981],"geometry": {"type": "MultiPolygon","coordinates": [[[[23.0108,43.198,1842.4889],[22.997,43.1933,1837.6555],[22.9619,43.1898,1601.8013],[22.978,43.1831,1646.8665],[22.979,43.1786,1606.5958],[22.9597,43.1568,1300.9714],[22.9683,43.1523,1285.2964],[22.9701,43.1464,1133.8254],[22.9672,43.14,1205.0955],[22.9693,43.1306,1223.395],[22.9688,43.1271,1172.6055],[22.9644,43.1185,998.2266],[22.9589,43.1121,950.1855],[22.9574,43.1017,872.5995],[22.9293,43.0845,813.2],[22.9263,43.0811,889.6736],[22.9075,43.0767,872.0709],[22.8953,43.0687,723.073],[22.8847,43.0427,736.7117],[22.8757,43.0354,717.6289],[22.8747,43.0246,681.2094],[22.9091,43.0204,640.8784],[22.9174,43.0162,616.2596],[22.9231,43.011,639.2415],[22.9241,43.003,651.7927],[22.929,42.9923,647.2411],[22.9299,42.9762,779.6522],[22.9357,42.9686,863.0975],[22.9405,42.9658,899.2212],[22.9583,42.9584,928.2078],[22.9871,42.9549,1068.5803],[23.0534,42.9587,1010.7257],[23.0856,42.9634,897.3339],[23.1019,42.9684,860.8593],[23.1107,42.9722,801.7419],[23.1257,42.984,759.3441],[23.1191,43.0076,925.6856],[23.1229,43.0173,1045.1511],[23.1369,43.0201,1105.5393],[23.1588,43.0209,1221.428],[23.167,43.0195,1178.7351],[23.181,43.0125,958.6396],[23.1828,43.0131,970.1688],[23.1839,43.015,1054.4587],[23.182,43.0248,1245.5234],[23.1856,43.0409,1010.634],[23.192,43.0497,938.2968],[23.204,43.0587,1225.3397],[23.2176,43.0642,1368.7625],[23.235,43.0786,1378.239],[23.2376,43.0907,1326.8679],[23.2368,43.0942,1404.2119],[23.2298,43.1018,1444.5988],[23.2173,43.1082,1478.8431],[23.2114,43.1067,1533.4189],[23.1419,43.1065,1420.342],[23.1276,43.1086,1398.2439],[23.1192,43.1118,1384.322],[23.1092,43.1184,1285.9381],[23.1032,43.1253,1405.5302],[23.0949,43.1434,1447.4216],[23.087,43.1526,1589.2736],[23.0654,43.1636,1712.1134],[23.0442,43.1705,1801.3021],[23.0371,43.1771,1601.4547],[23.0313,43.1899,1797.1213],[23.0263,43.1958,1800.0618],[23.0183,43.1981,1867.4001],[23.0108,43.198,1842.4889]]]]}
,"properties": {"GID_2": "BGR.21.10_1","GID_0": "BGR","country": "Bulgaria","GID_1": "BGR.21_1","state": "Sofia","NL_NAME_1": "Sofija","county": "Godech","VARNAME_2": "NA","NL_NAME_2": "Годеч","TYPE_2": "Obshtina","ENGTYPE_2": "Municipality","CC_2": "NA","HASC_2": "BG.SF.GO","name": "Godech.county","area_km2": 430.0233,"hist_schema_id": "Elevation0-9000","hist_area_km2": {"525": 0.2016,"550": 1.0387,"575": 1.5656,"600": 2.8212,"625": 9.4108,"650": 18.45,"675": 22.5874,"700": 18.0131,"725": 16.8525,"750": 14.6213,"775": 11.7064,"800": 9.2099,"825": 8.6968,"850": 8.9124,"875": 10.3976,"900": 10.0253,"925": 8.2582,"950": 9.0185,"975": 9.0024,"1000": 8.15,"1025": 8.1955,"1050": 9.0318,"1075": 8.5974,"1100": 7.8536,"1125": 8.8595,"1150": 9.4942,"1175": 10.3615,"1200": 11.3523,"1225": 12.0022,"1250": 12.9463,"1275": 14.246,"1300": 13.7174,"1325": 15.6983,"1350": 14.6911,"1375": 11.7185,"1400": 9.8911,"1425": 7.9553,"1450": 5.9585,"1475": 4.333,"1500": 3.4193,"1525": 3.6044,"1550": 3.4185,"1575": 3.6194,"1600": 2.9849,"1625": 2.5672,"1650": 2.1032,"1675": 2.3505,"1700": 2.0411,"1725": 2.1804,"1750": 1.6855,"1775": 1.7318,"1800": 0.9741,"1825": 0.7421,"1850": 0.3401,"1875": 0.2164,"1900": 0.1546,"1925": 0.0464}}}