{"type": "Feature","bbox": [26.5355,42.9068,26.8928,43.1809],"geometry": {"type": "MultiPolygon","coordinates": [[[[26.8549,42.9482,520.0615],[26.8431,42.9616,391.8079],[26.8383,42.9701,349.3046],[26.8369,42.9747,365.4637],[26.8379,42.9848,345.0005],[26.8422,42.9935,244.0961],[26.8531,43.0061,428.6185],[26.8532,43.0148,405.2895],[26.8574,43.0225,473.774],[26.8789,43.0329,511.0384],[26.8885,43.0482,476.1945],[26.8888,43.0536,464.0293],[26.8928,43.0641,498.0978],[26.8906,43.0748,427.2923],[26.8828,43.0803,422.9248],[26.8649,43.0873,375.5639],[26.8392,43.0934,458.1173],[26.8328,43.1005,605.6125],[26.8316,43.1129,357.8522],[26.8289,43.1155,359.4882],[26.7933,43.1337,247.4293],[26.7856,43.1406,490.0674],[26.7563,43.1567,373.0723],[26.7389,43.1587,325.5023],[26.7341,43.161,382.1312],[26.7226,43.1737,259.9384],[26.7163,43.1778,303.0731],[26.7128,43.174,276.7783],[26.7058,43.1726,296.8511],[26.7003,43.1731,308.665],[26.6803,43.1809,269.0195],[26.6759,43.1809,271.7873],[26.6704,43.1764,316.4471],[26.6713,43.1712,428.7811],[26.6767,43.1672,446.469],[26.6766,43.1658,415.4398],[26.6667,43.1533,619.6207],[26.6647,43.1445,588.1447],[26.6653,43.1391,575.7161],[26.6706,43.1263,366.8218],[26.6823,43.1148,304.2297],[26.6872,43.108,281.3276],[26.6878,43.1025,269.0761],[26.6804,43.0972,260.2168],[26.6646,43.0967,231.4843],[26.6536,43.0945,229.8215],[26.6511,43.09,258.0117],[26.653,43.0772,250.62],[26.651,43.0661,292.7109],[26.6222,43.0606,251.5781],[26.6172,43.0588,270.7752],[26.6139,43.0543,303.0113],[26.6195,43.0477,267.6219],[26.6123,43.0352,224.5396],[26.6156,43.0314,204.8701],[26.6234,43.0281,197.3342],[26.6242,43.0264,202.6745],[26.6222,43.0234,236.3417],[26.6135,43.0175,267.5583],[26.5897,43.0129,324.6355],[26.5613,42.99,364.0885],[26.553,42.987,388.8835],[26.5388,42.9767,355.9176],[26.5358,42.973,363.7762],[26.5355,42.9688,355.0127],[26.5396,42.9469,880.9087],[26.5425,42.9397,788.8904],[26.5539,42.9317,819.009],[26.5602,42.9299,837.1898],[26.58,42.9288,729.2474],[26.5796,42.9339,630.4968],[26.5829,42.9384,734.0139],[26.5997,42.9424,655.9854],[26.6202,42.9422,449.4679],[26.643,42.9396,534.5822],[26.6471,42.9376,552.3555],[26.6485,42.9335,690.9292],[26.6411,42.9197,736.5305],[26.6404,42.9132,716.5191],[26.6455,42.9074,815.4393],[26.6492,42.9068,817.0156],[26.6831,42.9115,655.3214],[26.7237,42.909,635.2006],[26.7537,42.9232,661.9917],[26.778,42.9407,484.3798],[26.7884,42.9454,594.7668],[26.8075,42.9473,727.7505],[26.8311,42.9428,779.5126],[26.8497,42.9429,663.7673],[26.8549,42.9482,520.0615]]]]}
,"properties": {"GID_2": "BGR.17.9_1","GID_0": "BGR","country": "Bulgaria","GID_1": "BGR.17_1","state": "Shumen","NL_NAME_1": "Шумен","county": "Varbitsa","VARNAME_2": "NA","NL_NAME_2": "Върбица","TYPE_2": "Obshtina","ENGTYPE_2": "Municipality","CC_2": "NA","HASC_2": "BG.SH.VA","name": "Varbitsa.county","area_km2": 489.5794,"hist_schema_id": "Elevation0-9000","hist_area_km2": {"125": 0.5107,"150": 1.7027,"175": 20.2169,"200": 31.1446,"225": 48.3322,"250": 50.4866,"275": 37.7025,"300": 31.0866,"325": 26.5011,"350": 23.7302,"375": 23.6673,"400": 22.7387,"425": 21.9789,"450": 20.9726,"475": 17.2537,"500": 16.2921,"525": 14.4166,"550": 13.0059,"575": 9.611,"600": 7.7505,"625": 7.6873,"650": 6.9134,"675": 6.3088,"700": 3.7852,"725": 3.8029,"750": 3.7411,"775": 3.1202,"800": 3.26,"825": 3.1358,"850": 2.5303,"875": 2.2974,"900": 1.459,"925": 1.1019,"950": 0.7915,"975": 0.4346,"1000": 0.1086}}}