{"type":"Feature","properties":{"ISO3166-1-Alpha-3":"BGR","country":"Bulgaria","fill":"#00F","id":"2261","name":"Silistra"},
"geometry":{"type": "Polygon","coordinates": [[[27.22674,44.12072,21.2625],[27.20555,44.12925,13.5632],[27.10024,44.14449,14.057],[27.02748,44.17705,10.1768],[27.00153,44.16511,11.0022],[26.88413,44.15653,13.7015],[26.78945,44.11596,12.0012],[26.75369,44.10811,12.7533],[26.70868,44.10811,12.9233],[26.69721,44.10609,13.6872],[26.67732,44.09705,15.7068],[26.66781,44.09509,15.7133],[26.64776,44.09338,19.085],[26.61417,44.08486,16.2767],[26.41579,44.06379,12.072],[26.33234,44.05493,12.9634],[26.33455,44.04532,15.2004],[26.34964,44.02227,29.8389],[26.3762,44.01948,14.9106],[26.38281,43.98925,29.8172],[26.39625,43.94957,56.783],[26.43139,43.95329,47.7128],[26.46477,43.94683,102.1894],[26.49164,43.92502,116.3011],[26.52007,43.93091,110.7047],[26.5457,43.94486,111.2098],[26.56833,43.93696,63.8284],[26.58601,43.91902,49.7521],[26.59376,43.90192,114.3232],[26.61722,43.86936,201.3121],[26.70186,43.84761,180.3753],[26.73545,43.84492,198.4555],[26.75313,43.8258,169.2338],[26.76739,43.80725,181.6461],[26.77514,43.81929,141.2759],[26.79033,43.8213,206.1869],[26.80811,43.82637,229.5981],[26.82217,43.84221,206.2664],[26.83715,43.84368,198.4206],[26.84387,43.82453,214.219],[26.85979,43.80616,203.4983],[26.87808,43.79624,205.5147],[26.88821,43.78513,225.7059],[26.90309,43.77552,231.0952],[26.9033,43.75304,246.0616],[26.91332,43.74136,215.4807],[26.93131,43.74999,194.9724],[26.94753,43.74283,260.1436],[26.97141,43.71692,230.348],[27.00076,43.69958,268.0565],[27.05409,43.72162,255.2283],[27.09409,43.70312,268.9183],[27.13378,43.67,255.9401],[27.20013,43.66891,216.4077],[27.21956,43.66563,256.5262],[27.23703,43.67072,266.4052],[27.21294,43.69793,208.6503],[27.21553,43.7427,200.984],[27.264,43.77474,215.8232],[27.2764,43.79469,155.0078],[27.29635,43.80247,217.6824],[27.34224,43.77536,209.562],[27.38606,43.77604,211.4751],[27.37376,43.82508,163.2912],[27.39888,43.83975,181.3972],[27.43019,43.8444,200.5993],[27.48125,43.83086,189.4344],[27.52145,43.85205,202.3177],[27.51897,43.88308,200.0299],[27.53086,43.91347,209.2206],[27.55577,43.9184,200.0741],[27.57799,43.90373,200.1247],[27.60744,43.90802,177.3645],[27.61044,43.92709,119.5993],[27.60475,43.93866,165.0817],[27.62315,43.9392,146.1089],[27.64144,43.95422,131.6333],[27.63659,43.97639,85.1748],[27.65519,43.98786,155.3824],[27.68217,43.98726,104.6309],[27.68251,43.98726,104.6309],[27.67612,43.99354,136.8],[27.65628,44.02388,31.2511],[27.63343,44.02977,142.2289],[27.57452,44.01628,145.0982],[27.38384,44.01509,100.2652],[27.37288,44.02072,18.908],[27.35355,44.04527,80.4906],[27.34167,44.05307,104.1589],[27.28534,44.07245,133.3156],[27.26431,44.08976,71.9127],[27.26901,44.1124,30.7218],[27.25266,44.12152,4.0],[27.25113,44.12237,4.0],[27.22674,44.12072,21.2625]]]}}