{"type":"Feature","properties":{"featurecla":"River","scalerank":2,"rivernum":25,"dissolve":"25River","name":"Danube5","name_alt":null,"note":null,"min_zoom":2.1,"strokeweig":1.0,"name_en":"Danube","min_label":3.1},
"geometry":{"type": "LineString","coordinates": [[25.933496093750023,43.87055084843162,16.9],[26.0537109375,43.934588934369117,17.4021],[26.061132812500006,43.95001862186912,18.3193],[26.078857421875,43.969256903119117,16.1945],[26.11572265625,43.99909088749412,20.9018],[26.150146484375,44.012713934369117,16.9401],[26.230859375000023,44.02777741093162,13.3749],[26.309960937500023,44.052850653119116,13.0789],[26.613671875000023,44.08515045780662,16.0737],[26.647216796875,44.093622137494116,19.085],[26.667236328125,44.095331121869116,15.8528],[26.676855468750006,44.09735748905662,15.4038],[26.69677734375,44.106317449994116,13.6872],[26.708251953125,44.10834381718162,13.1815],[26.753173828125,44.10834381718162,12.7533],[26.788964843750023,44.116229559369117,12.0012],[26.883544921875,44.15680573124412,13.7015],[27.001074218750006,44.16535065311912,11.0022],[27.026953125,44.17731354374412,10.1756],[27.099609375,44.14472077030662,14.057],[27.204980468750023,44.12946198124412,13.5632],[27.226171875,44.12091705936912,21.2625],[27.2666015625,44.13776276249412,11.7541]]}}