{"type":"Feature","properties":{"GID_1":"BGR.18_1","GID_0":"BGR","country":"Bulgaria","state":"Silistra","VARNAME_1":"NA","NL_NAME_1":"Силистра","TYPE_1":"Oblast","ENGTYPE_1":"Province","CC_1":"NA","HASC_1":"BG.SI","ISO_1":"BG-19","name":"Silistra.state"},
"geometry":{"type": "MultiPolygon","coordinates": [[[[27.3075,43.8042,185.5193],[27.3159,43.8135,203.0163],[27.3199,43.8149,205.1558],[27.3516,43.8144,225.7883],[27.3647,43.8195,194.7001],[27.3794,43.8297,174.4976],[27.4053,43.8542,155.7096],[27.4241,43.8669,171.7176],[27.4284,43.8682,174.3971],[27.4424,43.8702,125.9285],[27.4504,43.8695,109.6881],[27.4687,43.8498,171.8299],[27.4736,43.8466,171.8585],[27.4847,43.8458,212.769],[27.5,43.8564,158.9457],[27.5005,43.8603,185.8375],[27.5102,43.8791,211.1172],[27.516,43.9053,209.5496],[27.5199,43.9125,190.427],[27.527,43.9147,208.0796],[27.5321,43.9129,209.5466],[27.5426,43.9054,211.8365],[27.5579,43.8995,191.6304],[27.58,43.9038,189.0],[27.5936,43.91,197.6296],[27.5948,43.9164,187.4486],[27.5866,43.9245,197.7351],[27.5849,43.9327,199.645],[27.5877,43.9373,197.0084],[27.5927,43.9391,194.6186],[27.6034,43.9478,142.9532],[27.6046,43.956,176.3285],[27.6116,43.9678,176.1146],[27.6252,43.9791,92.2156],[27.6426,43.9812,105.1574],[27.66,43.9856,139.2975],[27.6838,43.9855,111.7577],[27.7011,43.966,173.687],[27.7113,43.9589,178.1988],[27.7252,43.9567,96.8926],[27.7115,43.9597,178.1988],[27.6751,44.0301,159.776],[27.645,44.0482,52.2483],[27.6134,44.0125,179.3819],[27.4702,44.0228,163.2778],[27.4009,44.0126,162.3146],[27.3723,44.0392,87.3038],[27.3576,44.059,87.2663],[27.2927,44.0755,133.74],[27.2921,44.0833,112.9165],[27.2813,44.0939,87.9925],[27.2784,44.0995,57.7552],[27.2778,44.1057,51.3216],[27.2856,44.1101,32.7005],[27.2781,44.1155,19.654],[27.2772,44.1194,15.3094],[27.2795,44.1227,4.0],[27.2776,44.1246,4.0],[27.2729,44.1266,4.0],[27.2655,44.1264,4.0],[27.2598,44.125,4.0],[27.2542,44.1205,4.0],[27.2416,44.1178,4.375],[27.2188,44.117,4.5],[27.1867,44.1208,4.5],[27.1664,44.132,6.4319],[27.1472,44.1388,5.0],[27.1354,44.1409,5.0],[27.105,44.1373,5.5],[27.0915,44.1334,5.7864],[27.0819,44.1333,5.5],[27.0625,44.1359,8.8859],[27.0509,44.1405,8.7321],[27.0489,44.1418,7.8971],[27.0496,44.1443,6.0],[27.0434,44.1449,6.0],[27.0238,44.1424,6.5],[26.996,44.1342,7.0],[26.9634,44.1365,7.0],[26.9248,44.1323,7.5],[26.9082,44.1336,7.5],[26.8829,44.1245,8.0],[26.8837,44.1233,8.0],[26.8424,44.1117,8.0],[26.8278,44.1037,8.0],[26.7794,44.0827,8.5],[26.7643,44.0782,8.75],[26.7252,44.073,9.3676],[26.7252,44.0748,21.0797],[26.7096,44.0765,15.6348],[26.6918,44.0747,9.5],[26.6643,44.0651,9.5],[26.6653,44.0631,10.2444],[26.6165,44.0565,10.0],[26.5943,44.0503,24.9297],[26.5719,44.0543,10.0],[26.5298,44.0539,10.0],[26.5036,44.047,10.5],[26.4592,44.0388,10.5],[26.4601,44.0364,29.0358],[26.4467,44.034,34.0631],[26.4361,44.0334,36.393],[26.436,44.0356,10.5],[26.4079,44.0377,14.8353],[26.4011,44.0405,10.5],[26.3815,44.0432,10.5],[26.3727,44.0424,36.086],[26.3444,44.0344,10.5],[26.3566,44.0235,15.9684],[26.3869,44.0134,14.2298],[26.3948,44.0084,15.0243],[26.3967,44.0031,18.0284],[26.3934,43.9986,28.1408],[26.3733,43.9817,29.409],[26.3754,43.9731,42.742],[26.3876,43.9589,45.8862],[26.4119,43.9584,48.9487],[26.4286,43.9615,41.7255],[26.4499,43.9565,40.9888],[26.4706,43.9549,76.1612],[26.4781,43.9508,106.3508],[26.4835,43.9402,105.1267],[26.4888,43.9341,114.3429],[26.4986,43.9319,74.5512],[26.5093,43.9331,115.1805],[26.5345,43.9417,52.3873],[26.5592,43.9475,32.6968],[26.5732,43.9483,75.2397],[26.5857,43.9464,78.5675],[26.5917,43.9372,95.8485],[26.6084,43.9244,96.2259],[26.6144,43.9008,107.4202],[26.624,43.8918,116.4808],[26.6728,43.8801,158.662],[26.6875,43.8733,155.6255],[26.7006,43.8635,153.3309],[26.7211,43.8622,181.2023],[26.7325,43.854,212.9521],[26.7635,43.8526,146.7398],[26.7694,43.8482,154.5555],[26.773,43.8354,187.4781],[26.777,43.8326,195.7905],[26.7892,43.8341,194.1841],[26.8011,43.8431,178.9397],[26.805,43.8433,184.1426],[26.8117,43.837,223.5916],[26.8176,43.8366,221.7674],[26.8352,43.8534,205.1822],[26.8398,43.8547,201.1107],[26.8472,43.8537,188.1347],[26.8508,43.8508,177.5689],[26.8589,43.8304,172.8544],[26.868,43.8198,214.5234],[26.8817,43.8111,219.6177],[26.9134,43.7988,185.165],[26.9161,43.7706,248.4917],[26.9216,43.7646,241.3926],[26.9486,43.7573,238.6393],[26.9613,43.7599,256.1996],[26.971,43.7577,236.7816],[26.9734,43.7543,251.0491],[26.9744,43.7476,224.028],[26.9809,43.7313,201.2322],[26.9912,43.723,253.1244],[27.0053,43.7174,265.1078],[27.0146,43.717,253.8075],[27.0348,43.7205,234.4331],[27.0671,43.7347,259.2649],[27.0736,43.736,255.3484],[27.0954,43.7356,240.2867],[27.1107,43.7281,233.3689],[27.1195,43.718,259.46],[27.1245,43.7056,264.3022],[27.1285,43.7014,274.1868],[27.1548,43.6828,274.1205],[27.1604,43.681,251.9442],[27.2172,43.6755,251.4643],[27.2355,43.6746,262.1125],[27.2472,43.6766,240.1465],[27.2547,43.6859,246.0043],[27.2519,43.6966,243.7692],[27.2423,43.7039,255.4743],[27.2216,43.7154,211.0351],[27.2183,43.7194,216.3329],[27.2209,43.7321,232.7805],[27.2203,43.7455,221.1431],[27.2268,43.756,204.3276],[27.2337,43.7592,163.8431],[27.2697,43.7681,220.5111],[27.2742,43.7714,236.9614],[27.2777,43.7774,213.1656],[27.3075,43.8042,185.5193]]]]}}