{"type":"Feature","properties":{"ISO3166-1-Alpha-3":"BGR","country":"Bulgaria","fill":"#00F","id":"2251","name":"Vratsa"},
"geometry":{"type": "Polygon","coordinates": [[[24.14961,43.75472,23.6147],[23.79992,43.81846,28.3132],[23.74287,43.8427,30.2852],[23.72075,43.84583,24.5823],[23.63611,43.83216,28.2326],[23.62085,43.83401,27.4214],[23.63332,43.80094,26.2064],[23.62247,43.7141,142.6534],[23.60665,43.67832,136.0046],[23.58681,43.64511,138.9285],[23.58422,43.63325,141.8929],[23.58578,43.62103,140.4586],[23.5741,43.60778,125.9709],[23.55642,43.59868,105.8813],[23.55105,43.58383,124.0044],[23.568,43.5716,115.4159],[23.57864,43.56597,79.6173],[23.59084,43.56305,77.5536],[23.59859,43.55334,58.1221],[23.60924,43.54553,138.4724],[23.62154,43.54055,134.8809],[23.62278,43.5283,157.8726],[23.60903,43.51923,149.7949],[23.59249,43.52701,138.1623],[23.56852,43.51344,124.0111],[23.54619,43.4944,132.5647],[23.52614,43.49337,148.6423],[23.50619,43.4944,171.4926],[23.48222,43.5053,110.9505],[23.44139,43.48802,190.1512],[23.4108,43.45593,188.6983],[23.41276,43.41748,185.193],[23.40501,43.37854,202.4112],[23.38072,43.35356,235.6516],[23.36036,43.32578,275.8218],[23.33566,43.30333,255.6625],[23.32719,43.27565,240.2747],[23.40191,43.25617,632.603],[23.46351,43.23147,972.2213],[23.45069,43.2086,948.371],[23.42465,43.20677,518.4309],[23.39664,43.18987,717.0846],[23.39891,43.16295,1132.2776],[23.43137,43.16197,685.7382],[23.46206,43.15031,1307.434],[23.46981,43.13685,1401.4465],[23.44863,43.13664,1283.901],[23.43457,43.12814,973.4253],[23.43519,43.10825,780.9681],[23.45028,43.09747,332.3365],[23.46713,43.089,338.0413],[23.49358,43.07055,462.3363],[23.51694,43.04833,978.9026],[23.53203,43.026,974.9236],[23.5526,43.00916,1298.1318],[23.59167,43.02673,1062.7017],[23.63435,43.05303,727.0541],[23.65016,43.0421,566.9542],[23.66536,43.0283,472.048],[23.69171,43.0273,751.3674],[23.71672,43.03461,575.6262],[23.73843,43.05479,429.2546],[23.76602,43.06786,437.0706],[23.80354,43.05608,484.8206],[23.90235,43.0428,333.4875],[23.91857,43.0367,549.9482],[23.93562,43.02776,658.7932],[23.95909,43.03949,699.6847],[23.97748,43.05988,655.2467],[23.96374,43.08623,590.6284],[23.95836,43.1145,269.5431],[23.97376,43.12215,299.3323],[23.99102,43.11086,430.1987],[24.01634,43.11075,377.1564],[24.02678,43.13323,305.5674],[24.03495,43.17331,147.8203],[24.02678,43.21173,275.3089],[23.9594,43.23163,330.352],[23.95071,43.24516,341.5394],[23.96084,43.26516,362.3645],[23.97862,43.29459,390.1177],[24.05241,43.31581,103.9851],[24.06719,43.31302,88.7795],[24.08187,43.30808,99.9541],[24.09293,43.3187,85.8732],[24.11194,43.32774,84.2874],[24.14584,43.32924,79.2322],[24.18067,43.32493,124.586],[24.22811,43.34307,187.2446],[24.23648,43.40097,63.1962],[24.24424,43.42045,61.8051],[24.2432,43.4375,59.5634],[24.22491,43.48453,53.5559],[24.17871,43.49135,113.7199],[24.15143,43.52236,140.2893],[24.14016,43.55843,91.4839],[24.12021,43.58899,151.3226],[24.14512,43.60602,152.3474],[24.1723,43.62997,158.7425],[24.19948,43.64741,133.9576],[24.23152,43.64504,110.13],[24.28754,43.66524,144.4384],[24.32899,43.71123,23.9559],[24.33671,43.75925,40.8943],[24.15938,43.75294,21.6277],[24.14961,43.75472,23.6147]]]}}