{"type":"Feature","properties":{"GID_1":"BGR.27_1","GID_0":"BGR","country":"Bulgaria","state":"Vratsa","VARNAME_1":"Vraca","NL_NAME_1":"Враца","TYPE_1":"Oblast","ENGTYPE_1":"Province","CC_1":"NA","HASC_1":"BG.VR","ISO_1":"BG-06","name":"Vratsa.state"},
"geometry":{"type": "MultiPolygon","coordinates": [[[[23.7803,43.0568,407.8265],[23.7991,43.0576,469.3861],[23.8174,43.0433,407.8435],[23.8236,43.0411,485.7661],[23.8523,43.0392,424.7325],[23.8787,43.0436,345.5922],[23.8958,43.0442,255.8462],[23.9061,43.0426,348.6643],[23.9508,43.0275,854.9235],[23.9662,43.0284,900.5722],[23.9699,43.0301,770.0411],[23.9745,43.0363,520.2703],[23.9762,43.0529,806.7361],[23.9832,43.0744,462.373],[23.9813,43.085,564.6733],[23.9732,43.1054,272.5922],[23.9737,43.1118,356.9844],[23.9809,43.1149,336.3853],[24.0136,43.1139,313.3613],[24.0332,43.1154,380.6649],[24.0515,43.118,394.7576],[24.0566,43.1205,339.0314],[24.0524,43.1349,303.8016],[24.0484,43.1396,258.2263],[24.0475,43.1433,294.686],[24.0519,43.1604,366.6503],[24.0494,43.1667,296.7018],[24.0473,43.1802,184.9622],[24.0541,43.2024,225.6962],[24.0505,43.2142,149.0421],[24.0385,43.2242,301.8571],[24.0211,43.234,271.1543],[24.008,43.2347,211.1581],[23.9952,43.2268,271.2888],[23.9887,43.2261,185.7981],[23.9847,43.2276,291.086],[23.9715,43.2418,295.0669],[23.9688,43.2492,309.0002],[23.9777,43.257,333.5468],[23.9799,43.2902,347.2282],[23.9814,43.2975,315.985],[23.9851,43.3025,222.437],[23.9869,43.3157,136.5069],[23.9854,43.3248,208.2632],[23.9763,43.3473,206.9191],[23.9772,43.3543,201.4855],[23.9849,43.3628,185.1055],[24.0167,43.377,178.8728],[24.0187,43.3898,169.8195],[24.0225,43.3969,176.1352],[24.027,43.4013,179.0099],[24.0391,43.4059,170.1822],[24.0486,43.4118,162.2234],[24.0545,43.4194,163.1173],[24.0658,43.4252,158.5425],[24.0768,43.4366,163.5781],[24.0805,43.4452,160.9882],[24.0798,43.4521,161.0903],[24.0767,43.4574,156.0279],[24.0489,43.4757,141.2208],[24.0415,43.4847,136.6291],[24.0368,43.5109,154.8714],[24.0301,43.5258,112.176],[24.0262,43.5299,142.1359],[24.0232,43.5365,158.2904],[24.025,43.5421,145.9809],[24.038,43.5526,145.4292],[24.0395,43.5561,151.003],[24.0473,43.5946,156.2394],[24.0468,43.607,154.6411],[24.0555,43.6105,156.5915],[24.0661,43.6202,154.3212],[24.072,43.6228,153.3753],[24.08,43.623,152.8535],[24.0959,43.618,153.0885],[24.1017,43.6187,154.3251],[24.1092,43.6242,155.3454],[24.1144,43.6256,156.5128],[24.1215,43.6242,156.6068],[24.1302,43.6149,155.3441],[24.1448,43.6148,154.7596],[24.1501,43.6123,154.6344],[24.1659,43.6105,153.2327],[24.1751,43.6114,152.7802],[24.1898,43.6204,153.6709],[24.2118,43.6547,146.7349],[24.2217,43.6635,182.9485],[24.2334,43.6627,150.2022],[24.2533,43.6474,125.6746],[24.2606,43.645,131.0125],[24.2625,43.6455,151.2424],[24.2644,43.649,131.4347],[24.2665,43.6603,177.6668],[24.2717,43.6624,174.4369],[24.2757,43.6613,170.7107],[24.2868,43.6513,159.7007],[24.2972,43.6516,157.3165],[24.3045,43.6619,121.3887],[24.3117,43.6823,164.7151],[24.3211,43.7003,20.0],[24.3125,43.7007,20.0],[24.2932,43.6983,20.0],[24.257,43.6917,20.0],[24.2326,43.6893,20.0],[24.2204,43.6859,20.0],[24.2004,43.6849,20.0],[24.188,43.6827,20.0],[24.1749,43.6829,20.0],[24.1602,43.6859,20.0],[24.143,43.6931,20.0],[24.1251,43.6976,20.0],[24.0879,43.7025,20.0],[24.0736,43.7113,20.0],[24.0749,43.7127,21.0754],[24.0711,43.7153,21.1656],[24.0623,43.7192,20.0],[24.0212,43.7295,20.0],[23.9902,43.7399,20.0],[23.9683,43.7449,20.0],[23.9279,43.7454,20.0],[23.8649,43.7554,20.5],[23.8326,43.7662,21.0],[23.8337,43.7678,21.0],[23.8119,43.7759,21.0],[23.811,43.7743,21.0],[23.7832,43.78,21.0],[23.7667,43.7862,21.0],[23.7552,43.7982,21.0],[23.757,43.8004,21.0],[23.7514,43.8016,21.25],[23.7023,43.8044,21.5],[23.6965,43.803,21.5],[23.6875,43.8033,21.5],[23.6712,43.8009,21.5],[23.6329,43.7917,21.5],[23.6228,43.7914,21.5],[23.6273,43.7732,95.6096],[23.6346,43.759,96.5796],[23.6352,43.7516,83.9972],[23.6338,43.7438,112.6872],[23.6194,43.7284,145.5959],[23.6161,43.7226,141.586],[23.6073,43.6916,142.4026],[23.5934,43.683,134.7072],[23.5899,43.6699,136.7051],[23.5896,43.6513,138.007],[23.5864,43.6425,139.5217],[23.583,43.6373,138.6782],[23.553,43.6113,135.4702],[23.5497,43.6058,133.3744],[23.5485,43.5983,84.5452],[23.5494,43.5941,95.9978],[23.5567,43.5887,116.6924],[23.6025,43.5622,58.3835],[23.616,43.5524,127.3487],[23.6274,43.5394,142.293],[23.6273,43.5312,155.8064],[23.6236,43.528,157.8726],[23.619,43.5268,154.3906],[23.576,43.528,110.3585],[23.5684,43.5218,131.1819],[23.5572,43.5079,141.6839],[23.5513,43.5044,132.9234],[23.5421,43.5018,144.7789],[23.5293,43.5018,159.5716],[23.5139,43.5056,130.7001],[23.5011,43.5053,125.6491],[23.4923,43.5033,102.1205],[23.4898,43.5048,90.0639],[23.4777,43.5055,94.305],[23.4582,43.5131,91.5302],[23.4521,43.5139,113.4952],[23.4422,43.5137,125.8103],[23.4352,43.5104,112.8322],[23.4314,43.5072,161.8583],[23.4209,43.4837,178.2452],[23.4019,43.4484,149.823],[23.4031,43.4248,195.7739],[23.4088,43.4186,175.3956],[23.4121,43.4073,200.7708],[23.4119,43.4026,186.5187],[23.408,43.3927,215.2843],[23.3958,43.3851,247.0041],[23.3927,43.3812,238.383],[23.3877,43.373,263.7119],[23.3833,43.3563,248.6617],[23.3703,43.3382,290.0605],[23.3592,43.3294,273.4044],[23.3298,43.3111,205.6753],[23.3212,43.2908,268.6745],[23.336,43.2811,226.5192],[23.3578,43.2732,278.5651],[23.3921,43.2652,272.1828],[23.4078,43.265,440.3883],[23.4326,43.2615,588.294],[23.4426,43.2561,755.8979],[23.4528,43.2468,876.1868],[23.4586,43.238,960.0315],[23.4604,43.2312,1024.2528],[23.4579,43.2186,989.7357],[23.4548,43.2155,1057.3],[23.4474,43.2132,917.9727],[23.421,43.2143,430.4086],[23.4108,43.2107,394.4691],[23.4029,43.1991,446.6242],[23.4048,43.1806,504.1945],[23.4192,43.1625,799.765],[23.4206,43.1586,1063.0302],[23.4537,43.1549,1296.5955],[23.481,43.1538,1129.6873],[23.4948,43.1518,1197.7781],[23.4973,43.15,1221.2037],[23.4992,43.1444,1168.5909],[23.4965,43.1309,1036.9368],[23.4715,43.109,761.7821],[23.4676,43.1038,614.017],[23.4673,43.1007,543.2224],[23.4736,43.0931,523.1532],[23.4834,43.0733,337.6978],[23.5081,43.0551,878.9468],[23.5234,43.0395,1015.9164],[23.532,43.0264,974.9236],[23.543,43.0046,1455.7017],[23.5525,42.9942,1429.7904],[23.5634,42.9863,1478.9995],[23.5735,42.9845,1427.2146],[23.5901,42.9898,1114.8967],[23.5991,42.9968,991.3093],[23.615,43.0159,680.4244],[23.6224,43.0213,676.7225],[23.6358,43.0272,582.5917],[23.6517,43.0403,547.7662],[23.6617,43.0384,622.3795],[23.687,43.0214,604.7772],[23.6992,43.02,670.6558],[23.716,43.0254,735.2972],[23.7496,43.0479,491.5316],[23.7803,43.0568,407.8265]]]]}}