{"type":"Feature","properties":{"GID_2":"BGR.1.8_1","GID_0":"BGR","country":"Bulgaria","GID_1":"BGR.1_1","state":"Blagoevgrad","NL_NAME_1":"Благоевград","county":"Petrich","VARNAME_2":"NA","NL_NAME_2":"Петрич","TYPE_2":"Obshtina","ENGTYPE_2":"Municipality","CC_2":"NA","HASC_2":"BG.BL.PE","name":"Petrich.county"},
"geometry":{"type": "MultiPolygon","coordinates": [[[[22.944,41.5348,1138.7944],[22.9334,41.5327,1263.6167],[22.9316,41.5247,1025.3129],[22.9364,41.5151,1272.7844],[22.9451,41.5081,1151.2505],[22.9431,41.4951,1377.0596],[22.9342,41.4899,1166.0056],[22.9298,41.4836,1034.8892],[22.9327,41.4803,938.2367],[22.9335,41.4667,804.5963],[22.9399,41.4645,738.011],[22.9362,41.4558,659.5544],[22.9378,41.4517,654.8107],[22.9486,41.4434,695.3934],[22.9525,41.4371,674.0492],[22.9402,41.4206,387.412],[22.9341,41.4202,382.3505],[22.925,41.4087,280.2077],[22.926,41.4019,205.3945],[22.9332,41.3987,233.0521],[22.9332,41.3964,224.8645],[22.9412,41.3867,197.938],[22.9394,41.3817,226.6847],[22.9394,41.374,279.952],[22.9455,41.3614,665.3587],[22.9469,41.3535,1054.5664],[22.9452,41.351,1147.9972],[22.9336,41.3507,1223.4305],[22.932,41.3491,1347.7845],[22.9362,41.3364,1693.9556],[22.9594,41.3333,1626.3762],[22.9668,41.336,1673.8644],[22.981,41.332,1515.2333],[23.0,41.3305,1860.3438],[23.0064,41.3307,1816.3845],[23.0137,41.3343,1704.7454],[23.0379,41.3293,1633.193],[23.0598,41.321,1656.3715],[23.0845,41.3177,1639.8474],[23.0931,41.3174,1745.1501],[23.1025,41.3209,1644.1211],[23.132,41.3203,1956.3989],[23.1469,41.3227,1820.4486],[23.1599,41.3216,1918.67],[23.1665,41.3191,1739.5977],[23.1749,41.323,1912.0786],[23.1848,41.3228,1651.5518],[23.1935,41.3282,1384.0367],[23.2011,41.3303,1394.5883],[23.2115,41.3371,1129.147],[23.2115,41.3417,1026.1008],[23.218,41.3514,853.8582],[23.2164,41.354,892.8523],[23.2175,41.368,704.9834],[23.2232,41.3718,787.3754],[23.2227,41.3764,578.1055],[23.2316,41.3769,762.9199],[23.2338,41.3806,620.1369],[23.2472,41.3822,550.0988],[23.2479,41.3841,500.4131],[23.2531,41.3864,448.7499],[23.2535,41.3894,371.1843],[23.2586,41.3911,335.6702],[23.2625,41.3947,290.2379],[23.2649,41.3947,304.2685],[23.2704,41.3993,252.3896],[23.2929,41.4004,283.2676],[23.2981,41.3978,246.5836],[23.3079,41.3995,214.8611],[23.3113,41.3967,143.8286],[23.3207,41.3982,100.9505],[23.3364,41.3664,75.6705],[23.3461,41.3723,68.6188],[23.3518,41.3786,72.812],[23.3689,41.383,80.8052],[23.3696,41.3852,83.0085],[23.3731,41.3863,86.0769],[23.3741,41.3889,105.8487],[23.3777,41.3909,122.7586],[23.3817,41.3924,100.0634],[23.3855,41.3919,99.2215],[23.3901,41.4002,144.8756],[23.394,41.4008,129.1542],[23.3894,41.4212,173.7487],[23.3889,41.4339,162.3041],[23.3877,41.4358,177.2321],[23.3729,41.4407,184.6781],[23.3706,41.4469,204.4249],[23.371,41.4675,202.8268],[23.3637,41.4763,246.0119],[23.3586,41.4795,272.9974],[23.3516,41.4793,248.5214],[23.3338,41.4718,227.7213],[23.3241,41.4695,201.8272],[23.3141,41.4686,177.3511],[23.2994,41.4703,172.3284],[23.2744,41.4816,89.5],[23.235,41.5121,306.0838],[23.2014,41.5337,242.6441],[23.2059,41.5321,340.1207],[23.1971,41.5364,304.619],[23.1767,41.5392,454.7784],[23.1597,41.546,682.4641],[23.1364,41.5462,840.389],[23.115,41.5413,869.0498],[23.1023,41.5331,925.832],[23.0935,41.5305,690.9651],[23.0868,41.5304,768.2188],[23.0795,41.5343,838.1691],[23.0661,41.5474,799.429],[23.0575,41.5496,768.708],[23.0476,41.5483,940.4882],[23.0374,41.5397,972.8802],[23.0228,41.5337,1159.7738],[23.0128,41.5337,1127.3474],[22.9994,41.5386,1022.5858],[22.985,41.5374,998.3475],[22.9656,41.5406,1202.3306],[22.9562,41.5399,1165.3248],[22.944,41.5348,1138.7944]]]]}}