{"type":"Feature","properties":{"GID_2":"BGR.13.10_1","GID_0":"BGR","country":"Bulgaria","GID_1":"BGR.13_1","state":"Pleven","NL_NAME_1":"Плевенска","county":"Pleven","VARNAME_2":"Plevenska","NL_NAME_2":"Плевенска","TYPE_2":"City","ENGTYPE_2":"City","CC_2":"NA","HASC_2":"BG.PV.PL","name":"Pleven.county"},
"geometry":{"type": "MultiPolygon","coordinates": [[[[24.4594,43.246,258.4212],[24.4641,43.2415,290.1167],[24.4717,43.2385,294.6666],[24.5128,43.2375,296.2389],[24.5448,43.2279,353.873],[24.5929,43.2263,365.3029],[24.6105,43.2301,298.4662],[24.6351,43.2313,378.2437],[24.6425,43.2348,409.1339],[24.6471,43.2406,389.76],[24.6476,43.2579,357.8097],[24.6523,43.2738,326.4383],[24.6628,43.2817,325.416],[24.6671,43.2794,332.9009],[24.6708,43.2687,376.4489],[24.6773,43.2609,388.3233],[24.6812,43.2583,404.1277],[24.6867,43.2584,396.6204],[24.689,43.2598,397.7947],[24.6962,43.2748,354.301],[24.7043,43.2824,341.4621],[24.7174,43.2914,322.6844],[24.7445,43.3044,313.4008],[24.7729,43.3155,308.2345],[24.8091,43.3266,249.2255],[24.838,43.3279,197.5163],[24.839,43.3361,191.6692],[24.8457,43.3507,193.4609],[24.8572,43.3616,177.4178],[24.8575,43.3657,175.9442],[24.8562,43.3669,177.6237],[24.8354,43.373,178.9966],[24.8106,43.3647,215.6307],[24.7938,43.3661,264.0688],[24.7805,43.3714,259.3381],[24.7694,43.3806,272.8467],[24.7662,43.3885,295.1614],[24.767,43.3923,282.4298],[24.7689,43.3973,266.7785],[24.7799,43.4098,246.7489],[24.786,43.4259,224.6601],[24.7928,43.4303,212.7627],[24.8164,43.4361,196.5115],[24.8277,43.4366,184.1485],[24.8472,43.4328,158.1061],[24.8766,43.4382,137.3319],[24.8845,43.4429,116.2106],[24.8953,43.4542,128.9334],[24.9031,43.4595,103.3295],[24.9453,43.4722,42.4361],[24.9472,43.4738,42.2616],[24.9456,43.481,45.8641],[24.9418,43.487,52.0235],[24.9231,43.4989,109.2015],[24.9141,43.5056,151.3072],[24.9115,43.5096,155.8115],[24.8935,43.5141,168.1904],[24.8763,43.5239,161.8458],[24.8737,43.5264,149.1776],[24.871,43.5372,137.4562],[24.8691,43.5388,144.3781],[24.8638,43.5393,136.6443],[24.8502,43.5316,132.5177],[24.8438,43.5301,114.9521],[24.8353,43.5314,89.7393],[24.8328,43.536,117.898],[24.8329,43.5453,119.3109],[24.8457,43.556399999999996,121.7067],[24.8462,43.5595,136.3068],[24.8305,43.5674,147.5436],[24.8286,43.5697,147.7786],[24.829,43.5753,158.8572],[24.8269,43.5823,140.3488],[24.8216,43.5858,146.2618],[24.8178,43.586,124.6835],[24.8097,43.5837,119.4944],[24.8037,43.5789,127.5286],[24.7958,43.5778,102.7668],[24.7865,43.5732,139.5836],[24.7799,43.572,160.6753],[24.7615,43.5733,166.5401],[24.7467,43.5697,192.9357],[24.7193,43.5668,77.2149],[24.7149,43.5617,130.4534],[24.7081,43.5491,183.8135],[24.6917,43.5374,193.6868],[24.6884,43.5318,181.4777],[24.6895,43.5246,205.6686],[24.7023,43.5133,191.5836],[24.7044,43.5103,147.5878],[24.7055,43.5038,179.9257],[24.7033,43.496,177.4241],[24.7006,43.492,172.3188],[24.6902,43.4869,166.4887],[24.6795,43.4847,197.3177],[24.6612,43.4854,208.0698],[24.6458,43.4804,207.7717],[24.6377,43.4795,195.0761],[24.6235,43.483,198.4401],[24.6097,43.4914,209.3244],[24.6005,43.4936,173.2384],[24.5901,43.4912,161.8934],[24.5723,43.4814,71.6558],[24.5664,43.4827,63.9826],[24.5584,43.4886,46.6351],[24.5549,43.4889,45.1604],[24.5526,43.4846,44.5427],[24.5536,43.4768,47.6603],[24.5525,43.4679,48.046],[24.5497,43.4633,50.8508],[24.5402,43.461,53.7927],[24.5096,43.4629,67.4948],[24.4996,43.4604,78.6089],[24.4938,43.457,95.4699],[24.4902,43.451,95.882],[24.4879,43.4504,95.1033],[24.4909,43.4476,91.7435],[24.4937,43.423,74.1807],[24.4911,43.4125,71.4015],[24.4796,43.4052,73.9022],[24.4668,43.4015,87.8227],[24.4627,43.3955,95.7134],[24.4702,43.3901,76.1747],[24.4938,43.3833,68.1979],[24.5133,43.3748,91.5682],[24.5292,43.3621,102.8887],[24.5384,43.3569,149.1166],[24.555,43.355,194.7511],[24.5605,43.3502,221.553],[24.5614,43.3473,219.6503],[24.5598,43.3393,207.8194],[24.5486,43.3154,248.7161],[24.5395,43.3083,260.9665],[24.5306,43.3049,289.3055],[24.5164,43.2965,263.5635],[24.4916,43.2951,297.1212],[24.4916,43.2917,278.0568],[24.5045,43.2877,293.2585],[24.5063,43.2855,294.1464],[24.5071,43.2825,302.0598],[24.5048,43.2774,316.4464],[24.4921,43.2766,299.4406],[24.4827,43.2789,301.9154],[24.4679,43.2905,252.4841],[24.459,43.2957,253.0166],[24.4527,43.2966,255.7638],[24.4336,43.2937,264.7186],[24.4125,43.284,226.5356],[24.4129,43.2793,263.9882],[24.4156,43.2764,260.2739],[24.4513,43.2591,184.23],[24.4594,43.246,258.4212]]]]}}