{"type": "Feature","id": "2257","bbox": [25.94615,42.94906,26.78134,43.54768],"geometry": {"type": "Polygon","coordinates": [[[26.4872,43.34971,187.5112],[26.48007,43.37895,244.5429],[26.48534,43.41766,461.972],[26.43418,43.42996,336.5696],[26.37382,43.43575,292.4684],[26.36049,43.44148,269.1333],[26.3485,43.44861,210.4893],[26.36369,43.48357,401.2924],[26.32277,43.5151,391.8859],[26.2715,43.5377,371.7534],[26.22727,43.54768,215.0473],[26.18417,43.53595,227.9602],[26.16433,43.52742,343.8078],[26.13911,43.53088,337.3127],[26.11689,43.52747,300.4145],[26.09405,43.53093,211.4561],[26.07048,43.51781,122.8368],[26.03917,43.50727,183.1182],[26.03389,43.47505,321.0367],[26.01963,43.45332,355.9655],[25.99648,43.4357,307.5012],[25.97064,43.42179,254.953],[25.94615,43.41658,297.2081],[25.95173,43.39404,323.5778],[25.9694,43.37384,373.938],[25.99617,43.37131,425.6639],[26.0188,43.3634,406.4456],[26.02222,43.34146,325.4865],[26.02046,43.31885,339.1026],[26.0588,43.30821,247.6697],[26.08629,43.28542,297.1155],[26.06521,43.26878,221.8225],[26.06345,43.24656,139.5953],[26.09622,43.21488,183.8116],[26.10769,43.17793,392.233],[26.09374,43.17574,416.8609],[26.07916,43.17581,400.8889],[26.07276,43.16135,322.3369],[26.07307,43.14414,411.098],[26.05911,43.12238,366.4667],[26.05725,43.09845,210.7852],[26.07017,43.07706,362.8475],[26.08164,43.05476,264.6993],[26.0864,43.03954,429.8409],[26.09839,43.03035,672.9062],[26.11213,43.02681,538.9179],[26.11131,43.01378,372.9797],[26.08939,43.00006,484.8558],[26.09456,42.97748,676.3585],[26.13559,42.97076,557.0014],[26.17197,42.94906,440.357],[26.19874,42.95224,485.579],[26.22427,42.95872,586.1943],[26.23688,42.97293,542.575],[26.25135,42.98577,599.8263],[26.26799,42.99133,766.983],[26.27471,43.00484,745.3141],[26.27564,43.02027,626.3141],[26.27471,43.03466,656.3621],[26.29176,43.03174,747.8314],[26.3085,43.03236,619.121],[26.33579,43.04151,620.6694],[26.3609,43.03303,673.7781],[26.35636,43.02112,866.6916],[26.36338,43.01001,850.0129],[26.37362,43.01515,738.02],[26.38126,43.02502,671.9978],[26.41868,43.00632,590.7415],[26.44421,43.00518,557.1962],[26.46901,43.00936,481.5983],[26.49144,43.01986,308.5217],[26.51345,43.0134,389.6463],[26.54291,42.99846,338.228],[26.57433,42.98658,404.29],[26.59086,42.99151,331.9547],[26.60513,43.00218,293.445],[26.62983,43.00647,237.4776],[26.62828,43.0236,221.9928],[26.61422,43.03768,251.3052],[26.62735,43.0473,272.3246],[26.64502,43.04923,249.6839],[26.65391,43.06621,294.1956],[26.65649,43.08099,305.0667],[26.67799,43.08489,267.9599],[26.68626,43.09892,260.4979],[26.66734,43.10724,282.3531],[26.65691,43.12124,301.3681],[26.67789,43.14636,678.2968],[26.70993,43.15514,402.2728],[26.72388,43.17457,261.8578],[26.73535,43.20046,194.1768],[26.74992,43.20915,179.7382],[26.76429,43.20935,177.3477],[26.76605,43.25219,153.846],[26.73349,43.29751,194.6693],[26.73907,43.32051,166.5],[26.74868,43.34371,223.3836],[26.76253,43.35854,302.9192],[26.78134,43.36815,375.8409],[26.77266,43.40348,425.6941],[26.72305,43.41094,304.5602],[26.70176,43.41508,321.7199],[26.68119,43.41531,259.9277],[26.67706,43.37653,288.7177],[26.65608,43.37203,325.0508],[26.63417,43.36934,270.8842],[26.59841,43.34216,206.4089],[26.57412,43.34206,215.1017],[26.55045,43.34981,192.5644],[26.4872,43.34971,187.5112]]]}
,"properties": {"ISO3166-1-Alpha-3": "BGR","country": "Bulgaria","fill": "#F00","name": "Targovishte","area_km2": 2717.505,"hist_schema_id": "Elevation0-9000","hist_area_km2": {"125": 27.064,"150": 62.37,"175": 129.62,"200": 175.188,"225": 193.91,"250": 175.029,"275": 180.487,"300": 190.59,"325": 204.699,"350": 209.181,"375": 202.813,"400": 187.131,"425": 184.517,"450": 169.622,"475": 128.601,"500": 83.352,"525": 58.535,"550": 48.708,"575": 36.537,"600": 23.371,"625": 17.313,"650": 10.733,"675": 7.065,"700": 4.169,"725": 3.069,"750": 1.566,"775": 1.333,"800": 0.651,"825": 0.171,"850": 0.109}}}