{"type":"Feature","properties":{"GID_1":"BGR.23_1","GID_0":"BGR","country":"Bulgaria","state":"Targovishte","VARNAME_1":"Torgovishte|Tâgovište","NL_NAME_1":"Търговищка","TYPE_1":"Oblast","ENGTYPE_1":"Province","CC_1":"NA","HASC_1":"BG.TU","ISO_1":"BG-25","name":"Targovishte.state"},
"geometry":{"type": "MultiPolygon","coordinates": [[[[26.6536,43.0945,229.8215],[26.6646,43.0967,231.4843],[26.6804,43.0972,260.2168],[26.6878,43.1025,269.0761],[26.6872,43.108,281.3276],[26.6808,43.1165,321.5327],[26.6706,43.1263,366.8218],[26.6653,43.1391,575.7161],[26.6647,43.1445,588.1447],[26.6667,43.1533,619.6207],[26.6766,43.1658,415.4398],[26.6767,43.1672,446.469],[26.6713,43.1712,428.7811],[26.6704,43.1764,316.4471],[26.6759,43.1809,271.7873],[26.6803,43.1809,269.0195],[26.7003,43.1731,308.665],[26.7128,43.174,276.7783],[26.7163,43.1778,303.0731],[26.7179,43.1838,234.2356],[26.7193,43.1929,221.464],[26.7178,43.2061,184.5409],[26.7241,43.2212,179.1079],[26.7382,43.2306,158.0095],[26.7525,43.2365,147.3585],[26.7687,43.2467,113.8065],[26.7755,43.2572,111.6929],[26.7778,43.2668,122.7646],[26.7775,43.2731,154.9391],[26.7723,43.2811,133.2342],[26.7509,43.2894,193.6286],[26.7404,43.2954,196.747],[26.7377,43.2985,193.7909],[26.7359,43.3074,224.3699],[26.7367,43.3133,213.071],[26.7435,43.3235,217.0864],[26.747,43.334,179.4738],[26.7644,43.3572,328.6984],[26.771,43.3772,408.7184],[26.7741,43.3815,380.3993],[26.7669,43.3838,379.9721],[26.7527,43.3841,406.6133],[26.7485,43.3819,377.3675],[26.7435,43.374,352.4069],[26.7348,43.3712,331.9265],[26.7308,43.3726,319.5],[26.7251,43.3783,336.6038],[26.7203,43.3801,351.0444],[26.6995,43.3737,347.3545],[26.6955,43.3751,334.4716],[26.6918,43.3811,291.9606],[26.6891,43.3828,288.8563],[26.6839,43.3839,282.444],[26.6793,43.3828,289.16],[26.6754,43.3792,306.2306],[26.6691,43.3576,353.1209],[26.6625,43.3494,361.4865],[26.6562,43.3471,368.3556],[26.6464,43.3472,348.3668],[26.6372,43.3495,284.8451],[26.624,43.3473,240.0647],[26.6204,43.3481,278.4202],[26.6108,43.353,276.5975],[26.6029,43.3616,220.3636],[26.5972,43.3633,266.1554],[26.5913,43.3672,277.9478],[26.5757,43.3728,297.52],[26.5539,43.3763,223.2222],[26.5454,43.3766,209.1039],[26.5368,43.3746,204.32],[26.5247,43.3666,224.207],[26.5105,43.362,222.4553],[26.4852,43.3697,275.9622],[26.468,43.3678,208.1509],[26.4667,43.3641,201.2824],[26.4682,43.3616,198.1583],[26.4771,43.3547,217.5121],[26.4774,43.3519,190.1073],[26.469,43.3434,226.7582],[26.4521,43.3376,240.071],[26.4454,43.3328,206.5612],[26.4437,43.3209,219.2735],[26.4474,43.3044,371.0685],[26.4508,43.2979,468.1494],[26.4504,43.2945,485.957],[26.4461,43.2875,431.7698],[26.4413,43.2839,389.6207],[26.4371,43.2831,395.8503],[26.4215,43.2807,387.6822],[26.4052,43.2803,373.4127],[26.3884,43.2766,401.9431],[26.3809,43.2803,392.7482],[26.371,43.2926,270.3304],[26.3698,43.2977,250.643],[26.372,43.3021,273.1588],[26.3772,43.3046,331.0837],[26.3911,43.3062,386.0326],[26.3979,43.3098,380.3182],[26.3991,43.3132,380.3941],[26.3975,43.3189,408.9707],[26.3839,43.3216,275.1336],[26.3759,43.329,256.8698],[26.354,43.3292,321.723],[26.3465,43.3316,299.3409],[26.3411,43.3407,453.3089],[26.3395,43.3481,471.6587],[26.3348,43.3538,454.2411],[26.3336,43.36,375.2515],[26.3539,43.3652,328.8413],[26.3622,43.3696,300.4645],[26.3794,43.3691,315.328],[26.3885,43.3795,314.8708],[26.4024,43.3839,247.2237],[26.4189,43.3928,321.2262],[26.4315,43.3976,270.5281],[26.4389,43.403,301.3626],[26.4445,43.4098,366.9154],[26.4639,43.4232,474.1137],[26.4679,43.4283,458.4358],[26.4663,43.4342,402.3783],[26.4604,43.4417,363.493],[26.4603,43.4446,385.1528],[26.4615,43.4511,354.455],[26.4683,43.4569,396.1621],[26.4689,43.4599,387.2666],[26.456,43.4654,357.6016],[26.4447,43.4653,348.8802],[26.3964,43.4563,270.3133],[26.3813,43.4569,267.2681],[26.3723,43.4601,243.7258],[26.3613,43.4687,261.3039],[26.3582,43.4753,327.8955],[26.358,43.4858,392.0421],[26.3602,43.4994,431.5156],[26.3591,43.504,391.2543],[26.3552,43.5086,380.7552],[26.3291,43.515,351.5266],[26.3236,43.5199,395.0762],[26.3147,43.532,371.9335],[26.3117,43.5402,348.3012],[26.3011,43.5443,360.2893],[26.272,43.5515,363.1078],[26.2609,43.5598,354.1036],[26.2495,43.5723,296.6301],[26.2341,43.5745,292.3359],[26.2263,43.5739,302.2384],[26.222,43.5714,302.5236],[26.2069,43.554,134.8116],[26.2037,43.5447,165.0714],[26.1974,43.541,227.6795],[26.1913,43.5402,207.9589],[26.1776,43.5423,321.4031],[26.1615,43.5363,336.3317],[26.1476,43.5364,252.645],[26.133,43.5316,339.8497],[26.1229,43.5328,314.2998],[26.1187,43.5352,310.4676],[26.1182,43.5371,302.4025],[26.0887,43.5331,190.6468],[26.0702,43.5276,179.9987],[26.047,43.5248,117.7589],[26.0413,43.5178,124.6155],[26.0383,43.509,181.1642],[26.0403,43.4942,313.5705],[26.0381,43.4829,361.0501],[26.0314,43.4733,327.7097],[26.0116,43.454,341.0487],[26.0014,43.4342,364.3838],[25.9937,43.4277,248.9795],[25.9845,43.4229,234.3561],[25.9723,43.4188,274.8417],[25.9574,43.4165,289.6984],[25.9553,43.4132,279.1992],[25.9625,43.4058,341.3257],[25.9777,43.3949,302.3665],[26.0097,43.3838,430.8138],[26.0272,43.3718,427.2528],[26.0292,43.363,425.2372],[26.0247,43.3423,323.964],[26.0269,43.328,313.9951],[26.0497,43.3259,343.9438],[26.0624,43.3212,352.2571],[26.0938,43.3054,381.2284],[26.101,43.297,266.6915],[26.1022,43.2947,269.9423],[26.1004,43.289,304.0874],[26.0912,43.2826,301.9023],[26.0716,43.2732,266.8492],[26.0698,43.2662,170.2525],[26.0713,43.2639,240.0351],[26.0916,43.2567,265.8065],[26.0947,43.2525,252.3427],[26.0955,43.2468,305.7301],[26.1069,43.233,337.376],[26.1229,43.2278,324.0521],[26.1288,43.2147,228.7316],[26.1286,43.2067,313.9178],[26.1253,43.2004,365.7568],[26.1177,43.1933,285.9926],[26.0959,43.1816,418.6295],[26.0917,43.1775,410.4442],[26.0906,43.1747,405.2678],[26.0915,43.1561,404.2171],[26.0831,43.1453,482.6035],[26.0832,43.1242,375.7269],[26.0809,43.1161,371.748],[26.076,43.1095,206.0966],[26.0753,43.0995,404.8711],[26.0852,43.082,189.6669],[26.1027,43.0604,204.0779],[26.1302,43.0444,268.5096],[26.1437,43.0403,524.341],[26.1484,43.0373,628.6492],[26.151,43.0325,579.7783],[26.1506,43.0277,516.8447],[26.1485,43.025,467.9135],[26.1158,43.0034,391.1739],[26.1147,42.9909,464.5135],[26.1206,42.9887,447.4533],[26.1372,42.9884,307.3652],[26.1471,42.9862,415.8582],[26.1856,42.9671,395.7294],[26.1941,42.9593,497.6016],[26.1973,42.9529,489.9731],[26.1994,42.9578,588.2904],[26.2052,42.9611,582.4451],[26.2449,42.9744,517.9649],[26.2635,42.9861,658.7158],[26.2754,42.9967,843.7024],[26.2821,43.0059,890.222],[26.2899,43.0372,663.7944],[26.296,43.0462,583.0342],[26.3021,43.0469,541.6594],[26.316,43.04,596.1523],[26.3284,43.0397,619.9396],[26.3494,43.0519,542.4971],[26.3576,43.0521,552.9125],[26.3599,43.0484,558.4175],[26.3599,43.041,612.5667],[26.3546,43.0257,758.1692],[26.3539,43.0182,786.3893],[26.3595,43.0128,754.2913],[26.3685,43.0145,774.1273],[26.3853,43.0327,605.8572],[26.395,43.0337,594.853],[26.3999,43.0312,597.7495],[26.4122,43.0188,576.5306],[26.4253,43.0125,533.1366],[26.439,43.0098,501.5028],[26.4517,43.0097,484.1608],[26.4791,43.0145,421.1039],[26.4986,43.0208,296.3092],[26.5178,43.0209,332.5881],[26.5343,43.0161,252.4879],[26.5501,43.0137,349.5446],[26.5619,43.0059,344.0689],[26.5704,42.9977,357.6199],[26.581,43.0046,370.1961],[26.5897,43.0129,324.6355],[26.6135,43.0175,267.5583],[26.6236,43.025,227.0977],[26.6234,43.0281,197.3342],[26.6156,43.0314,204.8701],[26.6123,43.0352,224.5396],[26.6195,43.0477,267.6219],[26.6139,43.0543,303.0113],[26.6172,43.0588,270.7752],[26.6222,43.0606,251.5781],[26.651,43.0661,292.7109],[26.653,43.0772,250.62],[26.6511,43.09,258.0117],[26.6536,43.0945,229.8215]]]]}}