{"type": "Feature","bbox": [23.3305,43.592,23.6352,43.8373],"geometry": {"type": "MultiPolygon","coordinates": [[[[23.5494,43.5941,95.9978],[23.5488,43.6022,114.0347],[23.553,43.6113,135.4702],[23.583,43.6373,138.6782],[23.5864,43.6425,139.5217],[23.5896,43.6513,138.007],[23.5899,43.6699,136.7051],[23.5934,43.683,134.7072],[23.6073,43.6916,142.4026],[23.6161,43.7226,141.586],[23.6194,43.7284,145.5959],[23.6338,43.7438,112.6872],[23.6352,43.7516,83.9972],[23.6346,43.759,96.5796],[23.6273,43.7732,95.6096],[23.6228,43.7914,21.5],[23.6138,43.7919,21.5],[23.5951,43.7976,27.2337],[23.5939,43.7956,22.0],[23.5825,43.7974,22.0],[23.5694,43.8011,22.0],[23.571,43.8038,23.1373],[23.5453,43.8122,23.1242],[23.5253,43.8235,25.1229],[23.5271,43.8249,30.649],[23.5167,43.8314,27.8051],[23.5,43.8361,22.5],[23.4995,43.8348,22.5],[23.4864,43.8373,22.5],[23.4856,43.8247,27.3951],[23.4785,43.8183,27.3385],[23.4478,43.8093,77.4749],[23.4289,43.7942,81.3374],[23.4196,43.7929,75.8921],[23.4067,43.795,86.8445],[23.3933,43.794,79.6163],[23.3749,43.7969,85.9731],[23.3671,43.7962,90.854],[23.359,43.7935,128.2099],[23.3495,43.7876,111.0634],[23.3421,43.7801,150.2506],[23.3305,43.7658,153.9957],[23.3576,43.7534,142.834],[23.3641,43.7433,133.0598],[23.3646,43.7381,110.3885],[23.3625,43.732,97.8346],[23.3652,43.7233,140.9122],[23.3707,43.7177,132.0872],[23.3895,43.7071,111.8819],[23.3913,43.6996,119.1671],[23.391,43.6919,115.348],[23.3842,43.6749,117.6099],[23.3856,43.6696,110.5487],[23.3899,43.6643,104.699],[23.4037,43.6554,91.9615],[23.4122,43.6468,86.5395],[23.4235,43.6485,152.9355],[23.4295,43.6459,152.0803],[23.4366,43.6345,143.2905],[23.4362,43.6286,139.9785],[23.434,43.6263,147.8318],[23.4581,43.6216,141.1711],[23.4682,43.6155,136.4673],[23.4767,43.6056,145.1852],[23.4794,43.5975,147.0597],[23.4845,43.5936,147.4417],[23.4892,43.5922,145.7028],[23.5075,43.592,142.1946],[23.5494,43.5941,95.9978]]]]}
,"properties": {"GID_2": "BGR.10.9_1","GID_0": "BGR","country": "Bulgaria","GID_1": "BGR.10_1","state": "Montana","NL_NAME_1": "Монтана","county": "Valchedram","VARNAME_2": "NA","NL_NAME_2": "NA","TYPE_2": "Obshtina","ENGTYPE_2": "Municipality","CC_2": "NA","HASC_2": "BG.MT.VD","name": "Valchedram.county","area_km2": 402.441,"hist_schema_id": "Elevation0-9000","hist_area_km2": {"25": 24.0368,"50": 20.9461,"75": 43.3354,"100": 60.9539,"125": 57.327,"150": 192.2448,"175": 3.5969}}}