{"type": "Feature","bbox": [25.3326,41.966,25.8016,42.194],"geometry": {"type": "MultiPolygon","coordinates": [[[[25.7821,42.0029,122.2125],[25.7847,42.0088,81.5024],[25.7847,42.0234,158.3602],[25.7867,42.031,157.0743],[25.7918,42.0402,139.7194],[25.8016,42.0493,133.4279],[25.772,42.0476,139.0623],[25.7619,42.0494,141.1007],[25.7551,42.0528,157.2072],[25.7511,42.0591,163.807],[25.7496,42.0862,144.7991],[25.7457,42.0951,139.5059],[25.7383,42.1023,154.9155],[25.7245,42.1109,165.1876],[25.7199,42.1179,166.978],[25.7154,42.1346,167.1167],[25.7065,42.1412,141.9684],[25.6965,42.1418,156.5406],[25.6876,42.14,172.7015],[25.6667,42.1294,146.636],[25.6531,42.1185,159.4581],[25.6421,42.1143,109.199],[25.6376,42.1157,106.8095],[25.6353,42.1203,108.5669],[25.6354,42.1258,127.9589],[25.6415,42.1553,146.258],[25.6419,42.1763,135.3818],[25.639,42.1882,144.2137],[25.6367,42.1906,142.5681],[25.6276,42.194,165.0951],[25.613,42.1909,165.2904],[25.6045,42.185,159.7475],[25.599,42.1787,155.253],[25.5971,42.1691,133.3518],[25.593,42.1635,136.2226],[25.5709,42.1585,167.2346],[25.5642,42.1552,169.6591],[25.5671,42.1517,169.9795],[25.5835,42.1505,151.9078],[25.5833,42.1455,169.9482],[25.5757,42.1404,183.1831],[25.5641,42.1394,162.5185],[25.5525,42.1409,176.9165],[25.5317,42.1529,177.496],[25.5262,42.1538,165.2056],[25.5165,42.1518,177.6992],[25.495,42.1418,154.1242],[25.4878,42.1317,159.2112],[25.4924,42.1204,135.7241],[25.4926,42.1136,150.0627],[25.4803,42.098,163.125],[25.4756,42.0843,103.3737],[25.4689,42.0782,102.8349],[25.4521,42.0785,104.9006],[25.4387,42.089,104.2872],[25.4318,42.092,106.1476],[25.4153,42.0929,102.7058],[25.4007,42.0983,109.5536],[25.3885,42.0992,109.2415],[25.3819,42.098,111.2323],[25.3763,42.0936,113.7621],[25.3596,42.0664,121.9148],[25.3494,42.0549,129.674],[25.3326,42.0229,183.0102],[25.3329,42.0166,222.8586],[25.3409,42.0088,262.1664],[25.3444,42.0001,262.102],[25.3496,41.966,249.6746],[25.3609,41.9706,298.8038],[25.3745,41.979,253.3922],[25.3864,41.9797,253.9246],[25.4019,41.9778,254.755],[25.4126,41.9808,248.8911],[25.4206,41.9856,215.0],[25.4288,41.9858,223.3776],[25.4305,41.9825,231.7701],[25.4289,41.9733,217.1631],[25.4334,41.9718,200.5075],[25.4536,41.9801,226.3019],[25.4773,41.9807,167.6851],[25.4871,41.9877,154.2584],[25.492,41.9888,147.9985],[25.5161,41.9833,169.0035],[25.5374,41.9863,158.6467],[25.5483,41.9816,177.7682],[25.5567,41.9743,180.8809],[25.5603,41.9747,180.3468],[25.5661,41.9819,180.7992],[25.5722,41.9827,181.8016],[25.5832,41.9797,179.9903],[25.5988,41.9796,178.491],[25.6309,41.9744,177.6652],[25.6404,41.9758,179.4846],[25.6496,41.9796,179.0284],[25.6663,41.9772,181.932],[25.684,41.9827,217.5318],[25.7092,41.9963,210.8172],[25.7154,42.0014,177.2994],[25.724,42.0131,98.4209],[25.7302,42.0167,90.2115],[25.7354,42.0178,83.353],[25.7434,42.0165,84.4792],[25.7821,42.0029,122.2125]]]]}
,"properties": {"GID_2": "BGR.6.1_1","GID_0": "BGR","country": "Bulgaria","GID_1": "BGR.6_1","state": "Haskovo","NL_NAME_1": "Хасково","county": "Dimitrovgrad","VARNAME_2": "NA","NL_NAME_2": "Димитровград","TYPE_2": "Obshtina","ENGTYPE_2": "Municipality","CC_2": "NA","HASC_2": "BG.KK.DI","name": "Dimitrovgrad.county","area_km2": 539.1862,"hist_schema_id": "Elevation0-9000","hist_area_km2": {"75": 5.276,"100": 84.0733,"125": 99.7683,"150": 150.3629,"175": 121.8126,"200": 33.1913,"225": 20.0575,"250": 17.4583,"275": 5.9879,"300": 0.7408,"325": 0.2364,"350": 0.1892,"375": 0.0315}}}