{"type":"Feature","properties":{"GID_2":"BGR.6.4_1","GID_0":"BGR","country":"Bulgaria","GID_1":"BGR.6_1","state":"Haskovo","NL_NAME_1":"Хасково","county":"Ivaylovgrad","VARNAME_2":"NA","NL_NAME_2":"Ивайловград","TYPE_2":"Obshtina","ENGTYPE_2":"Municipality","CC_2":"NA","HASC_2":"BG.KK.IV","name":"Ivaylovgrad.county"},
"geometry":{"type": "MultiPolygon","coordinates": [[[[25.9952,41.6186,266.3237],[25.9875,41.61,285.1348],[25.9737,41.5751,346.9183],[25.9675,41.5687,297.333],[25.9571,41.5641,346.2845],[25.932,41.5598,537.0868],[25.9178,41.5595,426.9831],[25.905,41.5636,398.2217],[25.9012,41.5665,391.7383],[25.8877,41.585,595.6964],[25.8738,41.5942,514.8163],[25.8567,41.6101,425.7377],[25.8553,41.599,561.91],[25.8463,41.5924,614.6852],[25.8377,41.5877,551.499],[25.815,41.58,450.0638],[25.8046,41.5737,376.7879],[25.7972,41.5595,392.1177],[25.7906,41.5368,606.3323],[25.7955,41.5101,673.1679],[25.7939,41.4997,579.5805],[25.7971,41.4951,549.1449],[25.8217,41.4936,615.2216],[25.8268,41.4923,554.1724],[25.8496,41.4802,398.2449],[25.8737,41.4796,458.8983],[25.8762,41.4789,463.3718],[25.8803,41.4744,388.7936],[25.8815,41.4718,360.0393],[25.877,41.4633,315.0096],[25.8573,41.4527,302.0825],[25.8565,41.4502,356.7177],[25.8582,41.4439,319.0662],[25.8563,41.4367,241.4044],[25.8505,41.4291,330.5035],[25.8496,41.4251,405.1947],[25.8512,41.4194,448.3878],[25.8561,41.4121,415.879],[25.8588,41.4003,452.3045],[25.8664,41.3902,392.269],[25.8713,41.3901,365.7149],[25.8807,41.3942,363.6862],[25.8835,41.3817,397.9424],[25.8871,41.3764,410.4528],[25.9156,41.3702,400.5381],[25.923,41.3658,344.99],[25.9308,41.3545,417.1764],[25.9325,41.3493,441.2374],[25.933,41.3325,773.6717],[25.9443,41.3261,665.4485],[25.9432,41.3209,848.6125],[25.9383,41.3145,862.6119],[25.9626,41.3127,519.5676],[25.9705,41.318,530.228],[25.9864,41.323,508.8276],[25.9906,41.3276,485.7695],[25.991,41.333,422.8781],[25.9985,41.3391,348.3687],[26.018,41.3418,353.255],[26.0193,41.3446,388.2549],[26.0294,41.345,388.987],[26.0302,41.3471,380.3368],[26.04,41.3478,338.8372],[26.0508,41.3441,299.9577],[26.0668,41.3471,247.161],[26.0785,41.3434,165.0331],[26.0788,41.3457,157.5454],[26.0864,41.3519,177.3194],[26.0866,41.3486,208.6338],[26.0941,41.3528,109.7898],[26.0997,41.3483,101.5037],[26.1073,41.3517,182.6584],[26.1174,41.3487,173.4128],[26.1232,41.3583,120.1684],[26.1225,41.36,109.965],[26.1244,41.3634,108.4905],[26.1222,41.3641,131.0973],[26.1241,41.3667,132.838],[26.124,41.3707,72.6446],[26.1306,41.3706,155.3692],[26.1367,41.3748,73.6206],[26.1382,41.3815,155.216],[26.1415,41.3849,179.0697],[26.1463,41.3866,175.1167],[26.1457,41.3948,200.514],[26.1502,41.3987,145.9017],[26.1537,41.4075,104.0301],[26.1507,41.4199,87.5662],[26.1597,41.4247,55.9894],[26.1668,41.4345,119.6063],[26.1764,41.4357,53.6571],[26.1828,41.4398,65.1183],[26.1897,41.436,52.6805],[26.1922,41.4394,55.2245],[26.1865,41.4482,83.0885],[26.1726,41.4612,113.5654],[26.1597,41.4669,147.0836],[26.1529,41.4725,163.687],[26.1511,41.4831,191.2473],[26.1571,41.4844,240.7027],[26.1702,41.4909,192.795],[26.1726,41.4977,143.6494],[26.1703,41.5008,142.3368],[26.1783,41.5124,190.968],[26.1821,41.5141,200.6633],[26.1838,41.5172,195.2278],[26.1797,41.5216,168.1318],[26.1808,41.5271,159.0335],[26.174,41.5522,64.6376],[26.1562,41.5498,97.0755],[26.145,41.552,139.6843],[26.1478,41.5893,309.4645],[26.1509,41.6026,346.2917],[26.1489,41.6042,339.9928],[26.1439,41.6039,314.0979],[26.1414,41.6061,315.508],[26.1407,41.6096,336.1075],[26.1353,41.6111,362.4194],[26.1342,41.6137,359.4106],[26.1358,41.6182,378.6721],[26.134,41.622,373.7057],[26.136,41.6288,425.3437],[26.1239,41.6273,395.0793],[26.1241,41.6249,368.9802],[26.1206,41.6219,353.143],[26.1077,41.625,439.0575],[26.0966,41.6244,491.1598],[26.0917,41.63,511.2218],[26.0939,41.6342,533.4364],[26.0913,41.6401,572.0663],[26.0855,41.6344,492.2451],[26.0771,41.6338,518.4516],[26.0699,41.6361,486.869],[26.0608,41.6462,400.7237],[26.0487,41.6501,411.3397],[26.0411,41.6472,332.4873],[26.0388,41.6446,325.242],[26.0295,41.6246,438.7803],[26.023,41.6186,173.9705],[26.0176,41.6162,124.1257],[26.0055,41.6151,201.7606],[25.9952,41.6186,266.3237]]]]}}