{"type": "Feature","bbox": [25.9575,41.6151,26.2251,41.9658],"geometry": {"type": "MultiPolygon","coordinates": [[[[25.9624,41.7581,319.7644],[25.9617,41.7491,376.1349],[25.9633,41.7438,385.7095],[25.9664,41.7403,477.3129],[25.9792,41.7402,436.8597],[25.9959,41.7425,383.4799],[26.0055,41.7405,537.5298],[26.0073,41.7375,531.0399],[26.0032,41.7122,346.5456],[25.9918,41.6881,232.4727],[25.9868,41.6834,196.4118],[25.9738,41.6637,145.9103],[25.9722,41.6564,177.424],[25.973,41.6441,154.2245],[25.9837,41.6268,181.862],[25.9967,41.6175,245.3944],[26.0055,41.6151,201.7606],[26.0176,41.6162,124.1257],[26.023,41.6186,173.9705],[26.0295,41.6246,438.7803],[26.0378,41.6432,337.7705],[26.0411,41.6472,332.4873],[26.0487,41.6501,411.3397],[26.0608,41.6462,400.7237],[26.0664,41.6389,467.2265],[26.074,41.6347,532.8015],[26.0826,41.6332,477.9937],[26.088,41.6363,533.3627],[26.0892,41.6378,554.6055],[26.0879,41.6398,564.1214],[26.0798,41.6386,502.6916],[26.0674,41.6483,421.5943],[26.0686,41.6518,482.5277],[26.0619,41.6598,356.7856],[26.0623,41.6641,356.1826],[26.0667,41.6698,284.341],[26.064,41.6742,248.5488],[26.0642,41.6801,262.7465],[26.0591,41.6853,308.2399],[26.0615,41.6913,336.5755],[26.0591,41.6961,407.9362],[26.0624,41.6979,430.7681],[26.0678,41.6978,485.9847],[26.0667,41.7035,447.0978],[26.069,41.7072,528.0407],[26.0779,41.7103,525.5092],[26.0802,41.7131,448.0451],[26.0868,41.7158,372.4271],[26.0936,41.7154,327.9395],[26.1042,41.7122,218.7204],[26.115,41.7127,197.5729],[26.1192,41.724,129.7801],[26.1144,41.7218,135.073],[26.0876,41.7231,282.7361],[26.0634,41.7287,304.6005],[26.0507,41.7319,379.1618],[26.044,41.7357,310.5198],[26.0421,41.7386,385.2598],[26.0419,41.7435,313.7748],[26.0593,41.7538,156.3752],[26.0648,41.7586,142.0989],[26.066,41.7628,129.737],[26.0654,41.7723,121.9132],[26.0677,41.7817,114.698],[26.072,41.7896,101.1278],[26.0776,41.7944,88.8624],[26.0876,41.7956,101.5235],[26.1048,41.7933,76.4823],[26.1282,41.7994,54.2846],[26.1539,41.7989,54.098],[26.1608,41.8014,54.7617],[26.1626,41.8056,61.8534],[26.1611,41.8096,65.8891],[26.1415,41.816,55.736],[26.1399,41.8229,61.5617],[26.1414,41.8304,68.2693],[26.1447,41.8388,121.3535],[26.1729,41.8687,198.0444],[26.1894,41.8805,265.8777],[26.2103,41.8901,201.0875],[26.2129,41.8948,277.5461],[26.2218,41.9112,283.4756],[26.2251,41.9315,323.4298],[26.2217,41.9554,331.4629],[26.2173,41.9658,339.1915],[26.2087,41.9598,353.799],[26.1856,41.9508,370.8537],[26.1661,41.9395,337.3057],[26.1447,41.9165,244.3481],[26.1291,41.9104,205.9575],[26.1136,41.9096,162.9522],[26.1022,41.912,195.8554],[26.0969,41.9094,187.3868],[26.0797,41.8867,134.8742],[26.0704,41.8851,116.6243],[26.0634,41.8859,117.2524],[26.0559,41.8895,121.0509],[26.0499,41.8886,77.5974],[26.0471,41.8829,62.2932],[26.0484,41.8716,66.6257],[26.046,41.8603,64.6427],[26.0394,41.8505,100.3025],[26.0098,41.8425,120.3412],[25.9962,41.8442,140.7604],[25.9772,41.8439,170.1106],[25.9741,41.8423,180.2342],[25.9693,41.8383,223.6471],[25.9701,41.8292,250.9844],[25.9793,41.8152,215.1926],[25.9803,41.8109,207.9319],[25.9776,41.8046,222.974],[25.9629,41.7928,163.9641],[25.9575,41.7852,174.3943],[25.959,41.7757,187.3846],[25.9615,41.7702,203.4009],[25.9624,41.7581,319.7644]]]]}
,"properties": {"GID_2": "BGR.6.5_1","GID_0": "BGR","country": "Bulgaria","GID_1": "BGR.6_1","state": "Haskovo","NL_NAME_1": "Хасково","county": "Lyubimets","VARNAME_2": "NA","NL_NAME_2": "Любимец","TYPE_2": "Obshtina","ENGTYPE_2": "Municipality","CC_2": "NA","HASC_2": "BG.KK.LU","name": "Lyubimets.county","area_km2": 315.5042,"hist_schema_id": "Elevation0-9000","hist_area_km2": {"50": 21.5326,"75": 33.4734,"100": 27.126,"125": 28.1886,"150": 26.6634,"175": 31.7459,"200": 26.4193,"225": 20.1889,"250": 18.7463,"275": 15.9772,"300": 12.8487,"325": 11.0022,"350": 9.6751,"375": 7.0696,"400": 5.0475,"425": 3.7822,"450": 3.4028,"475": 3.2921,"500": 3.0547,"525": 2.7223,"550": 1.6936,"575": 0.8705,"600": 0.4906,"625": 0.3007,"650": 0.1108,"675": 0.0791}}}