{"type":"Feature","properties":{"GID_2":"BGR.19.2_1","GID_0":"BGR","country":"Bulgaria","GID_1":"BGR.19_1","state":"Sliven","NL_NAME_1":"Сливен","county":"NovaZagora","VARNAME_2":"NA","NL_NAME_2":"НоваЗагора","TYPE_2":"Obshtina","ENGTYPE_2":"Municipality","CC_2":"NA","HASC_2":"BG.SL.NZ","name":"NovaZagora.county"},
"geometry":{"type": "MultiPolygon","coordinates": [[[[26.0958,42.6071,278.4069],[26.0861,42.6001,375.0602],[26.0736,42.5963,353.696],[26.0692,42.5969,338.1866],[26.0607,42.603,327.8687],[26.0545,42.604,313.962],[26.0486,42.6021,303.5966],[26.0303,42.5906,415.5425],[26.0232,42.5878,391.5958],[26.0165,42.5873,328.0011],[26.0141,42.5897,330.8817],[26.0143,42.5929,317.6335],[26.0202,42.6159,245.2098],[26.0203,42.6266,340.8769],[26.019,42.6293,357.5438],[26.0097,42.6326,327.1309],[25.9969,42.6285,340.7955],[25.9759,42.6153,358.1255],[25.9679,42.6124,332.9522],[25.9496,42.6142,580.7571],[25.9374,42.6136,401.4005],[25.9299,42.6121,370.5097],[25.9241,42.6072,344.3824],[25.9133,42.5891,321.8833],[25.9179,42.585,284.1666],[25.9204,42.5792,272.563],[25.9207,42.5745,298.7097],[25.918,42.5686,330.5821],[25.903,42.5615,404.3281],[25.8719,42.5503,491.8694],[25.8665,42.5448,507.4188],[25.8664,42.538,404.2533],[25.8754,42.5211,314.7668],[25.8806,42.5146,327.9852],[25.8839,42.5129,263.8699],[25.8967,42.4895,182.8223],[25.9048,42.4807,173.4074],[25.9133,42.4748,161.5503],[25.9151,42.4691,158.4443],[25.9126,42.457,149.1436],[25.9083,42.4521,147.2237],[25.8927,42.4408,143.2628],[25.8888,42.4351,141.5262],[25.888,42.4308,139.9434],[25.8905,42.4251,137.4296],[25.8957,42.4208,136.0761],[25.9095,42.4164,133.1671],[25.9143,42.4133,131.012],[25.921,42.4051,127.8979],[25.924,42.3897,127.5292],[25.9357,42.3718,126.3767],[25.9447,42.3623,126.8058],[25.9484,42.3561,126.664],[25.9498,42.3381,122.9832],[25.952,42.3306,111.3852],[25.9594,42.3189,124.4701],[25.9839,42.312,137.5659],[25.9958,42.3049,142.4334],[26.0052,42.2951,163.9649],[26.0116,42.2825,151.986],[26.0195,42.2752,163.687],[26.0267,42.2721,182.8798],[26.0506,42.272,144.5074],[26.0555,42.2706,160.2858],[26.0549,42.2542,191.2604],[26.0575,42.249,153.659],[26.0639,42.2483,139.7825],[26.0819,42.2595,145.6789],[26.0935,42.262,139.2229],[26.1056,42.2595,146.8849],[26.1255,42.2499,140.8755],[26.179,42.2396,175.7615],[26.1814,42.2551,136.096],[26.1861,42.267,146.1823],[26.2053,42.2992,170.1292],[26.2268,42.3264,164.3147],[26.2351,42.3392,183.3133],[26.2434,42.3611,217.4109],[26.2501,42.3731,264.5079],[26.2511,42.3897,207.3389],[26.2489,42.392,205.8506],[26.2435,42.3923,211.3819],[26.2154,42.3755,187.4592],[26.2084,42.3761,184.5326],[26.2041,42.3808,191.4185],[26.1874,42.405,225.3995],[26.1842,42.4138,263.5513],[26.184,42.4198,294.3373],[26.1874,42.4238,240.2009],[26.193,42.4252,232.7836],[26.2105,42.4191,202.9382],[26.2263,42.4192,181.5271],[26.2296,42.423,176.8939],[26.2301,42.4299,178.8439],[26.2245,42.4545,175.2641],[26.2269,42.4583,168.0241],[26.1954,42.4589,163.9794],[26.1876,42.4618,160.456],[26.1835,42.4677,153.3318],[26.1839,42.4951,144.7953],[26.1925,42.5282,141.8207],[26.1925,42.5397,153.4263],[26.1782,42.5529,192.0288],[26.1727,42.5615,252.57],[26.1524,42.5633,244.2872],[26.148,42.565,250.2256],[26.1433,42.5702,268.1906],[26.1456,42.5864,342.069],[26.1451,42.5946,401.6729],[26.1425,42.6012,298.3349],[26.1369,42.6069,233.4716],[26.0958,42.6071,278.4069]]]]}}