{"type":"Feature","properties":{"ISO3166-1-Alpha-3":"BGR","country":"Bulgaria","fill":"#00F","id":"2260","name":"Varna"},
"geometry":{"type": "Polygon","coordinates": [[[27.5199,43.49915,239.4149],[27.49499,43.50804,286.1528],[27.48838,43.53212,243.7783],[27.45851,43.56272,223.6158],[27.41893,43.57124,257.36],[27.33852,43.5544,296.8887],[27.28508,43.52003,282.4547],[27.33397,43.50809,300.0529],[27.3227,43.48556,325.044],[27.31092,43.47368,340.5456],[27.32281,43.46572,314.2938],[27.33542,43.45203,283.3802],[27.29986,43.4143,299.8863],[27.27981,43.39769,407.5156],[27.27072,43.3788,415.9661],[27.27175,43.35361,390.2264],[27.28901,43.33622,282.2121],[27.30255,43.31904,187.9609],[27.27785,43.3047,149.0929],[27.25025,43.29723,116.9984],[27.25056,43.27198,326.026],[27.2487,43.2524,311.3746],[27.21439,43.2464,311.4091],[27.17925,43.24392,349.3672],[27.15682,43.23168,314.0105],[27.1531,43.20695,300.8813],[27.17925,43.18798,238.0266],[27.21232,43.17845,218.0487],[27.2116,43.15489,145.7512],[27.17925,43.14142,216.0152],[27.16271,43.12,321.913],[27.18587,43.10008,316.0826],[27.15796,43.08329,208.0898],[27.20364,43.07171,222.1629],[27.20912,43.0474,181.9839],[27.16189,43.03864,133.3626],[27.10194,43.01427,287.4305],[27.07848,43.00094,391.7928],[27.09336,42.97621,348.4131],[27.1191,42.95366,490.5637],[27.17677,42.96301,332.6339],[27.23651,42.98841,401.274],[27.28488,42.97671,184.1295],[27.32415,42.94833,276.0739],[27.35536,42.91144,412.6368],[27.37676,42.90583,377.9433],[27.40012,42.90389,247.5262],[27.4458,42.88374,200.2567],[27.4952,42.87568,376.5785],[27.58315,42.89198,208.9229],[27.62057,42.9094,158.2174],[27.64765,42.90322,146.4914],[27.67328,42.89178,133.7259],[27.69736,42.87514,53.9896],[27.71886,42.85496,64.2748],[27.7448,42.84108,82.7685],[27.7727,42.83041,109.4794],[27.80185,42.82206,67.613],[27.83151,42.82659,13.0835],[27.8528,42.84074,38.5147],[27.87688,42.8478,50.3856],[27.88391,42.8479,24.1685],[27.88395,42.8479,24.1685],[27.88396,42.84837,24.1685],[27.90398,42.85969,0.0],[27.89845,42.87466,0.0],[27.90398,42.94229,0.0],[27.9004,42.96288,0.0],[27.88543,43.00861,9.5246],[27.88356,43.03099,34.562],[27.88771,43.04214,42.1679],[27.89552,43.04926,82.326],[27.90431,43.05585,26.4896],[27.91139,43.06517,49.1131],[27.92514,43.11359,14.7531],[27.94435,43.15713,13.9245],[27.94557,43.16885,42.0573],[27.93873,43.1765,0.0],[27.90398,43.1955,6.8288],[27.90398,43.20234,24.8054],[27.91383,43.20234,29.4456],[27.92058,43.20405,26.193],[27.93198,43.20978,37.1183],[28.00017,43.22321,34.6256],[28.01759,43.23273,0.0],[28.0311,43.24897,0.0],[28.087,43.35523,0.0],[28.0839,43.35622,0.0],[28.04876,43.35322,30.025],[28.01352,43.35309,82.5441],[27.99295,43.37255,257.7504],[27.96546,43.39283,266.8164],[27.93383,43.3943,164.5646],[27.90448,43.38428,134.5624],[27.88815,43.37053,188.9058],[27.86768,43.36542,278.3438],[27.80867,43.38769,338.1997],[27.75927,43.43177,284.9405],[27.74087,43.45678,254.4579],[27.71514,43.47332,209.4807],[27.67803,43.4789,306.37],[27.63824,43.50592,274.1012],[27.60382,43.54194,245.573],[27.58832,43.53776,187.9929],[27.57788,43.51853,204.3608],[27.55866,43.51179,227.2159],[27.53851,43.50985,215.9768],[27.53055,43.5037,214.2262],[27.5199,43.49915,239.4149]]]}}