{"type":"Feature","properties":{"GID_1":"BGR.24_1","GID_0":"BGR","country":"Bulgaria","state":"Varna","VARNAME_1":"Stalin","NL_NAME_1":"Варна","TYPE_1":"Oblast","ENGTYPE_1":"Province","CC_1":"NA","HASC_1":"BG.VN","ISO_1":"BG-03","name":"Varna.state"},
"geometry":{"type": "MultiPolygon","coordinates": [[[[27.8702,42.8347,2.6135],[27.8826,42.8337,4.0805],[27.8826,42.8421,19.5314],[27.8868,42.8504,0.0],[27.8935,42.8549,10.4597],[27.903199999999998,42.8537,0.0],[27.9013,42.8565,32.8482],[27.8979,42.8729,0.0],[27.9026,42.8874,0.0],[27.8976,42.9029,14.1551],[27.896,42.9168,0.0],[27.8976,42.9204,1.113],[27.9013,42.921,12.1933],[27.9057,42.9263,2.8221],[27.9068,42.9299,0.0],[27.9007,42.9468,12.2595],[27.8899,42.999,0.8615],[27.8865,43.0024,1.9541],[27.8885,43.0049,2.7061],[27.8854,43.0065,9.6972],[27.8882,43.0076,1.7613],[27.886,43.0096,2.8271],[27.8874,43.0137,4.9193],[27.8862,43.0149,2.5177],[27.889,43.0185,0.9514],[27.8879,43.0357,0.9071],[27.8907,43.0435,6.9807],[27.8979,43.0468,0.0],[27.901,43.0543,26.0487],[27.9085,43.056,1.1353],[27.9137,43.0626,0.0],[27.9129,43.071,0.0],[27.9163,43.0768,1.557],[27.9154,43.0824,21.8573],[27.9207,43.0893,0.0],[27.9207,43.0954,0.0],[27.9235,43.0985,0.0],[27.924,43.1101,11.2247],[27.9282,43.1138,33.7456],[27.9304,43.1265,4.8548],[27.9371,43.1301,0.0],[27.9401,43.1349,0.0],[27.941,43.1479,28.1079],[27.9449,43.1526,6.0204],[27.944,43.1579,13.9245],[27.9471,43.1657,46.917],[27.9457,43.1721,0.0],[27.9413,43.1699,40.2333],[27.9371,43.1729,0.0],[27.9307,43.1735,56.4219],[27.9287,43.1757,0.0],[27.916,43.1738,0.2947],[27.9104,43.1785,5.3137],[27.9101,43.1821,0.0],[27.9011,43.1835,8.2932],[27.9017,43.1857,1.3075],[27.9093,43.1849,0.0],[27.9112,43.1888,0.9869],[27.9143,43.1888,0.0],[27.9115,43.1904,0.9869],[27.9179,43.191,0.0],[27.9135,43.1924,0.0],[27.9165,43.1954,0.0],[27.9199,43.1951,0.0],[27.9201,43.191,0.0],[27.9218,43.1896,0.0],[27.921,43.1971,0.9718],[27.9232,43.2012,2.1826],[27.9279,43.2051,1.4136],[27.9321,43.2051,0.0],[27.9379,43.2088,17.0444],[27.9415,43.2088,0.0],[27.9418,43.2104,0.0],[27.9587,43.2107,0.0],[27.9665,43.2168,0.0],[27.9771,43.219,25.0142],[27.9813,43.2171,0.0],[27.9815,43.2193,15.9346],[27.986,43.2196,2.0552],[27.9888,43.2182,0.8791],[27.9868,43.2174,0.0],[27.9871,43.216,0.0],[27.994,43.2171,14.5376],[27.9971,43.2149,0.0],[27.9971,43.2176,6.4185],[28.0018,43.2207,7.5147],[28.0043,43.2207,3.3118],[28.0035,43.2185,0.0],[28.0051,43.2185,0.0],[28.009,43.2221,0.0],[28.0093,43.2246,1.0914],[28.0121,43.2238,0.0],[28.0157,43.226,0.0],[28.0143,43.2279,4.8777],[28.0168,43.2349,6.6118],[28.0154,43.2357,4.7375],[28.0187,43.2424,3.6225],[28.0213,43.2449,2.2749],[28.0224,43.2435,0.0],[28.026,43.244,0.0],[28.0254,43.2457,27.6846],[28.0285,43.2465,0.0],[28.0293,43.2515,4.9309],[28.0326,43.2582,2.2501],[28.036,43.261,0.0],[28.0382,43.2679,0.0],[28.0418,43.2735,9.213],[28.0449,43.2749,0.0],[28.044,43.2788,0.0],[28.0468,43.2857,0.0],[28.0476,43.2946,3.2269],[28.0516,43.3015,2.0706],[28.0422,43.3023,121.7211],[28.0326,43.3007,265.5352],[28.0228,43.3215,63.0825],[28.0185,43.3402,177.3594],[28.0139,43.3512,100.3003],[27.9984,43.3669,220.7367],[27.9894,43.3801,268.0636],[27.9769,43.3901,267.4974],[27.9739,43.395,164.3029],[27.9596,43.3982,192.3094],[27.9378,43.3982,106.2146],[27.9137,43.394,120.2037],[27.8923,43.3842,208.8366],[27.8614,43.3603,310.3125],[27.851,43.3571,298.0902],[27.847,43.3574,320.5263],[27.8357,43.3625,343.2634],[27.814,43.3778,350.3456],[27.8083,43.3865,338.3163],[27.791,43.4023,318.5472],[27.7886,43.4146,303.7908],[27.7658,43.4173,279.7178],[27.7531,43.421,290.2607],[27.7508,43.424,288.2805],[27.7271,43.4372,311.2852],[27.7197,43.4466,312.6832],[27.711,43.4707,208.7092],[27.7074,43.4765,225.3353],[27.6993,43.4791,258.8082],[27.6866,43.4771,288.3892],[27.678,43.4785,306.4297],[27.6669,43.4838,291.7596],[27.65,43.4846,256.1668],[27.6346,43.4823,252.5209],[27.6128,43.4928,197.0424],[27.6076,43.5013,201.0642],[27.6111,43.5237,219.5378],[27.6014,43.5349,205.2431],[27.5899,43.543,213.3806],[27.5815,43.545,187.2926],[27.5753,43.5433,164.3291],[27.5679,43.5339,190.6727],[27.5622,43.5231,232.7372],[27.5539,43.5152,248.4034],[27.5483,43.5132,245.4596],[27.5143,43.5128,287.5981],[27.5041,43.5147,293.5906],[27.499,43.5223,288.6508],[27.498,43.5291,283.8987],[27.499,43.5404,256.2617],[27.5032,43.5545,222.6616],[27.5032,43.5616,243.3954],[27.4991,43.5714,248.0049],[27.4907,43.5827,222.1277],[27.4729,43.5967,264.2477],[27.4561,43.5943,238.4017],[27.4463,43.5958,193.92],[27.44,43.5986,206.4959],[27.4279,43.586,244.3708],[27.4115,43.5766,262.6774],[27.3753,43.5643,253.2333],[27.3482,43.5576,281.4883],[27.3361,43.5505,293.955],[27.3291,43.5436,311.513],[27.3269,43.5384,313.5136],[27.3273,43.53,311.4933],[27.3303,43.521,308.5521],[27.3414,43.5167,285.2849],[27.3582,43.5157,252.5161],[27.3601,43.5092,287.2249],[27.3568,43.5017,310.0834],[27.3363,43.4871,322.325],[27.3325,43.4816,333.8442],[27.3353,43.4781,329.7455],[27.3571,43.4771,301.7696],[27.3607,43.472,269.914],[27.361,43.4657,254.9866],[27.3597,43.4626,255.3482],[27.335,43.4358,294.0211],[27.32,43.4288,278.6071],[27.3121,43.4216,264.7356],[27.3064,43.4133,352.8127],[27.3024,43.3987,365.2434],[27.3043,43.3869,308.4476],[27.3081,43.3805,369.2997],[27.3191,43.3712,276.1536],[27.3359,43.3645,217.9348],[27.3381,43.3622,206.5378],[27.3386,43.3577,199.1999],[27.3186,43.3289,287.6099],[27.3016,43.3179,183.8121],[27.2738,43.3146,124.2299],[27.27,43.3108,119.2359],[27.2686,43.3063,113.1101],[27.2718,43.2939,136.3039],[27.29,43.2734,150.3011],[27.2932,43.2494,64.3031],[27.2973,43.2342,140.3281],[27.3008,43.229,239.3915],[27.3175,43.218,296.1721],[27.3197,43.2157,285.7021],[27.3191,43.2114,283.9556],[27.3133,43.2081,252.6444],[27.287,43.2059,250.4594],[27.2682,43.1953,230.3881],[27.2414,43.1759,189.4585],[27.2219,43.1653,119.5],[27.1964,43.1424,172.9689],[27.1903,43.1339,165.2764],[27.1873,43.1252,167.029],[27.1876,43.1194,196.4845],[27.1904,43.1137,174.9689],[27.1989,43.1063,218.5013],[27.2105,43.1028,263.3266],[27.2283,43.1017,156.4745],[27.2407,43.0958,173.4283],[27.2384,43.0864,291.0946],[27.2454,43.0726,229.4173],[27.2464,43.0694,225.0457],[27.2448,43.0661,193.5737],[27.258,43.0559,92.4885],[27.2594,43.0537,111.1885],[27.2585,43.0487,151.7298],[27.2539,43.0476,189.8979],[27.2445,43.0496,177.3807],[27.2229,43.0505,312.6958],[27.2032,43.048,172.8809],[27.1822,43.0423,42.2662],[27.1497,43.0433,213.7732],[27.1408,43.0391,343.4524],[27.1377,43.0295,321.8636],[27.1336,43.0261,426.622],[27.1216,43.0254,333.2341],[27.0998,43.0276,433.0474],[27.09,43.0256,396.2876],[27.0884,43.0231,340.0144],[27.0893,43.0215,354.5958],[27.1011,43.0153,298.3043],[27.1044,43.0108,314.7631],[27.1025,43.0032,396.3186],[27.0966,42.992,375.423],[27.0969,42.988,400.3784],[27.102,42.9857,340.258],[27.1298,42.9844,212.9798],[27.134,42.9829,203.4452],[27.1377,42.9785,211.385],[27.1374,42.9707,263.5881],[27.128,42.9472,498.2874],[27.1416,42.9465,490.8949],[27.1597,42.9509,506.1656],[27.1874,42.9639,295.2417],[27.1977,42.9719,205.9212],[27.22,42.9797,374.6058],[27.2401,42.9801,320.7535],[27.3,42.9754,58.5],[27.3458,42.9663,178.7506],[27.36,42.9562,348.2037],[27.371,42.9412,144.0524],[27.3909,42.933,404.299],[27.4005,42.9263,260.6096],[27.408,42.9241,242.5741],[27.4177,42.9138,184.2535],[27.4292,42.9057,395.9903],[27.4579,42.8917,302.1212],[27.468,42.8911,268.6414],[27.5061,42.8954,319.1579],[27.5122,42.8937,286.0971],[27.5198,42.8842,346.0785],[27.528199999999998,42.8835,408.0857],[27.5349,42.8848,312.2181],[27.5598,42.8975,164.0421],[27.5794,42.9005,155.613],[27.6057,42.9011,123.0045],[27.6952,42.8903,120.9153],[27.7007,42.8894,152.2307],[27.7066,42.8859,101.4138],[27.7117,42.88,104.9859],[27.7117,42.8765,76.6062],[27.7057,42.8701,38.7871],[27.7049,42.8656,42.6414],[27.7274,42.8461,76.3786],[27.7329,42.8441,109.2638],[27.7454,42.8336,162.2876],[27.7589,42.8342,104.7362],[27.7691,42.8314,109.615],[27.7749,42.8266,139.1848],[27.7776,42.8211,112.5465],[27.7857,42.8196,82.6329],[27.8153,42.8236,52.4405],[27.8453,42.8345,14.1728],[27.8702,42.8347,2.6135]]]]}}