{"type": "Feature","bbox": [25.1438,41.3944,25.3834,41.5607],"geometry": {"type": "MultiPolygon","coordinates": [[[[25.1892,41.4913,801.3669],[25.1901,41.4804,748.9273],[25.1888,41.4776,768.5048],[25.1835,41.4739,866.6584],[25.1818,41.4518,684.0139],[25.1744,41.4498,638.8535],[25.1694,41.4429,733.2764],[25.1538,41.4337,544.9686],[25.1547,41.4313,525.1671],[25.1586,41.4303,647.8329],[25.1824,41.4304,756.1572],[25.1863,41.4283,737.0061],[25.1867,41.4238,694.991],[25.1819,41.417,761.2522],[25.1777,41.4142,712.7128],[25.1464,41.4012,599.1472],[25.1438,41.3981,617.4488],[25.1476,41.3955,615.1632],[25.1523,41.3944,533.1078],[25.1635,41.3967,502.2705],[25.1819,41.402,511.8301],[25.208,41.4122,614.5153],[25.2318,41.4166,450.574],[25.2305,41.4195,456.8876],[25.2149,41.4231,504.6697],[25.2138,41.4245,490.2258],[25.2152,41.4284,537.0326],[25.2363,41.4306,569.9091],[25.2445,41.4373,474.3967],[25.2513,41.4376,489.7448],[25.2672,41.429,529.9702],[25.2909,41.4283,526.5798],[25.2987,41.4291,420.9792],[25.3041,41.431399999999996,453.4558],[25.3078,41.4348,445.9067],[25.3114,41.4435,423.6295],[25.3209,41.449,462.5],[25.3321,41.4496,489.063],[25.3535,41.4427,290.3581],[25.3605,41.443,275.0999],[25.3659,41.445,269.0126],[25.37,41.4496,263.4545],[25.3725,41.4556,269.1395],[25.3703,41.4692,258.6865],[25.3756,41.4853,285.8395],[25.375,41.4913,322.7157],[25.3715,41.5003,399.3698],[25.3689,41.503,433.6295],[25.3711,41.5051,442.1553],[25.3679,41.5082,465.2498],[25.3682,41.5107,468.4338],[25.3732,41.5207,349.0993],[25.3834,41.5281,276.2555],[25.3833,41.5315,325.3422],[25.3803,41.5337,357.3985],[25.3646,41.5345,303.7994],[25.3589,41.5372,333.2569],[25.3564,41.5421,258.5749],[25.3598,41.55,292.8889],[25.3565,41.5527,332.6593],[25.3431,41.5534,383.2354],[25.3177,41.5486,417.2971],[25.3059,41.5483,451.1835],[25.2908,41.5523,524.7626],[25.2785,41.5607,574.2787],[25.2772,41.5534,555.6369],[25.2792,41.5443,450.0652],[25.2777,41.539,504.1661],[25.2743,41.5363,477.1862],[25.2628,41.5355,559.8731],[25.2582,41.5381,579.9784],[25.2478,41.5391,704.6285],[25.2412,41.5371,593.0945],[25.2369,41.534,616.1266],[25.2314,41.5249,651.664],[25.2323,41.5147,433.7406],[25.2295,41.5105,526.1132],[25.2243,41.5071,530.8275],[25.2059,41.5051,601.7794],[25.1892,41.4913,801.3669]]]]}
,"properties": {"GID_2": "BGR.7.3_1","GID_0": "BGR","country": "Bulgaria","GID_1": "BGR.7_1","state": "Kardzhali","NL_NAME_1": "Кърджалийска","county": "Dzhebel","VARNAME_2": "Cebel)","NL_NAME_2": "Джебел","TYPE_2": "Obshtina","ENGTYPE_2": "Municipality","CC_2": "NA","HASC_2": "BG.KZ.DZ","name": "Dzhebel.county","area_km2": 186.1128,"hist_schema_id": "Elevation0-9000","hist_area_km2": {"250": 1.6521,"275": 4.6373,"300": 8.7813,"325": 14.1172,"350": 18.8177,"375": 17.7241,"400": 15.1047,"425": 11.15,"450": 9.3391,"475": 8.7514,"500": 8.8468,"525": 7.3865,"550": 6.3224,"575": 6.5454,"600": 6.7363,"625": 5.7358,"650": 5.6092,"675": 5.1802,"700": 4.5128,"725": 5.3073,"750": 4.9894,"775": 3.3845,"800": 2.4945,"825": 1.2075,"850": 0.6355,"875": 0.4925,"900": 0.2383,"925": 0.1748,"950": 0.1589,"975": 0.0477,"1000": 0.0318}}}