{"type": "Feature","bbox": [23.3212,43.2623,23.6486,43.5312],"geometry": {"type": "MultiPolygon","coordinates": [[[[23.3212,43.2908,268.6745],[23.336,43.2811,226.5192],[23.3578,43.2732,278.5651],[23.3921,43.2652,272.1828],[23.4078,43.265,440.3883],[23.4273,43.2623,680.5079],[23.427,43.2835,266.8217],[23.429,43.2896,293.6208],[23.4354,43.2969,267.1412],[23.4419,43.3007,261.8423],[23.4489,43.3075,255.8094],[23.4496,43.311,241.214],[23.4472,43.3187,236.5294],[23.4468,43.3272,178.4178],[23.4524,43.3329,232.4818],[23.4741,43.3365,200.5208],[23.4809,43.3474,165.5025],[23.4843,43.35,151.1614],[23.4906,43.3536,143.7279],[23.5013,43.3552,191.9611],[23.509,43.3595,218.0302],[23.5222,43.3715,242.7918],[23.5369,43.37,252.5074],[23.552,43.3652,247.8703],[23.5665,43.3663,267.2664],[23.573,43.3718,246.7481],[23.5817,43.386,241.723],[23.5818,43.3901,239.9085],[23.5803,43.3989,236.9561],[23.5707,43.4144,230.037],[23.5659,43.4267,220.4922],[23.5648,43.4352,229.8288],[23.5661,43.439,220.4313],[23.5846,43.4638,200.9187],[23.6066,43.4794,176.0544],[23.6131,43.4858,177.2156],[23.6191,43.4926,161.1042],[23.629,43.5099,173.5671],[23.6372,43.5204,165.9104],[23.6426,43.5256,158.4099],[23.6486,43.5287,159.3125],[23.6273,43.5312,155.8064],[23.6236,43.528,157.8726],[23.619,43.5268,154.3906],[23.576,43.528,110.3585],[23.5684,43.5218,131.1819],[23.5572,43.5079,141.6839],[23.5513,43.5044,132.9234],[23.5421,43.5018,144.7789],[23.5293,43.5018,159.5716],[23.5139,43.5056,130.7001],[23.5011,43.5053,125.6491],[23.4923,43.5033,102.1205],[23.4898,43.5048,90.0639],[23.4777,43.5055,94.305],[23.4582,43.5131,91.5302],[23.4521,43.5139,113.4952],[23.4422,43.5137,125.8103],[23.4352,43.5104,112.8322],[23.4314,43.5072,161.8583],[23.4209,43.4837,178.2452],[23.4019,43.4484,149.823],[23.4031,43.4248,195.7739],[23.4088,43.4186,175.3956],[23.4121,43.4073,200.7708],[23.4119,43.4026,186.5187],[23.408,43.3927,215.2843],[23.3958,43.3851,247.0041],[23.3927,43.3812,238.383],[23.3877,43.373,263.7119],[23.3833,43.3563,248.6617],[23.3703,43.3382,290.0605],[23.3592,43.3294,273.4044],[23.3298,43.3111,205.6753],[23.3212,43.2908,268.6745]]]]}
,"properties": {"GID_2": "BGR.27.5_1","GID_0": "BGR","country": "Bulgaria","GID_1": "BGR.27_1","state": "Vratsa","NL_NAME_1": "Враца","county": "Krivodol","VARNAME_2": "NA","NL_NAME_2": "NA","TYPE_2": "Obshtina","ENGTYPE_2": "Municipality","CC_2": "NA","HASC_2": "BG.VR.KR","name": "Krivodol.county","area_km2": 327.8224,"hist_schema_id": "Elevation0-9000","hist_area_km2": {"75": 1.1839,"100": 4.9996,"125": 28.4359,"150": 46.7723,"175": 70.1769,"200": 71.2633,"225": 57.8259,"250": 29.9286,"275": 13.4699,"300": 2.1604,"325": 0.3705,"350": 0.3088,"375": 0.1698,"400": 0.1389,"425": 0.1389,"450": 0.0772,"475": 0.0772,"500": 0.0309,"525": 0.0618,"550": 0.0309,"575": 0.0463,"600": 0.0154,"625": 0.0309,"650": 0.0309,"675": 0.0154,"700": 0.0154,"725": 0.0309,"800": 0.0154}}}