{"type":"Feature","properties":{"GID_2":"BGR.17.2_1","GID_0":"BGR","country":"Bulgaria","GID_1":"BGR.17_1","state":"Shumen","NL_NAME_1":"Шумен","county":"Kaolinovo","VARNAME_2":"NA","NL_NAME_2":"NA","TYPE_2":"Obshtina","ENGTYPE_2":"Municipality","CC_2":"NA","HASC_2":"BG.SH.KL","name":"Kaolinovo.county"},
"geometry":{"type": "MultiPolygon","coordinates": [[[[27.2355,43.6746,262.1125],[27.1724,43.6796,201.8933],[27.1548,43.6828,274.1205],[27.1285,43.7014,274.1868],[27.1245,43.7056,264.3022],[27.1171,43.7213,241.721],[27.1063,43.731,226.4467],[27.0954,43.7356,240.2867],[27.0736,43.736,255.3484],[27.0574,43.7316,251.1086],[27.0348,43.7205,234.4331],[27.0146,43.717,253.8075],[27.0053,43.7174,265.1078],[27.0054,43.7133,271.4994],[27.0104,43.7043,264.7346],[27.015,43.6998,264.5544],[27.026,43.6944,233.6657],[27.028,43.691,234.0881],[27.0273,43.6672,286.4482],[27.0258,43.6625,302.2036],[27.0139,43.6567,301.4731],[27.0009,43.6558,282.1891],[26.9858,43.6517,273.9556],[26.9706,43.6423,305.0083],[26.9678,43.6336,322.0063],[26.9715,43.6263,324.1478],[26.9804,43.623,308.638],[26.9948,43.6213,318.9108],[27.034,43.6217,259.2793],[27.0387,43.6187,276.9509],[27.0419,43.6147,307.2924],[27.0426,43.6102,303.3487],[27.0387,43.5976,339.027],[27.0305,43.5835,325.0005],[27.0277,43.57,278.8068],[27.028,43.5639,277.5738],[27.034,43.5542,312.7562],[27.0341,43.5484,304.204],[27.0304,43.5424,324.3219],[27.032,43.5397,340.3412],[27.0425,43.5327,311.8014],[27.048,43.5336,301.3814],[27.0687,43.532,364.869],[27.0777,43.5293,389.1704],[27.0844,43.5248,381.0858],[27.0855,43.5057,384.8257],[27.0961,43.5027,330.4981],[27.1098,43.5018,257.8563],[27.1291,43.507,345.451],[27.1374,43.512,388.5374],[27.1461,43.5201,389.9531],[27.1433,43.5239,390.0618],[27.1423,43.536,402.9804],[27.1495,43.5438,380.1046],[27.1738,43.5487,353.2459],[27.1741,43.5535,333.839],[27.1673,43.5606,326.1355],[27.1624,43.5696,362.0897],[27.1691,43.5856,312.927],[27.17,43.5991,285.3093],[27.1733,43.6038,271.2831],[27.1811,43.6075,264.828],[27.1913,43.6069,256.5419],[27.2019,43.6036,296.9299],[27.2069,43.6061,281.5566],[27.2106,43.6096,297.5991],[27.2108,43.618,280.1875],[27.2187,43.6282,274.3171],[27.2204,43.6399,279.0724],[27.2276,43.6492,268.7022],[27.2471,43.652,253.3508],[27.256,43.6571,260.3401],[27.2595,43.663,258.1021],[27.2355,43.6746,262.1125]]]]}}