{"type":"Feature","properties":{"GID_2":"BGR.17.5_1","GID_0":"BGR","country":"Bulgaria","GID_1":"BGR.17_1","state":"Shumen","NL_NAME_1":"Шумен","county":"NoviPazar","VARNAME_2":"NA","NL_NAME_2":"Новипазар","TYPE_2":"Obshtina","ENGTYPE_2":"Municipality","CC_2":"NA","HASC_2":"BG.SH.NP","name":"NoviPazar.county"},
"geometry":{"type": "MultiPolygon","coordinates": [[[[27.075,43.441,433.923],[27.1009,43.4413,345.4977],[27.1045,43.4398,333.1192],[27.1127,43.4319,326.8647],[27.1191,43.4291,321.3655],[27.1334,43.4322,255.4849],[27.1371,43.4316,264.3495],[27.1619,43.4059,207.2534],[27.1754,43.3964,169.3086],[27.1756,43.3902,150.8526],[27.1725,43.3832,173.2853],[27.1721,43.37,154.6984],[27.1785,43.3609,144.7615],[27.1873,43.3554,129.5249],[27.215699999999998,43.3478,160.8463],[27.2303,43.338,132.6897],[27.2363,43.3297,121.94],[27.2434,43.3248,171.3664],[27.2485,43.3233,174.9632],[27.2554,43.324,162.6149],[27.2657,43.3322,168.7419],[27.2729,43.3338,227.7194],[27.2778,43.3303,167.8709],[27.2771,43.3159,139.1925],[27.2962,43.3163,177.6013],[27.3051,43.3197,187.4334],[27.3186,43.3289,287.6099],[27.3386,43.3577,199.1999],[27.3381,43.3622,206.5378],[27.3359,43.3645,217.9348],[27.3191,43.3712,276.1536],[27.3081,43.3805,369.2997],[27.3043,43.3869,308.4476],[27.3024,43.3987,365.2434],[27.3064,43.4133,352.8127],[27.3121,43.4216,264.7356],[27.32,43.4288,278.6071],[27.335,43.4358,294.0211],[27.3597,43.4626,255.3482],[27.3612,43.4699,257.4582],[27.3571,43.4771,301.7696],[27.3353,43.4781,329.7455],[27.3325,43.4816,333.8442],[27.3363,43.4871,322.325],[27.3568,43.5017,310.0834],[27.3601,43.5092,287.2249],[27.3593,43.5134,272.8283],[27.3557,43.5166,259.2068],[27.3414,43.5167,285.2849],[27.3303,43.521,308.5521],[27.3273,43.53,311.4933],[27.3269,43.5373,313.5136],[27.3117,43.5217,337.6174],[27.2987,43.5046,340.3423],[27.2864,43.4942,358.9324],[27.2791,43.4943,369.1524],[27.2758,43.4966,363.6626],[27.2714,43.5087,314.5046],[27.2664,43.5141,287.7628],[27.2553,43.5152,291.6366],[27.2458,43.5112,293.8218],[27.2239,43.4914,354.6334],[27.2164,43.4878,392.2658],[27.2068,43.4863,411.6017],[27.1842,43.4868,276.1528],[27.1794,43.4915,318.4493],[27.172,43.5042,328.3777],[27.1573,43.5113,390.0367],[27.1461,43.5201,389.9531],[27.1374,43.512,388.5374],[27.1197,43.5036,290.8992],[27.1098,43.5018,257.8563],[27.1002,43.5021,295.5671],[27.0855,43.5057,384.8257],[27.0859,43.4932,291.8129],[27.0916,43.4845,303.664],[27.0948,43.4759,421.2667],[27.0915,43.4724,397.9825],[27.0893,43.4723,398.749],[27.0818,43.4772,419.8745],[27.078,43.476,394.8464],[27.075,43.441,433.923]]]]}}