{"type":"Feature","properties":{"GID_2":"BGR.18.6_1","GID_0":"BGR","country":"Bulgaria","GID_1":"BGR.18_1","state":"Silistra","NL_NAME_1":"Силистра","county":"Sitovo","VARNAME_2":"NA","NL_NAME_2":"NA","TYPE_2":"Obshtina","ENGTYPE_2":"Municipality","CC_2":"NA","HASC_2":"BG.SI.SV","name":"Sitovo.county"},
"geometry":{"type": "MultiPolygon","coordinates": [[[[27.0844,43.9352,121.0879],[27.0887,43.9432,147.0985],[27.0905,43.9507,153.2876],[27.0894,43.9545,135.2109],[27.078,43.97,136.4555],[27.0761,43.9835,115.4674],[27.0646,43.9924,80.1436],[27.0628,44.0045,94.683],[27.0463,44.0159,123.7864],[27.041,44.0227,126.4822],[27.0401,44.029,104.3834],[27.0457,44.0431,68.1245],[27.0456,44.0474,28.7962],[27.0163,44.0661,115.716],[27.0073,44.0694,108.6395],[26.9951,44.0652,116.2156],[26.988,44.0693,111.6586],[26.9854,44.0729,116.3332],[26.9819,44.097,110.2692],[26.9744,44.1131,107.8357],[26.9669,44.1363,7.0],[26.9248,44.1323,7.5],[26.9082,44.1336,7.5],[26.8829,44.1245,8.0],[26.8837,44.1233,8.0],[26.8607,44.1175,8.0],[26.8647,44.0937,74.9149],[26.8724,44.0811,115.3727],[26.8801,44.073,113.7051],[26.9076,44.0579,27.9742],[26.9144,44.0523,26.5642],[26.9164,44.0474,73.4106],[26.9169,44.039,88.5731],[26.914,44.024,50.846],[26.9165,44.0123,82.8714],[26.9215,44.0017,66.67],[26.9358,43.9916,43.5886],[26.9382,43.9877,48.7409],[26.9371,43.9827,58.5581],[26.9296,43.9763,65.338],[26.9291,43.9732,83.3061],[26.9364,43.9691,76.5315],[26.9543,43.9682,105.9396],[26.9603,43.9632,70.4108],[26.9643,43.9537,63.74],[26.9633,43.9432,78.6583],[26.9578,43.9342,100.4632],[26.9387,43.9199,125.9692],[26.9315,43.909,124.7123],[26.9285,43.9007,151.1163],[26.9371,43.8934,135.9473],[26.9403,43.8843,146.8351],[26.9389,43.8816,149.5019],[26.93,43.8811,186.4939],[26.9286,43.8796,194.8185],[26.9289,43.8734,174.3486],[26.931,43.8707,189.9865],[26.949,43.8773,164.2302],[26.9709,43.878,162.1581],[26.9747,43.8812,143.084],[26.9768,43.8855,176.1757],[26.9781,43.9069,146.1634],[26.9805,43.9119,154.6839],[26.9858,43.9145,152.5252],[26.9976,43.908,158.9286],[27.0084,43.9118,146.6953],[27.0236,43.9133,126.7652],[27.0278,43.9162,135.414],[27.0461,43.9422,152.5442],[27.0583,43.9445,153.435],[27.0635,43.9439,148.6801],[27.0792,43.9354,141.6377],[27.0844,43.9352,121.0879]]]]}}