{"type": "Feature","bbox": [26.7163,43.0748,27.0239,43.2861],"geometry": {"type": "MultiPolygon","coordinates": [[[[27.0239,43.1207,63.2386],[26.9947,43.1506,90.5773],[26.9704,43.162,124.5016],[26.9641,43.1734,97.5283],[26.9563,43.1764,110.4543],[26.9353,43.1774,141.1374],[26.9285,43.1821,121.8639],[26.9258,43.1934,80.4936],[26.9251,43.2221,158.2587],[26.9219,43.2492,333.0381],[26.9184,43.2544,466.9805],[26.9074,43.2576,432.8708],[26.902,43.2612,375.1512],[26.893,43.2756,469.7504],[26.889,43.2775,486.3354],[26.8604,43.2795,421.0722],[26.8381,43.2852,309.3914],[26.8288,43.2861,240.7844],[26.7907,43.2826,182.0981],[26.7744,43.2771,144.8204],[26.7775,43.2731,154.9391],[26.777,43.2609,111.6651],[26.7687,43.2467,113.8065],[26.7262,43.2229,177.9149],[26.7214,43.2172,176.5729],[26.7188,43.2101,174.3403],[26.7174,43.2009,181.2106],[26.7193,43.1929,221.464],[26.7163,43.1778,303.0731],[26.7226,43.1737,259.9384],[26.7341,43.161,382.1312],[26.7389,43.1587,325.5023],[26.7563,43.1567,373.0723],[26.7856,43.1406,490.0674],[26.7933,43.1337,247.4293],[26.8238,43.118899999999996,500.2776],[26.8316,43.1129,357.8522],[26.8321,43.1022,597.3551],[26.8392,43.0934,458.1173],[26.8649,43.0873,375.5639],[26.8828,43.0803,422.9248],[26.8906,43.0748,427.2923],[26.8958,43.0788,348.5494],[26.9092,43.0821,266.7146],[26.9227,43.081,201.0798],[26.941,43.0761,157.3976],[26.948,43.0768,214.6115],[26.9558,43.0825,133.2916],[26.9602,43.0934,109.2609],[26.9647,43.0997,125.3981],[26.973,43.1064,111.4162],[26.9815,43.11,108.4301],[27.0239,43.1207,63.2386]]]]}
,"properties": {"GID_2": "BGR.17.6_1","GID_0": "BGR","country": "Bulgaria","GID_1": "BGR.17_1","state": "Shumen","NL_NAME_1": "Шумен","county": "Preslav","VARNAME_2": "VelikiPreslav","NL_NAME_2": "Преслав","TYPE_2": "Obshtina","ENGTYPE_2": "Municipality","CC_2": "NA","HASC_2": "BG.SH.VP","name": "Preslav.county","area_km2": 327.8477,"hist_schema_id": "Elevation0-9000","hist_area_km2": {"75": 7.6233,"100": 46.6462,"125": 50.3122,"150": 55.2635,"175": 43.5905,"200": 31.3308,"225": 18.7898,"250": 12.3542,"275": 9.0892,"300": 6.2901,"325": 4.9774,"350": 4.8697,"375": 4.4059,"400": 4.3125,"425": 4.6671,"450": 7.4925,"475": 10.2089,"500": 4.7418,"525": 0.5416,"550": 0.1703,"575": 0.0774,"600": 0.0929}}}