{"type":"Feature","properties":{"ISO3166-1-Alpha-3":"BGR","country":"Bulgaria","fill":"#F0F","id":"3002","name":"Blagoevgrad"},
"geometry":{"type": "Polygon","coordinates": [[[23.76313,42.17761,2416.5249],[23.74711,42.1783,2439.179],[23.73595,42.16704,2398.8745],[23.71796,42.16048,2344.8489],[23.69843,42.16683,2284.9282],[23.66422,42.16259,2346.8108],[23.63766,42.15474,2411.939],[23.60024,42.15092,2486.061],[23.58081,42.11438,2406.4417],[23.54753,42.08412,2402.0481],[23.49358,42.09908,2490.4146],[23.44429,42.06968,2291.0579],[23.38723,42.06234,2308.6958],[23.26052,42.09288,2052.488],[23.2414,42.0903,1823.6631],[23.22228,42.0919,1777.3594],[23.20058,42.09169,1546.9113],[23.15087,42.07265,865.3736],[23.12265,42.05761,606.0058],[23.09206,42.051,483.2849],[23.06074,42.04867,410.818],[23.0347,42.06185,357.6677],[23.00514,42.06989,519.5879],[22.9762,42.06829,723.9122],[22.95904,42.08712,1044.5028],[22.93362,42.08601,1084.2646],[22.90458,42.05051,1050.1741],[22.89693,42.03038,1096.6279],[22.87543,42.03307,1213.4172],[22.85838,42.01981,1066.0679],[22.84562,42.00741,1039.79],[22.84577,42.00687,1023.7273],[22.84659,41.99364,926.3773],[22.8469,41.99348,926.3773],[22.85476,41.98263,1023.4721],[22.85714,41.97188,1149.6653],[22.85889,41.94788,859.8025],[22.86634,41.92488,991.7444],[22.87708,41.90204,1008.3521],[22.87863,41.89501,980.3455],[22.87822,41.88026,986.2712],[22.8808,41.87269,964.2725],[22.88209,41.87162,989.5293],[22.88504,41.86915,1004.9268],[22.89672,41.86445,1068.4429],[22.90137,41.86042,955.3895],[22.90768,41.84858,958.4435],[22.91832,41.81435,1150.0012],[22.93972,41.7767,1577.5789],[22.94592,41.76934,1381.3982],[22.95687,41.76567,1623.4907],[22.98054,41.76474,1552.6819],[22.99119,41.76099,1634.8438],[23.00886,41.73993,1573.1311],[23.00958,41.71637,1494.0026],[22.99863,41.69312,1498.9099],[22.98543,41.6772,1417.4827],[22.97661,41.66655,1236.74],[22.9701,41.65203,1287.9159],[22.967,41.64705,1293.5763],[22.96152,41.64449,1316.5072],[22.94581,41.64108,1250.0599],[22.94085,41.63764,1301.9382],[22.9361,41.62617,1273.4347],[22.933,41.61234,1172.3622],[22.93207,41.59795,1073.3966],[22.93372,41.58459,890.9413],[22.93693,41.57891,1007.7588],[22.94643,41.56775,925.4614],[22.94871,41.56098,1075.0259],[22.94788,41.55514,1206.6641],[22.94302,41.53855,1127.3778],[22.9436,41.5232,1098.9819],[22.94623,41.45323,836.6552],[22.94757,41.44838,785.3369],[22.95336,41.4382,675.4028],[22.9546,41.43241,594.389],[22.95212,41.4277,544.2342],[22.94054,41.4169,329.341],[22.93734,41.41076,296.5883],[22.93941,41.38941,197.8629],[22.94447,41.36843,366.9632],[22.94085,41.34983,1285.1652],[22.91698,41.33577,1601.7603],[23.11521,41.31267,1503.4177],[23.15717,41.31634,1554.9822],[23.1797,41.32135,1818.5984],[23.19066,41.32606,1497.6761],[23.19954,41.33298,1292.9954],[23.20482,41.3427,888.3113],[23.20637,41.36094,606.1988],[23.20978,41.36859,477.2323],[23.22425,41.37903,501.098],[23.24657,41.38972,366.5129],[23.26993,41.39727,269.1321],[23.2877,41.3982,297.6997],[23.3062,41.38838,196.5203],[23.31561,41.37686,176.4611],[23.32605,41.36931,181.0135],[23.34724,41.37122,66.8201],[23.36512,41.37856,89.0883],[23.3955,41.39525,103.2554],[23.41452,41.3999,138.4969],[23.51301,41.39773,770.2938],[23.57895,41.372,1362.8113],[23.61244,41.37102,1960.5779],[23.62485,41.37709,2106.2954],[23.62774,41.37851,2092.1443],[23.65285,41.39763,1942.2683],[23.67218,41.40295,1354.6296],[23.70535,41.40316,839.6651],[23.73822,41.39747,773.6198],[23.75445,41.40068,1082.233],[23.77708,41.42905,957.8354],[23.79207,41.43447,725.8394],[23.80974,41.4338,704.4779],[23.83093,41.43561,733.6203],[23.8516,41.43959,866.4255],[23.86772,41.44548,793.1111],[23.8948,41.46434,730.4404],[23.90286,41.46352,743.9739],[23.94989,41.43758,909.3109],[23.96467,41.43835,1015.3194],[23.98131,41.45086,846.4333],[23.98689,41.4537,867.1399],[23.99236,41.45463,801.3286],[23.99712,41.45701,798.64],[24.00074,41.46414,555.5773],[24.02285,41.45308,482.7859],[24.03474,41.45132,511.2367],[24.0459,41.45546,522.7722],[24.052,41.463,617.4695],[24.05252,41.47147,705.7199],[24.04983,41.49364,829.7918],[24.04735,41.52574,889.8795],[24.0766,41.53602,948.2311],[24.11649,41.53338,1291.2201],[24.14626,41.52677,1305.4655],[24.15401,41.52212,1363.2649],[24.15845,41.51633,1433.1295],[24.16279,41.51204,1404.209],[24.17023,41.51158,1499.4723],[24.17313,41.5153,1523.222],[24.17747,41.53101,1480.4619],[24.1816,41.53736,1371.3258],[24.19628,41.54703,1529.9418],[24.1977,41.54771,1500.2548],[24.19731,41.54796,1500.2548],[24.07794,41.62402,1022.183],[24.10357,41.63663,1304.4689],[24.12311,41.65462,1408.619],[24.09634,41.66831,1582.6248],[24.087039999999998,41.68092,1406.8314],[24.07257,41.68634,1530.7211],[24.05417,41.69317,1557.812],[24.04197,41.71043,1230.2393],[23.92818,41.76898,1736.025],[23.91774,41.78453,1629.8625],[23.90555,41.79654,1507.1329],[23.88581,41.79244,1749.2198],[23.86824,41.79538,1835.3164],[23.84643,41.81202,1667.6232],[23.82173,41.82383,1673.5665],[23.79568,41.86091,1484.5469],[23.78959,41.90597,1553.9441],[23.77439,41.92191,1508.1233],[23.76251,41.93987,1589.054],[23.76788,41.95641,1570.4547],[23.76664,41.97646,1627.6719],[23.79186,42.02069,1449.1539],[23.82049,42.04534,1384.9949],[23.80127,42.0627,1613.0361],[23.80096,42.08464,1800.1287],[23.81325,42.09624,1574.1736],[23.81605,42.11231,1713.5808],[23.80964,42.13288,2245.8613],[23.79217,42.1467,2006.5537],[23.77264,42.1582,1989.0142],[23.76313,42.17761,2416.5249]]]}}