{"type":"Feature","properties":{"GID_1":"BGR.1_1","GID_0":"BGR","country":"Bulgaria","state":"Blagoevgrad","VARNAME_1":"GornaCumaya|Cuma-iBala|GornaD","NL_NAME_1":"Благоевград","TYPE_1":"Oblast","ENGTYPE_1":"Province","CC_1":"NA","HASC_1":"BG.BL","ISO_1":"BG-01","name":"Blagoevgrad.state"},
"geometry":{"type": "MultiPolygon","coordinates": [[[[23.8266,41.8189,1768.2806],[23.8143,41.8242,1700.3029],[23.7934,41.8383,1558.2595],[23.7887,41.8524,1502.0797],[23.7855,41.8777,1534.3508],[23.7739,41.898,1554.0837],[23.7703,41.9009,1523.7285],[23.7657,41.9083,1505.2623],[23.7637,41.9347,1558.9976],[23.7564,41.9559,1522.9723],[23.7541,41.9586,1481.3531],[23.7579,41.9701,1600.8367],[23.7604,41.9734,1671.6343],[23.7872,41.9986,1353.892],[23.8147,42.0176,1227.9205],[23.8179,42.022,1132.7671],[23.8171,42.0248,1180.7887],[23.8141,42.0269,1284.9453],[23.7982,42.0313,1313.5062],[23.7922,42.0342,1216.8181],[23.79,42.0371,1297.382],[23.7892,42.0433,1318.4142],[23.7926,42.076,1670.056],[23.7783,42.1042,1713.387],[23.7846,42.1164,1813.7543],[23.7843,42.1232,1858.8433],[23.7776,42.1324,1783.4641],[23.7618,42.1424,1984.4498],[23.7557,42.1505,2018.255],[23.755,42.1612,2108.3662],[23.7649,42.1759,2462.5728],[23.7325,42.1734,2581.7781],[23.7253,42.1712,2343.6729],[23.7231,42.1689,2337.7959],[23.7211,42.1592,2344.8193],[23.7324,42.1474,2327.9521],[23.7353,42.142,2145.4207],[23.7324,42.1375,2011.3872],[23.7292,42.1368,1911.4406],[23.7227,42.1372,2073.7271],[23.7075,42.1425,2204.0288],[23.6825,42.1591,2291.1555],[23.67,42.1635,2301.6143],[23.6629,42.1635,2358.554],[23.6505,42.1551,2562.0447],[23.6412,42.1519,2404.6692],[23.6195,42.1564,2342.7449],[23.6069,42.1563,2608.6643],[23.5939,42.1448,2703.9089],[23.5906,42.1397,2616.8723],[23.5798,42.1068,2397.3574],[23.5669,42.0912,2376.5129],[23.5532,42.087,2451.8652],[23.5449,42.0866,2406.0176],[23.5167,42.0939,2439.8662],[23.4925,42.0946,2579.8938],[23.4942,42.0965,2632.7114],[23.4836,42.0908,2606.2256],[23.4485,42.0612,2509.9707],[23.4236,42.0548,2358.2136],[23.3968,42.0545,2229.136],[23.3833,42.0598,2244.4204],[23.3612,42.0732,2318.6934],[23.340699999999998,42.0754,2089.8889],[23.319,42.0866,1999.4272],[23.3096,42.0897,2123.354],[23.296,42.0917,1936.3376],[23.2827,42.0917,1890.7515],[23.2658,42.0977,1878.2655],[23.2568,42.0988,1864.8146],[23.1888,42.1006,1459.5389],[23.1744,42.098,1302.7869],[23.1656,42.0938,1163.7844],[23.1411,42.0762,828.1331],[23.1284,42.0647,668.0615],[23.1123,42.0553,591.4903],[23.0614,42.0434,423.1183],[23.0388,42.0403,373.1979],[23.0336,42.0414,335.2493],[23.031,42.0436,373.332],[23.0257,42.0578,343.6466],[23.0212,42.0604,418.1743],[23.0008,42.0618,540.7778],[22.9768,42.0599,753.7494],[22.962,42.0617,806.7394],[22.9532,42.0678,843.3946],[22.9466,42.0807,900.6219],[22.9448,42.0899,1022.7172],[22.9383,42.0965,1041.9985],[22.9353,42.0979,989.6359],[22.9247,42.0962,964.8666],[22.9145,42.088,1054.3679],[22.9008,42.0625,1131.0486],[22.9,42.0316,1087.3413],[22.8953,42.022,1030.9014],[22.8905,42.0173,971.7492],[22.8826,42.0145,856.9702],[22.8375,42.0071,830.21],[22.8395,42.0013,865.6092],[22.8384,41.9969,801.6938],[22.832,41.9897,903.4456],[22.8328,41.9879,915.6477],[22.8472,41.9825,1027.7472],[22.8459,41.9775,1060.0673],[22.8472,41.9757,1106.9568],[22.8464,41.9641,1018.5466],[22.8503,41.9616,1050.2415],[22.8465,41.9412,777.9854],[22.8492,41.9341,790.2626],[22.8474,41.9313,812.3102],[22.8509,41.9292,856.3853],[22.847,41.9227,770.402],[22.851,41.9192,808.4164],[22.8528,41.9121,805.6777],[22.8561,41.9083,773.0443],[22.864,41.9061,862.144],[22.8667,41.9017,893.5111],[22.8665,41.8968,880.4536],[22.8719,41.8903,900.3485],[22.8696,41.8852,872.1237],[22.8701,41.8817,873.9418],[22.8742,41.8785,885.1223],[22.8719,41.8744,873.0135],[22.8753,41.8635,844.0809],[22.8803,41.8624,910.6771],[22.883,41.8645,948.7979],[22.8884,41.8637,977.9417],[22.9018,41.8501,980.2864],[22.9013,41.8471,897.6846],[22.905,41.8431,1006.9167],[22.9068,41.8371,964.1625],[22.9122,41.8345,1011.9621],[22.9115,41.8294,1015.3845],[22.9192,41.8174,1146.9741],[22.9207,41.8014,1229.6978],[22.9251,41.7978,1388.1475],[22.9286,41.7896,1400.5369],[22.9342,41.7863,1593.9305],[22.938,41.7785,1683.9148],[22.9433,41.7741,1446.4861],[22.9458,41.7744,1409.5803],[22.9506,41.7616,1542.7743],[22.9486,41.7582,1460.8824],[22.9502,41.7556,1440.2157],[22.9559,41.7531,1368.2271],[22.9569,41.7561,1366.0105],[22.962,41.7567,1529.8474],[22.965699999999998,41.7614,1601.8468],[22.9689,41.7574,1501.3186],[22.9734,41.7618,1516.0894],[22.9815,41.7619,1469.1123],[22.9842,41.755,1489.5471],[22.9889,41.7509,1430.8208],[22.9885,41.744,1505.0631],[22.994,41.7423,1552.7563],[22.9968,41.7335,1397.0121],[23.0033,41.725,1455.5083],[23.0033,41.7214,1486.2592],[23.0057,41.7182,1486.8962],[23.0032,41.7127,1420.6628],[23.0061,41.7051,1439.6907],[23.0013,41.7023,1410.0657],[22.999,41.6978,1479.8278],[22.9948,41.6978,1443.4917],[22.9815,41.6796,1371.2234],[22.9807,41.6761,1344.3181],[22.9774,41.6755,1331.0262],[22.9676,41.6664,1268.1742],[22.9635,41.659,1254.8335],[22.9637,41.6568,1282.7637],[22.9615,41.6561,1285.2384],[22.9591,41.6509,1374.5901],[22.9555,41.6495,1348.5804],[22.9558,41.6468,1333.8669],[22.9581,41.6451,1329.141],[22.9575,41.6403,1242.9027],[22.9411,41.64,1272.4631],[22.9346,41.6381,1228.2214],[22.9338,41.6391,1204.5583],[22.9322,41.6354,1249.1394],[22.926,41.6327,1178.8558],[22.9254,41.6268,1245.9031],[22.9227,41.6233,1294.4905],[22.9272,41.6184,1299.6814],[22.9267,41.6132,1187.0991],[22.9287,41.61,1139.3536],[22.9275,41.6034,1014.8186],[22.9253,41.6008,998.7374],[22.9261,41.5941,1040.9425],[22.9237,41.5896,923.9729],[22.9249,41.5802,1022.0665],[22.9271,41.5761,1015.7209],[22.9346,41.5758,1069.9333],[22.9353,41.5729,1091.8212],[22.9401,41.5691,965.4346],[22.939,41.567,999.6875],[22.9405,41.5597,970.345],[22.943,41.5561,1078.4773],[22.9466,41.555,1162.2559],[22.9471,41.5515,1231.3286],[22.943,41.5456,1249.964],[22.944,41.5348,1138.7944],[22.9334,41.5327,1263.6167],[22.9316,41.5247,1025.3129],[22.9364,41.5151,1272.7844],[22.9451,41.5081,1151.2505],[22.9431,41.4951,1377.0596],[22.9342,41.4899,1166.0056],[22.9298,41.4836,1034.8892],[22.9327,41.4803,938.2367],[22.9335,41.4667,804.5963],[22.9399,41.4645,738.011],[22.9362,41.4558,659.5544],[22.9378,41.4517,654.8107],[22.9479,41.4442,723.3676],[22.9526,41.438,674.0492],[22.952,41.4351,611.7378],[22.9472,41.4308,538.6735],[22.9402,41.4206,387.412],[22.9341,41.4202,382.3505],[22.925,41.4087,280.2077],[22.926,41.4019,205.3945],[22.9332,41.3987,233.0521],[22.9332,41.3964,224.8645],[22.9412,41.3867,197.938],[22.9394,41.3817,226.6847],[22.9394,41.374,279.952],[22.9455,41.3614,665.3587],[22.9469,41.3535,1054.5664],[22.9452,41.351,1147.9972],[22.9336,41.3507,1223.4305],[22.932,41.3491,1347.7845],[22.9356,41.3369,1693.9556],[22.9436,41.3347,1521.1835],[22.9594,41.3333,1626.3762],[22.9668,41.336,1673.8644],[22.981,41.332,1515.2333],[23.0,41.3305,1860.3438],[23.0064,41.3307,1816.3845],[23.0137,41.3343,1704.7454],[23.0379,41.3293,1633.193],[23.0598,41.321,1656.3715],[23.0845,41.3177,1639.8474],[23.0931,41.3174,1745.1501],[23.1025,41.3209,1644.1211],[23.132,41.3203,1956.3989],[23.1469,41.3227,1820.4486],[23.1599,41.3216,1918.67],[23.1665,41.3191,1739.5977],[23.1749,41.323,1912.0786],[23.1848,41.3228,1651.5518],[23.1935,41.3282,1384.0367],[23.2011,41.3303,1394.5883],[23.2115,41.3371,1129.147],[23.2115,41.3417,1026.1008],[23.218,41.3514,853.8582],[23.2164,41.354,892.8523],[23.2175,41.368,704.9834],[23.2232,41.3718,787.3754],[23.2227,41.3764,578.1055],[23.2316,41.3769,762.9199],[23.2338,41.3806,620.1369],[23.2472,41.3822,550.0988],[23.2479,41.3841,500.4131],[23.2531,41.3864,448.7499],[23.2535,41.3894,371.1843],[23.2586,41.3911,335.6702],[23.2625,41.3947,290.2379],[23.2649,41.3947,304.2685],[23.2704,41.3993,252.3896],[23.2929,41.4004,283.2676],[23.2981,41.3978,246.5836],[23.3079,41.3995,214.8611],[23.3113,41.3967,143.8286],[23.3207,41.3982,100.9505],[23.3364,41.3664,75.6705],[23.3461,41.3723,68.6188],[23.3518,41.3786,72.812],[23.3689,41.383,80.8052],[23.3696,41.3852,83.0085],[23.3731,41.3863,86.0769],[23.3741,41.3889,105.8487],[23.3777,41.3909,122.7586],[23.3817,41.3924,100.0634],[23.3855,41.3919,99.2215],[23.3913,41.4009,148.5426],[23.4025,41.401,115.9465],[23.4092,41.398,174.2288],[23.4297,41.4061,171.5457],[23.4481,41.4027,319.6252],[23.4537,41.4034,358.9863],[23.4744,41.3982,427.7226],[23.4906,41.4019,540.5325],[23.4991,41.4009,604.6223],[23.5094,41.4044,830.0522],[23.5191,41.4051,1107.3577],[23.5272,41.4022,1128.8232],[23.5264,41.398,948.2671],[23.5285,41.3943,996.8962],[23.5334,41.3927,1207.7781],[23.5401,41.3864,1062.7397],[23.571,41.3898,1413.543],[23.5798,41.3871,1485.1696],[23.5922,41.3796,1947.6207],[23.5937,41.3801,1991.2745],[23.6005,41.3764,2015.9821],[23.6044,41.3776,2050.0847],[23.6111,41.376,2049.9277],[23.6156,41.3777,2082.4812],[23.6241,41.3759,2152.3374],[23.6339,41.3812,1950.3671],[23.6375,41.3936,1884.2422],[23.6419,41.3965,2136.8516],[23.652,41.3988,1872.0381],[23.666,41.4086,1396.9962],[23.67,41.4066,1442.4324],[23.6724,41.4082,1478.48],[23.6876,41.4028,1069.936],[23.7291,41.4059,719.1315],[23.7343,41.403,730.395],[23.7474,41.4015,974.9028],[23.7517,41.3993,934.5842],[23.7518,41.3967,927.9589],[23.7579,41.395,1045.2249],[23.7743,41.4116,1037.3323],[23.7814,41.4147,1192.734],[23.783,41.4201,1040.6531],[23.7964,41.4322,801.1706],[23.8042,41.4338,702.9186],[23.8079,41.4317,676.6687],[23.8181,41.4316,691.1766],[23.8265,41.4324,681.4056],[23.8393,41.4363,791.4571],[23.8455,41.4353,751.2386],[23.8535,41.4439,843.8467],[23.8629,41.4443,785.0689],[23.8649,41.4432,768.373],[23.8774,41.4485,809.8365],[23.8864,41.4453,747.9387],[23.8964,41.4507,783.3868],[23.902,41.4515,759.1408],[23.9062,41.4587,763.0839],[23.9082,41.4665,767.8428],[23.9063,41.4703,819.9432],[23.9072,41.475,822.8065],[23.9128,41.4785,841.9232],[23.9157,41.4752,842.8765],[23.9311,41.4678,957.1191],[23.9297,41.4644,924.0522],[23.9313,41.4609,920.6813],[23.9396,41.4591,973.1987],[23.9412,41.4466,917.1365],[23.9507,41.4464,982.268],[23.9636,41.4368,986.934],[23.9675,41.4359,1028.75],[23.9739,41.4388,1022.0457],[23.9749,41.4417,984.1214],[23.987,41.4466,945.5642],[23.9887,41.4514,862.7103],[23.9962,41.4511,876.8279],[24.0013,41.4538,792.7949],[24.0122,41.4644,497.1111],[24.0151,41.4622,507.2829],[24.0142,41.4571,538.6999],[24.0169,41.4534,560.2676],[24.0204,41.4526,500.9068],[24.029,41.4543,443.2635],[24.0309,41.4492,546.8478],[24.0398,41.4501,461.4264],[24.049,41.4583,581.0464],[24.0612,41.4623,647.7463],[24.0654,41.4622,766.9299],[24.0671,41.4671,722.5139],[24.0638,41.4789,850.7065],[24.0565,41.4822,880.2803],[24.0566,41.4843,860.4401],[24.0594,41.4861,871.8328],[24.0604,41.4929,877.0569],[24.0626,41.4966,819.823],[24.056,41.5063,882.4011],[24.0573,41.5099,677.038],[24.0561,41.5153,640.9128],[24.0606,41.5209,597.9618],[24.0667,41.5225,650.0562],[24.0716,41.5266,783.2878],[24.0721,41.5305,865.6832],[24.0705,41.5292,885.2035],[24.0679,41.5361,682.2209],[24.0681,41.5496,656.1161],[24.0787,41.5711,982.5656],[24.0861,41.5807,805.9131],[24.0874,41.5846,780.8737],[24.0859,41.5908,886.3615],[24.0798,41.6026,974.696],[24.0798,41.6104,1000.194],[24.1081,41.6336,1277.5687],[24.1097,41.6441,1508.9772],[24.1076,41.6525,1473.3231],[24.0925,41.6612,1603.9495],[24.0731,41.6672,1626.5673],[24.0645,41.6722,1605.5884],[24.0388,41.6932,1541.1458],[23.9917,41.7244,1600.2422],[23.9869,41.7404,1678.9165],[23.9801,41.7469,1543.1777],[23.962,41.7532,1592.6848],[23.9153,41.7809,1679.4089],[23.9089,41.7872,1636.0367],[23.9004,41.7919,1719.2902],[23.8854,41.7989,1733.724],[23.8564,41.8043,1851.1621],[23.8266,41.8189,1768.2806]]]]}}