{"type":"Feature","properties":{"featurecla":"River","scalerank":9,"rivernum":1067,"dissolve":"1067River","name":"Strymnas1","name_alt":"Truma","note":null,"min_zoom":7.1,"strokeweig":0.2,"name_en":"Truma","min_label":8.1},
"geometry":{"type": "LineString","coordinates": [[22.802636718750023,42.520770574994117,749.8557],[22.780908203125023,42.51044342655662,905.1066],[22.74169921875,42.483270574994116,585.4836],[22.725244140625023,42.46832916874412,659.9476],[22.703759765625023,42.436297918744117,564.1408],[22.705078125,42.40888092655662,724.3079],[22.763574218750023,42.32355377811912,473.1715],[22.785058593750023,42.29962799686912,459.7014],[22.810791015625,42.28070709843162,455.5638],[22.845117187500023,42.26618073124412,526.182],[22.868408203125,42.26105377811912,471.9771],[22.879541015625023,42.25726959843162,477.2621],[22.888818359375023,42.25031159061912,448.6649],[22.894921875000023,42.239374090619116,502.222],[22.896142578125023,42.23004791874412,549.6844],[22.8994140625,42.22064850468162,438.0995],[22.911279296875023,42.20917389530662,421.143],[22.921044921875023,42.204120184369117,523.2662],[22.95556640625,42.19232819218162,546.1581],[22.968896484375023,42.184833074994117,420.1239],[23.021386718750023,42.134295965619117,364.9065],[23.03173828125,42.12030670780662,357.8914],[23.039794921875,42.10187409061912,360.3792],[23.043603515625023,42.07831452030662,426.8313],[23.044824218750023,42.05475494999412,413.5249],[23.049218750000023,42.03217194218162,354.2482],[23.062158203125023,42.01166412968162,329.1598],[23.092529296875,41.97821686405662,372.988],[23.10400390625,41.95929596561912,317.4252],[23.125146484375023,41.88605377811912,315.5072],[23.13623046875,41.86408112186912,274.9018],[23.152490234375023,41.84162018436912,335.7138],[23.164306640625,41.82074616093162,455.5266],[23.16552734375,41.80121491093162,400.1033],[23.15869140625,41.75580475468162,272.0903],[23.161376953125,41.733417059369117,288.8227],[23.1904296875,41.641717840619116,122.5363],[23.203027343750023,41.621698309369116,119.6207],[23.235009765625023,41.582879949994116,109.3698],[23.244287109375023,41.563104559369116,122.2266],[23.256982421875023,41.49909088749412,91.1634],[23.266357421875,41.477899481244116,88.0403],[23.2783203125,41.458124090619116,94.5079],[23.292871093750023,41.440545965619116,85.5557],[23.310449218750023,41.42597077030662,78.298],[23.326904296875,41.41535065311912,76.6243],[23.3388671875,41.405633856244116,70.9526],[23.346582031250023,41.39301178593162,67.0],[23.349853515625,41.373651434369116,67.2856],[23.349267578125023,41.34174225468162,62.5725],[23.3466796875,41.325311590619116,69.3315],[23.341699218750023,41.311053778119117,53.25],[23.32177734375,41.28790924686912,207.9491],[23.2958984375,41.277948309369116,115.9682],[23.190185546875,41.268085028119117,118.8953],[23.166259765625,41.261004949994117,57.8095],[23.153076171875,41.24787018436912,33.5],[23.155664062500023,41.23285553593162,34.0942],[23.16943359375,41.223260809369116,33.5],[23.201318359375023,41.20856354374412,31.5816],[23.211669921875,41.19684479374412,30.9169],[23.226953125000023,41.173700262494116,30.5987],[23.238427734375023,41.163202215619116,28.903199999999998],[23.269287109375,41.145526434369117,27.7031],[23.27783203125,41.13764069218162,27.4463],[23.28466796875,41.125995184369117,25.7025],[23.294677734375,41.09967682499412,23.4575],[23.301171875000023,41.08722565311912,21.4274],[23.308349609375,41.07770416874412,21.0011],[23.316064453125023,41.06952545780662,20.5804],[23.332666015625023,41.05683014530662,20.03]]}}