{"type": "Feature","bbox": [27.1873,43.0718,27.5696,43.3086],"geometry": {"type": "MultiPolygon","coordinates": [[[[27.2477,43.1801,163.1745],[27.2219,43.1653,119.5],[27.1964,43.1424,172.9689],[27.1903,43.1339,165.2764],[27.1873,43.1252,167.029],[27.1876,43.1194,196.4845],[27.1944,43.109,209.881],[27.2061,43.1035,231.7055],[27.2283,43.1017,156.4745],[27.2407,43.0958,173.4283],[27.2542,43.0989,120.1957],[27.2717,43.1099,86.4787],[27.2773,43.1109,72.7984],[27.2822,43.1102,73.1511],[27.283,43.1082,85.8754],[27.2767,43.1016,94.3167],[27.2759,43.0971,104.2536],[27.2784,43.0957,117.9025],[27.2894,43.0968,119.5347],[27.2994,43.1007,101.0836],[27.3117,43.1027,121.4228],[27.3175,43.1008,96.6112],[27.3293,43.1019,291.7728],[27.3353,43.1009,229.1847],[27.341,43.095,279.7389],[27.3451,43.0936,255.247],[27.352,43.0949,258.4419],[27.3571,43.0981,199.7512],[27.3788,43.1165,72.7099],[27.3983,43.1192,37.2445],[27.4159,43.118899999999996,46.3549],[27.4255,43.1169,33.0031],[27.4304,43.1103,42.525],[27.4303,43.1038,69.1869],[27.4258,43.0941,187.2398],[27.4287,43.0889,224.9552],[27.4281,43.0794,218.0165],[27.4316,43.0748,140.0211],[27.4461,43.075,190.8924],[27.4521,43.0785,218.3619],[27.468,43.0831,171.4149],[27.473,43.0832,186.0045],[27.482,43.0817,211.1941],[27.493,43.077,175.0117],[27.5113,43.0789,83.6726],[27.5386,43.0718,80.2881],[27.5426,43.0732,69.9638],[27.5482,43.0817,12.4781],[27.5553,43.085,11.6633],[27.557,43.0878,11.0909],[27.5489,43.0948,18.6757],[27.5368,43.1014,21.3284],[27.5317,43.1096,29.4158],[27.5319,43.1139,30.7555],[27.5374,43.1183,54.2763],[27.5554,43.121,78.5444],[27.567,43.1297,38.7678],[27.5696,43.1338,41.7315],[27.5674,43.1421,68.4951],[27.5632,43.1463,78.149],[27.5574,43.1509,99.4686],[27.5422,43.158,119.6403],[27.5349,43.164,103.4058],[27.5343,43.1675,96.5604],[27.5363,43.1716,88.9342],[27.5554,43.1948,180.99],[27.5522,43.2062,268.794],[27.549,43.2087,266.4378],[27.5402,43.2254,199.2657],[27.5252,43.2326,210.1101],[27.5179,43.2386,216.7369],[27.5132,43.2434,189.1138],[27.5134,43.2495,154.4196],[27.4986,43.2485,130.7876],[27.4902,43.253,138.6197],[27.4863,43.2633,161.2151],[27.4861,43.2877,181.1562],[27.4837,43.2928,196.4812],[27.4702,43.3048,216.1941],[27.4532,43.3086,176.9044],[27.4409,43.3081,203.8996],[27.4261,43.2936,215.0207],[27.4175,43.2901,210.9203],[27.3834,43.2894,131.0025],[27.3764,43.288,132.0754],[27.3622,43.2806,141.9499],[27.3556,43.2679,125.4322],[27.346,43.2651,117.4755],[27.3401,43.2649,107.2965],[27.3176,43.2717,112.4651],[27.29,43.2734,150.3011],[27.2932,43.2494,64.3031],[27.2973,43.2342,140.3281],[27.3008,43.229,239.3915],[27.3175,43.218,296.1721],[27.3197,43.2157,285.7021],[27.3191,43.2114,283.9556],[27.3133,43.2081,252.6444],[27.287,43.2059,250.4594],[27.2682,43.1953,230.3881],[27.2477,43.1801,163.1745]]]]}
,"properties": {"GID_2": "BGR.24.8_1","GID_0": "BGR","country": "Bulgaria","GID_1": "BGR.24_1","state": "Varna","NL_NAME_1": "Варна","county": "Provadiya","VARNAME_2": "Provadia","NL_NAME_2": "Провадия","TYPE_2": "Obshtina","ENGTYPE_2": "Municipality","CC_2": "NA","HASC_2": "BG.VN.PR","name": "Provadiya.county","area_km2": 482.6351,"hist_schema_id": "Elevation0-9000","hist_area_km2": {"0": 0.8362,"25": 28.3836,"50": 51.9068,"75": 68.4793,"100": 64.1487,"125": 55.5019,"150": 48.1639,"175": 42.5285,"200": 35.525,"225": 25.6847,"250": 21.5135,"275": 21.0802,"300": 11.2034,"325": 6.1807,"350": 1.4987}}}