{"type": "Feature","bbox": [22.6188,43.5839,23.036,43.8365],"geometry": {"type": "MultiPolygon","coordinates": [[[[23.0357,43.8019,25.0],[23.036,43.8031,25.0],[22.9871,43.8099,25.0],[22.986,43.8076,25.0],[22.9778,43.8103,25.0],[22.9767,43.8089,25.0],[22.9555,43.8148,25.0],[22.9543,43.8135,25.0],[22.9485,43.8175,25.0],[22.95,43.8191,25.0],[22.9355,43.8239,25.0],[22.9082,43.8262,25.0],[22.8725,43.8365,25.0],[22.8682,43.8326,61.3374],[22.8541,43.8253,168.7998],[22.8373,43.8228,112.8283],[22.8173,43.8239,173.3217],[22.8067,43.8217,217.05],[22.7985,43.8127,209.1151],[22.7944,43.8052,201.4643],[22.7749,43.795,217.3737],[22.7689,43.7957,225.2705],[22.757,43.8022,240.9721],[22.7404,43.7993,250.5233],[22.7313,43.7881,244.9183],[22.7146,43.7733,171.9745],[22.7027,43.7643,215.5744],[22.6918,43.7583,221.8803],[22.6711,43.7522,208.3799],[22.6505,43.7506,244.8228],[22.6213,43.7378,301.5533],[22.6195,43.7319,311.1163],[22.6207,43.7245,252.9187],[22.6188,43.7194,219.7699],[22.6197,43.7134,240.0424],[22.6385,43.7038,276.5535],[22.6426,43.7045,289.1649],[22.6527,43.7128,186.4698],[22.6664,43.714,184.7513],[22.6692,43.7056,291.1897],[22.6942,43.6937,384.7903],[22.7008,43.6848,358.2995],[22.6996,43.6697,509.2698],[22.692,43.6601,648.0758],[22.6797,43.656,555.5533],[22.678,43.654,550.5562],[22.6783,43.6511,535.1571],[22.6851,43.6438,544.2009],[22.6897,43.6334,520.6107],[22.6942,43.6292,591.1343],[22.7109,43.6193,543.8182],[22.7138,43.6109,473.9507],[22.7189,43.6063,500.3019],[22.7263,43.6046,570.0899],[22.7363,43.5977,441.9393],[22.7463,43.5938,381.8431],[22.7714,43.5889,226.0053],[22.7846,43.5839,234.8079],[22.7874,43.6013,214.4102],[22.7817,43.6228,258.8689],[22.7824,43.6364,309.5784],[22.7853,43.6419,299.5158],[22.8068,43.6539,274.7905],[22.8322,43.6605,266.0117],[22.8487,43.6669,254.1105],[22.861,43.6798,243.3956],[22.8713,43.6941,205.0966],[22.885,43.7022,230.685],[22.8883,43.7103,232.2224],[22.8891,43.7212,221.4267],[22.8922,43.7272,218.5639],[22.9351,43.7452,173.8538],[22.9531,43.7584,115.5976],[22.9507,43.7613,101.5315],[22.9482,43.7726,54.1767],[22.9529,43.7824,96.9698],[22.9583,43.787,118.2343],[22.9698,43.7889,36.2939],[23.0092,43.7874,35.0511],[23.0214,43.7923,25.0],[23.0357,43.8019,25.0]]]]}
,"properties": {"GID_2": "BGR.26.5_1","GID_0": "BGR","country": "Bulgaria","GID_1": "BGR.26_1","state": "Vidin","NL_NAME_1": "Видин","county": "Dimovo","VARNAME_2": "NA","NL_NAME_2": "NA","TYPE_2": "Obshtina","ENGTYPE_2": "Municipality","CC_2": "NA","HASC_2": "BG.VD.DI","name": "Dimovo.county","area_km2": 386.8956,"hist_schema_id": "Elevation0-9000","hist_area_km2": {"25": 19.5702,"50": 8.156,"75": 10.7908,"100": 13.4551,"125": 16.4265,"150": 19.4894,"175": 25.9246,"200": 45.607,"225": 69.7153,"250": 55.3969,"275": 39.7072,"300": 23.6504,"325": 7.3957,"350": 3.5444,"375": 2.5161,"400": 2.4241,"425": 2.056,"450": 1.8107,"475": 1.9181,"500": 1.5345,"525": 1.9182,"550": 1.8261,"575": 1.5192,"600": 1.8721,"625": 1.3811,"650": 1.4579,"675": 1.1664,"700": 1.2739,"725": 0.9209,"750": 0.8902,"775": 0.5986,"800": 0.4297,"825": 0.307,"850": 0.1535,"875": 0.0767,"900": 0.0153}}}