{"type": "Feature","bbox": [23.6646,42.6212,23.9167,42.8272],"geometry": {"type": "MultiPolygon","coordinates": [[[[23.8154,42.8013,624.173],[23.8045,42.7921,823.7668],[23.8008,42.7811,970.8378],[23.7975,42.777,968.2238],[23.7463,42.7669,1079.988],[23.7144,42.7427,778.3411],[23.7078,42.7334,751.0145],[23.705,42.7094,654.0594],[23.7018,42.7014,647.4371],[23.6959,42.695,607.0193],[23.6747,42.6853,558.3097],[23.6665,42.6781,555.7072],[23.6646,42.6744,553.85],[23.6677,42.6632,551.8633],[23.6652,42.6507,553.043],[23.6717,42.6483,555.3427],[23.7,42.6566,601.2637],[23.7081,42.6554,580.2164],[23.7323,42.6319,635.4541],[23.7432,42.625,646.151],[23.7555,42.6215,670.1523],[23.7606,42.6212,687.6149],[23.7728,42.6265,690.7423],[23.7873,42.6464,677.7934],[23.7936,42.6492,662.7144],[23.8011,42.6483,676.5123],[23.8222,42.6382,703.6081],[23.8362,42.6363,717.2319],[23.8411,42.6332,786.7526],[23.8492,42.6244,825.1609],[23.8531,42.6229,832.5431],[23.8667,42.6238,837.7795],[23.8787,42.6311,797.0121],[23.8801,42.6339,818.2987],[23.8785,42.6377,784.0269],[23.8909,42.6525,699.0151],[23.8912,42.6578,754.1963],[23.8789,42.6642,898.793],[23.8758,42.6694,826.6982],[23.8835,42.6813,819.4874],[23.8934,42.6919,838.783],[23.8988,42.7067,898.4639],[23.9031,42.7365,1114.8022],[23.9088,42.7568,1047.8607],[23.9167,42.7744,1393.376],[23.9156,42.7878,1243.2115],[23.9137,42.7932,1215.7422],[23.8884,42.8199,1203.7695],[23.883,42.8234,1189.2847],[23.8699,42.8272,1115.9352],[23.8633,42.8265,1249.3431],[23.8487,42.8213,1327.8853],[23.8154,42.8013,624.173]]]]}
,"properties": {"GID_2": "BGR.21.11_1","GID_0": "BGR","country": "Bulgaria","GID_1": "BGR.21_1","state": "Sofia","NL_NAME_1": "Sofija","county": "GornaMalina","VARNAME_2": "NA","NL_NAME_2": "NA","TYPE_2": "Obshtina","ENGTYPE_2": "Municipality","CC_2": "NA","HASC_2": "BG.SF.GM","name": "GornaMalina.county","area_km2": 285.3424,"hist_schema_id": "Elevation0-9000","hist_area_km2": {"550": 5.3783,"575": 7.8112,"600": 17.3623,"625": 19.6202,"650": 19.6046,"675": 15.2433,"700": 18.5292,"725": 19.9744,"750": 16.3111,"775": 15.1586,"800": 15.9686,"825": 14.2088,"850": 12.2139,"875": 10.8736,"900": 9.0966,"925": 7.3197,"950": 6.2593,"975": 6.9587,"1000": 5.6663,"1025": 4.6079,"1050": 3.5961,"1075": 3.1134,"1100": 2.1481,"1125": 1.9922,"1150": 2.0231,"1175": 1.4316,"1200": 1.8051,"1225": 1.9606,"1250": 2.0227,"1275": 1.9292,"1300": 2.147,"1325": 2.6136,"1350": 1.758,"1375": 1.6336,"1400": 1.6025,"1425": 1.4314,"1450": 1.0424,"1475": 0.9024,"1500": 0.6224,"1525": 0.389,"1550": 0.3735,"1575": 0.249,"1600": 0.249,"1625": 0.0934,"1650": 0.0467}}}