{"type": "Feature","bbox": [27.6376,41.9357,28.0365,42.2174],"geometry": {"type": "MultiPolygon","coordinates": [[[[27.7541,41.9598,266.3051],[27.7636,41.9546,293.5634],[27.7701,41.9582,196.2799],[27.7766,41.9557,117.5127],[27.7787,41.9542,79.5907],[27.7725,41.9464,227.0728],[27.7736,41.9452,258.5219],[27.7776,41.946,210.9905],[27.7831,41.9411,237.882],[27.7947,41.9439,130.3119],[27.7986,41.9417,250.4305],[27.7994,41.9367,274.4468],[27.8025,41.9357,267.4392],[27.8053,41.9372,251.7363],[27.8065,41.9438,176.4449],[27.8144,41.9448,124.4731],[27.8164,41.9414,158.3703],[27.8202,41.941,193.8822],[27.8244,41.9423,130.3428],[27.8274,41.9454,106.8139],[27.8269,41.9514,150.677],[27.8243,41.9533,167.7766],[27.8192,41.9506,149.6031],[27.8165,41.9511,168.0382],[27.8144,41.954,83.3281],[27.8162,41.9589,181.8053],[27.8155,41.9646,186.1788],[27.8129,41.9658,228.4158],[27.8107,41.9706,159.8864],[27.813,41.9798,163.1378],[27.821,41.9867,58.8517],[27.829,41.9837,145.8986],[27.8364,41.9834,181.9456],[27.8378,41.9914,61.4663],[27.8422,41.9916,30.844],[27.8432,41.9834,178.5003],[27.8464,41.9837,172.0163],[27.8499,41.986,143.609],[27.8493,41.9949,29.8586],[27.8519,41.9966,26.6394],[27.8563,41.9961,59.3411],[27.8762,41.9851,228.4169],[27.8888,41.9842,171.4589],[27.8906,41.9819,102.1585],[27.8885,41.9761,188.1643],[27.8894,41.9738,190.4278],[27.8967,41.9689,92.9525],[27.9028,41.9686,161.943],[27.9095,41.9724,81.2727],[27.916,41.9698,61.7884],[27.9192,41.9776,18.7963],[27.9314,41.9748,57.0381],[27.9379,41.9778,52.2504],[27.9399,41.9724,171.815],[27.9574,41.9789,35.9319],[27.9606,41.9835,108.9981],[27.9653,41.9845,124.8153],[27.976,41.9769,127.4696],[27.9941,41.9763,85.7416],[28.0154,41.9787,25.9067],[28.0193,41.981,5.4502],[28.0171,41.986,9.2795],[28.0313,41.987,35.5137],[28.0347,41.9824,0.1826],[28.0365,41.9854,0.0],[28.034,41.9943,0.0],[28.0224,42.004,5.2787],[28.024,42.0051,0.0],[28.0199,42.0071,0.0],[28.0215,42.0088,0.0],[28.0187,42.0112,0.0],[28.0201,42.0126,0.0],[28.0187,42.0129,0.0],[28.0176,42.0207,0.0],[28.0093,42.0224,0.0],[28.0093,42.0238,18.3593],[28.0121,42.0249,0.0],[28.0149,42.0246,0.0],[28.016,42.0271,0.0],[28.0101,42.0332,0.0],[28.0049,42.034,0.0],[28.0035,42.0357,0.0],[28.0032,42.0368,0.0],[28.0051,42.0371,0.0],[28.0051,42.0418,0.0],[27.9982,42.0462,0.809],[27.9921,42.0462,7.1948],[27.991,42.0485,0.0],[27.9926,42.0499,0.0],[27.9907,42.0532,0.0],[27.9854,42.0535,5.6014],[27.9854,42.0551,2.1774],[27.994,42.059,0.0],[27.9918,42.0638,0.0],[27.9849,42.0646,0.2043],[27.9826,42.0624,7.3189],[27.9807,42.0654,5.1671],[27.9788,42.0643,12.0058],[27.9779,42.0662,1.0383],[27.9743,42.0657,0.0],[27.9718,42.0671,1.1796],[27.9704,42.0657,1.4043],[27.9688,42.0685,3.1073],[27.9701,42.0724,0.0],[27.9679,42.0737,1.0534],[27.9679,42.0762,0.0],[27.9626,42.0776,5.17],[27.9651,42.0835,0.0],[27.9626,42.0829,9.8917],[27.9562,42.0854,13.9557],[27.9562,42.0921,0.0],[27.9501,42.0946,3.6268],[27.9504,42.0985,0.7075],[27.9465,42.0968,16.6194],[27.944,42.0985,6.1211],[27.9454,42.1001,0.0],[27.9493,42.1004,0.0],[27.9471,42.1043,0.6774],[27.9412,42.1021,0.0],[27.9368,42.1051,0.0],[27.9351,42.1024,2.7579],[27.9321,42.1012,13.7267],[27.9249,42.1018,15.4948],[27.9229,42.106,0.0],[27.9204,42.106,23.8264],[27.9179,42.1093,4.7034],[27.9135,42.1104,27.6677],[27.914,42.116,1.6922],[27.909,42.1188,4.0595],[27.9146,42.1229,0.0],[27.9132,42.1271,0.0],[27.9088,42.1293,0.0],[27.9046,42.1287,12.0109],[27.9035,42.1346,0.0],[27.8985,42.1346,4.79],[27.9001,42.1379,0.0],[27.8962,42.1435,0.0],[27.894,42.1424,2.0213],[27.8921,42.1443,0.0],[27.8854,42.1437,21.6046],[27.8838,42.1471,0.0],[27.8762,42.1488,7.2679],[27.8757,42.1499,7.2679],[27.8787,42.1524,0.0],[27.8785,42.1554,0.0],[27.8749,42.1565,11.4948],[27.876,42.1596,0.4299],[27.8743,42.1613,1.6875],[27.8715,42.1599,9.1139],[27.8701,42.1568,11.3591],[27.8676,42.1563,11.0778],[27.8649,42.1585,3.8587],[27.8662,42.1618,5.7257],[27.8621,42.1632,7.8811],[27.8635,42.1643,0.0],[27.8626,42.166,1.0337],[27.8587,42.1632,13.9489],[27.8532,42.1654,18.7129],[27.8521,42.1665,3.6245],[27.8529,42.1696,0.0],[27.8596,42.1701,0.0],[27.8599,42.174,0.0],[27.851,42.1735,3.2343],[27.8507,42.176,0.0],[27.8529,42.1774,0.0],[27.8526,42.1787,0.0],[27.8493,42.1804,5.2438],[27.8451,42.1787,2.9616],[27.8432,42.1815,1.2684],[27.8465,42.1843,0.0],[27.8468,42.1868,0.0],[27.8438,42.1854,15.2888],[27.8429,42.1896,0.0],[27.8388,42.1879,4.9249],[27.8363,42.1888,0.0],[27.8376,42.1912,3.4575],[27.841,42.1918,0.0],[27.8418,42.1949,0.0],[27.8368,42.1935,9.4464],[27.8343,42.1957,0.0],[27.8337,42.194,3.4995],[27.8299,42.1932,9.0966],[27.8301,42.1993,0.0],[27.8282,42.1974,6.3987],[27.8246,42.1974,1.5619],[27.824,42.1993,0.0],[27.8199,42.1987,9.6768],[27.8179,42.2021,0.0],[27.8196,42.2074,0.0],[27.8143,42.2088,0.4881],[27.8135,42.2107,0.0],[27.8107,42.209,1.3667],[27.8104,42.2104,1.3667],[27.804,42.2121,0.8136],[27.8032,42.2143,0.4599],[27.8051,42.2165,0.2044],[27.7985,42.214,2.2589],[27.7971,42.2157,0.0],[27.7962,42.2143,7.8685],[27.7924,42.2149,4.0121],[27.7893,42.2174,0.0],[27.6501,42.1525,175.2461],[27.6542,42.1381,163.7092],[27.65,42.1277,155.7696],[27.642,42.1187,265.8708],[27.6376,42.1074,320.9852],[27.6395,42.1005,285.0077],[27.6458,42.0915,263.2608],[27.6605,42.08,212.9564],[27.6642,42.0665,250.0737],[27.6676,42.0648,263.6993],[27.6881,42.0617,173.1847],[27.6936,42.0593,180.1934],[27.702,42.0509,143.32],[27.7054,42.0435,108.3515],[27.7134,42.0341,62.3482],[27.7253,42.0275,73.726],[27.7448,42.0196,100.2947],[27.7601,42.0037,260.6401],[27.7673,41.9903,247.7434],[27.7705,41.9807,239.8296],[27.7635,41.9673,99.7884],[27.7541,41.9598,266.3051]]]]}
,"properties": {"GID_2": "BGR.2.13_1","GID_0": "BGR","country": "Bulgaria","GID_1": "BGR.2_1","state": "Burgas","NL_NAME_1": "Бургас","county": "Tsarevo","VARNAME_2": "Carevo|Tzarevo|Vasiliko|Michurin","NL_NAME_2": "Царево","TYPE_2": "Obshtina","ENGTYPE_2": "Municipality","CC_2": "NA","HASC_2": "BG.BR.CA","name": "Tsarevo.county","area_km2": 530.2017,"hist_schema_id": "Elevation0-9000","hist_area_km2": {"0": 16.5202,"25": 52.0759,"50": 53.9242,"75": 53.9781,"100": 44.1278,"125": 44.4961,"150": 46.2596,"175": 46.5125,"200": 47.7549,"225": 45.2827,"250": 34.9717,"275": 21.8854,"300": 13.323,"325": 5.0958,"350": 1.4308,"375": 1.0691,"400": 0.7547,"425": 0.3145,"450": 0.2045,"475": 0.1258,"500": 0.0944}}}