{"type": "Feature","bbox": [23.003,42.1726,23.3229,42.3985],"geometry": {"type": "MultiPolygon","coordinates": [[[[23.164,42.1847,1662.6283],[23.1818,42.1765,1757.1848],[23.2001,42.1726,1832.4703],[23.222,42.176,2285.5649],[23.2429,42.1834,2545.5657],[23.2677,42.1798,2470.9229],[23.2745,42.1807,2325.395],[23.314,42.19,2539.7974],[23.3229,42.1935,2515.4502],[23.3012,42.2003,2520.0862],[23.2857,42.211,2273.6382],[23.2731,42.2146,2156.8271],[23.2632,42.2223,2073.6653],[23.2335,42.2279,1628.8789],[23.2004,42.2436,1071.4142],[23.1913,42.2493,803.5336],[23.1792,42.2612,672.5823],[23.1719,42.2727,583.5302],[23.1716,42.2825,560.8371],[23.1753,42.2883,560.5837],[23.1793,42.2906,567.4263],[23.1872,42.293,578.086],[23.215,42.2964,619.2806],[23.2247,42.299,635.5355],[23.2364,42.3057,650.4515],[23.2441,42.3155,654.4695],[23.2458,42.3255,650.0939],[23.2525,42.3411,754.6603],[23.2543,42.3528,941.0647],[23.2297,42.3624,973.077],[23.2153,42.3553,858.7197],[23.2006,42.3516,944.0349],[23.1933,42.3514,834.7316],[23.1854,42.3527,837.1457],[23.1661,42.361,792.1487],[23.1401,42.3648,761.2922],[23.1277,42.3745,784.5039],[23.12,42.3951,662.7661],[23.1127,42.3985,696.1348],[23.1072,42.3974,786.1946],[23.1023,42.3941,761.2643],[23.0898,42.3768,815.3776],[23.0811,42.3699,703.5685],[23.0733,42.3693,692.6187],[23.03,42.3773,949.4689],[23.0329,42.3599,716.3285],[23.0455,42.341,692.5923],[23.0505,42.3261,636.0721],[23.063,42.3078,815.451],[23.0789,42.2892,706.8391],[23.081,42.2853,662.748],[23.0819,42.2729,619.4422],[23.0741,42.2674,561.6335],[23.057,42.2618,471.0325],[23.0447,42.2615,528.467],[23.0202,42.2644,583.8227],[23.012,42.2635,548.4713],[23.0054,42.2579,604.6111],[23.003,42.2531,628.1919],[23.0057,42.2357,752.8207],[23.0049,42.2317,649.9119],[23.0322,42.2305,719.2062],[23.0365,42.2241,591.7742],[23.028199999999998,42.2135,566.0015],[23.0285,42.2081,507.4285],[23.0356,42.2057,467.129],[23.0554,42.2057,415.4747],[23.0703,42.1916,483.9886],[23.0794,42.1866,562.1016],[23.0889,42.1845,573.3349],[23.112,42.1845,751.0425],[23.1455,42.1893,1278.7896],[23.1534,42.189,1374.4036],[23.164,42.1847,1662.6283]]]]}
,"properties": {"GID_2": "BGR.8.3_1","GID_0": "BGR","country": "Bulgaria","GID_1": "BGR.8_1","state": "Kyustendil","NL_NAME_1": "Кюстендил","county": "Dupnitsa","VARNAME_2": "Dupnitza|Dupnica","NL_NAME_2": "Дупница","TYPE_2": "Obshtina","ENGTYPE_2": "Municipality","CC_2": "NA","HASC_2": "BG.KY.DU","name": "Dupnitsa.county","area_km2": 321.0237,"hist_schema_id": "Elevation0-9000","hist_area_km2": {"425": 2.3713,"450": 4.6003,"475": 7.0795,"500": 7.8643,"525": 13.6058,"550": 20.8987,"575": 22.8249,"600": 22.5557,"625": 25.0009,"650": 22.4701,"675": 20.1766,"700": 19.251,"725": 15.4728,"750": 12.2739,"775": 8.8574,"800": 6.3343,"825": 5.0015,"850": 3.7317,"875": 2.5557,"900": 1.9759,"925": 1.5375,"950": 1.2083,"975": 0.8947,"1000": 0.7066,"1025": 0.8322,"1050": 0.6752,"1075": 0.8007,"1100": 0.8008,"1125": 0.785,"1150": 0.6595,"1175": 0.7537,"1200": 0.8951,"1225": 0.6595,"1250": 0.8479,"1275": 0.7537,"1300": 0.9736,"1325": 0.9736,"1350": 1.1149,"1375": 1.0521,"1400": 1.0207,"1425": 1.1621,"1450": 1.0051,"1475": 1.1464,"1500": 1.1621,"1525": 1.1778,"1550": 1.4134,"1575": 1.3192,"1600": 1.2721,"1625": 1.2878,"1650": 1.2878,"1675": 1.1622,"1700": 1.1308,"1725": 1.2564,"1750": 1.2564,"1775": 1.3664,"1800": 1.335,"1825": 1.0995,"1850": 0.911,"1875": 0.8167,"1900": 1.0209,"1925": 0.9895,"1950": 1.0838,"1975": 0.801,"2000": 1.1152,"2025": 0.9581,"2050": 1.2566,"2075": 1.2251,"2100": 1.2565,"2125": 1.3036,"2150": 1.3508,"2175": 1.555,"2200": 1.7278,"2225": 1.7434,"2250": 1.6807,"2275": 1.398,"2300": 1.7749,"2325": 1.3823,"2350": 1.4608,"2375": 1.4608,"2400": 1.4766,"2425": 1.2567,"2450": 0.9896,"2475": 1.1624,"2500": 1.021,"2525": 0.7383,"2550": 0.8325,"2575": 0.5498,"2600": 0.4712,"2625": 0.377,"2650": 0.1885}}}