{"type":"Feature","properties":{"GID_2":"BGR.14.10_1","GID_0":"BGR","country":"Bulgaria","GID_1":"BGR.14_1","state":"Plovdiv","NL_NAME_1":"Пловдив","county":"Perushtitsa","VARNAME_2":"NA","NL_NAME_2":"Перущица","TYPE_2":"Obshtina","ENGTYPE_2":"Municipality","CC_2":"NA","HASC_2":"BG.PD.PE","name":"Perushtitsa.county"},
"geometry":{"type": "MultiPolygon","coordinates": [[[[24.5043,42.0744,201.5974],[24.5086,42.077,201.0358],[24.5178,42.0767,258.0089],[24.5344,42.0629,232.2131],[24.5354,42.0338,541.2239],[24.5326,42.0224,753.2871],[24.537,42.0176,913.4495],[24.543,42.0164,1027.4481],[24.5559,42.0186,989.7344],[24.5864,42.0177,996.9774],[24.5929,42.0186,965.9316],[24.6001,42.0236,882.5151],[24.5999,42.0303,688.1003],[24.5917,42.0442,601.4006],[24.5905,42.0501,645.8016],[24.598,42.0693,439.3707],[24.5971,42.0724,386.1593],[24.5777,42.09,226.4867],[24.5651,42.1156,182.5338],[24.5494,42.1249,182.2408],[24.5055,42.0945,196.3622],[24.5054,42.0902,198.1693],[24.4947,42.0758,201.3179],[24.4954,42.074,201.9306],[24.4995,42.0725,202.3373],[24.5043,42.0744,201.5974]]]]}}