{"type":"Feature","properties":{"GID_2":"BGR.26.10_1","GID_0":"BGR","country":"Bulgaria","GID_1":"BGR.26_1","state":"Vidin","NL_NAME_1":"Видин","county":"Ruzh","VARNAME_2":"Ruzhintsi","NL_NAME_2":"NA","TYPE_2":"Obshtina","ENGTYPE_2":"Municipality","CC_2":"NA","HASC_2":"BG.VD.RU","name":"Ruzh.county"},
"geometry":{"type": "MultiPolygon","coordinates": [[[[23.0035,43.751,186.0876],[22.9757,43.7568,113.8214],[22.9531,43.7584,115.5976],[22.9351,43.7452,173.8538],[22.8922,43.7272,218.5639],[22.8891,43.7212,221.4267],[22.8883,43.7103,232.2224],[22.885,43.7022,230.685],[22.8713,43.6941,205.0966],[22.861,43.6798,243.3956],[22.8487,43.6669,254.1105],[22.8322,43.6605,266.0117],[22.8068,43.6539,274.7905],[22.7853,43.6419,299.5158],[22.7824,43.6364,309.5784],[22.7817,43.6228,258.8689],[22.7874,43.6013,214.4102],[22.7846,43.5839,234.8079],[22.7884,43.5741,323.9125],[22.8033,43.5542,366.279],[22.8035,43.5483,324.0697],[22.8006,43.5425,376.5265],[22.8007,43.5388,356.752],[22.8042,43.5347,438.1008],[22.8052,43.527,489.2618],[22.8013,43.5178,398.8536],[22.801,43.5119,489.1535],[22.8052,43.4953,523.9636],[22.8343,43.5009,588.3971],[22.8566,43.5151,599.5339],[22.8602,43.5193,547.3613],[22.8621,43.5296,521.0722],[22.8772,43.5538,265.5385],[22.8969,43.5709,281.5066],[22.9074,43.5759,274.2761],[22.9129,43.5843,260.3156],[22.9172,43.5957,229.7185],[22.9183,43.617,241.052],[22.9265,43.627,213.4815],[22.9253,43.6387,232.1161],[22.9215,43.648,203.8571],[22.9269,43.6588,228.0427],[22.9231,43.6681,137.4405],[22.924,43.6705,136.4888],[22.9654,43.6811,127.937],[22.9777,43.6859,116.4526],[22.9943,43.6968,113.8544],[23.0009,43.6993,110.5542],[23.0259,43.7017,102.7426],[23.0431,43.7106,95.9617],[23.0449,43.7163,94.3246],[23.0439,43.7207,113.3033],[23.0301,43.7375,150.418],[23.017,43.7468,169.3457],[23.0035,43.751,186.0876]]]]}}