{"type": "Feature","bbox": [27.463,43.3571,28.0042,43.8377],"geometry": {"type": "MultiPolygon","coordinates": [[[[27.9866,43.6402,233.8463],[27.9766,43.638,241.4496],[27.9632,43.6398,223.4779],[27.9385,43.6541,256.4458],[27.9352,43.661,255.5517],[27.9356,43.6738,249.9446],[27.9342,43.6753,251.1284],[27.8913,43.6872,239.816],[27.8753,43.6998,228.6084],[27.861,43.7028,234.7033],[27.8575,43.707,225.8201],[27.8566,43.7115,211.3996],[27.8568,43.7257,221.5293],[27.8547,43.7345,214.636],[27.8375,43.7487,193.8405],[27.8341,43.7533,200.395],[27.825,43.7768,209.2186],[27.819,43.7851,218.2743],[27.8125,43.7898,222.2698],[27.7906,43.7988,207.9689],[27.7747,43.7792,222.7006],[27.7631,43.7707,221.8556],[27.7528,43.7675,216.6813],[27.7357,43.7732,220.336],[27.7299,43.7727,223.2633],[27.7253,43.7702,216.2352],[27.7222,43.7662,199.386],[27.7153,43.7487,230.3973],[27.71,43.7429,237.2462],[27.7018,43.7407,231.7033],[27.6922,43.7425,214.633],[27.6751,43.7568,217.3667],[27.6686,43.791,216.0949],[27.6644,43.7966,211.3017],[27.656,43.8025,171.3286],[27.6434,43.8075,210.0109],[27.6377,43.8144,161.9297],[27.6224,43.8219,167.9257],[27.6166,43.8351,196.0173],[27.6064,43.8377,188.9303],[27.5983,43.8363,171.1449],[27.5865,43.827,187.9913],[27.5925,43.8151,146.3376],[27.5937,43.8103,186.2668],[27.5928,43.8053,208.4792],[27.591,43.8045,208.0087],[27.588,43.8065,205.0545],[27.5844,43.8139,178.0672],[27.582,43.8152,172.8941],[27.5773,43.8143,204.9923],[27.5751,43.8098,224.3917],[27.5749,43.7981,205.9818],[27.5719,43.7941,225.2362],[27.5638,43.7943,232.7876],[27.5463,43.8153,174.9905],[27.5412,43.819,155.4005],[27.5338,43.8202,151.2693],[27.5275,43.8189,148.3532],[27.5244,43.8132,133.0105],[27.5262,43.8011,169.2322],[27.525,43.7974,173.4893],[27.5125,43.7878,230.7388],[27.5124,43.7832,231.9312],[27.5158,43.7764,212.8111],[27.5132,43.7729,240.5245],[27.513,43.7648,196.5368],[27.5094,43.7611,220.7113],[27.4964,43.7562,234.7297],[27.4936,43.7515,236.733],[27.4995,43.7304,175.9026],[27.4988,43.7256,209.5744],[27.4901,43.6905,200.7497],[27.4876,43.6862,194.8023],[27.4822,43.6832,211.0288],[27.4789,43.679,187.2927],[27.4817,43.6653,233.325],[27.4798,43.6587,179.1738],[27.4763,43.6525,184.2929],[27.466,43.6477,240.444],[27.463,43.6443,205.6906],[27.4689,43.6326,247.1027],[27.4665,43.6183,208.5567],[27.4702,43.6137,220.52],[27.4692,43.6063,249.9189],[27.4729,43.5967,264.2477],[27.4907,43.5827,222.1277],[27.4991,43.5714,248.0049],[27.5032,43.5616,243.3954],[27.5032,43.5545,222.6616],[27.499,43.5404,256.2617],[27.498,43.5291,283.8987],[27.499,43.5223,288.6508],[27.5041,43.5147,293.5906],[27.5143,43.5128,287.5981],[27.5483,43.5132,245.4596],[27.5539,43.5152,248.4034],[27.5622,43.5231,232.7372],[27.5679,43.5339,190.6727],[27.5753,43.5433,164.3291],[27.5815,43.545,187.2926],[27.5899,43.543,213.3806],[27.6014,43.5349,205.2431],[27.6111,43.5237,219.5378],[27.6076,43.5013,201.0642],[27.6128,43.4928,197.0424],[27.6346,43.4823,252.5209],[27.65,43.4846,256.1668],[27.6669,43.4838,291.7596],[27.678,43.4785,306.4297],[27.6866,43.4771,288.3892],[27.6993,43.4791,258.8082],[27.7074,43.4765,225.3353],[27.711,43.4707,208.7092],[27.7197,43.4466,312.6832],[27.7271,43.4372,311.2852],[27.7508,43.424,288.2805],[27.7531,43.421,290.2607],[27.7658,43.4173,279.7178],[27.7886,43.4146,303.7908],[27.791,43.4023,318.5472],[27.8083,43.3865,338.3163],[27.814,43.3778,350.3456],[27.8413,43.3592,330.4532],[27.851,43.3571,298.0902],[27.8614,43.3603,310.3125],[27.8923,43.3842,208.8366],[27.9077,43.3922,133.4099],[27.9262,43.3971,98.476],[27.9378,43.3982,106.2146],[27.9596,43.3982,192.3094],[27.9764,43.3951,148.3855],[27.9873,43.403,102.8469],[27.9929,43.4099,74.05],[27.993,43.4158,122.8266],[27.9907,43.4232,144.9118],[27.983,43.4343,256.925],[27.9799,43.446,265.5213],[27.9781,43.4682,265.4308],[27.9753,43.4726,262.13],[27.9536,43.4819,272.1542],[27.9466,43.4883,270.3636],[27.9445,43.4926,268.803],[27.9424,43.5095,267.8509],[27.9339,43.5265,231.2529],[27.9324,43.5362,245.5192],[27.9351,43.5425,258.0802],[27.9407,43.5465,241.8234],[27.9777,43.5602,257.4969],[27.9772,43.5665,252.2063],[27.9737,43.5698,248.8695],[27.9713,43.5751,245.572],[27.9718,43.5773,240.1214],[27.9808,43.583,243.5402],[27.9823,43.5868,248.0797],[27.981,43.5917,248.2096],[27.9829,43.5961,244.3483],[27.9994,43.6016,243.8326],[28.0031,43.6046,242.0888],[28.0042,43.6118,240.8439],[28.0022,43.6203,238.9626],[27.9937,43.6331,238.9417],[27.9866,43.6402,233.8463]],
[[27.8434,43.624,243.8591],[27.8495,43.5925,228.938],[27.8329,43.5779,204.3904],[27.8318,43.5607,211.9432],[27.8031,43.5322,256.2402],[27.8027,43.5189,272.0588],[27.7703,43.5212,296.1538],[27.7654,43.5346,278.9427],[27.7061,43.5387,192.4206],[27.7018,43.5553,240.6539],[27.6811,43.558,169.2856],[27.6809,43.5915,249.3409],[27.7058,43.593,252.1285],[27.7211,43.6163,238.7584],[27.7325,43.6164,214.1881],[27.7344,43.6109,216.8779],[27.7604,43.6115,241.3725],[27.7685,43.6256,219.7829],[27.8434,43.624,243.8591]]]]}
,"properties": {"GID_2": "BGR.3.2_1","GID_0": "BGR","country": "Bulgaria","GID_1": "BGR.3_1","state": "Dobrich","NL_NAME_1": "Добрич","county": "Dobrich","VARNAME_2": "Bazargic","NL_NAME_2": "Добрич","TYPE_2": "City","ENGTYPE_2": "City","CC_2": "NA","HASC_2": "BG.DO.DO","name": "Dobrich.county","area_km2": 1247.8498,"hist_schema_id": "Elevation0-9000","hist_area_km2": {"50": 1.3862,"75": 3.3376,"100": 5.728,"125": 14.0744,"150": 36.7516,"175": 75.2864,"200": 150.1923,"225": 345.5342,"250": 319.6914,"275": 166.5982,"300": 95.35,"325": 27.2786,"350": 6.641}}}