{"type": "Feature","id": "2244","bbox": [22.73958,42.08412,24.47296,43.19493],"geometry": {"type": "Polygon","coordinates": [[[23.22032,43.11119,1543.5442],[23.1273,43.11716,1404.8464],[23.10105,43.13181,1362.3894],[23.02891,43.19493,1805.0471],[22.9829,43.18732,1781.5189],[22.98457,43.17463,1589.1631],[22.97403,43.14119,1294.0029],[22.95563,43.10827,877.8668],[22.93527,43.08556,811.2661],[22.92711,43.08114,862.5237],[22.91016,43.07528,843.7516],[22.90168,43.06975,706.8618],[22.89672,43.06272,709.8897],[22.88949,43.04438,705.1425],[22.88422,43.03665,767.3943],[22.84225,43.00751,613.3417],[22.82902,42.99366,677.3129],[22.82902,42.9935,677.3129],[22.82892,42.99345,677.3129],[22.82882,42.99345,677.3129],[22.8158,42.9897,621.1217],[22.7881,42.9849,487.3793],[22.77642,42.97973,553.2646],[22.76939,42.97128,815.1106],[22.76319,42.95865,639.3033],[22.74552,42.91007,688.7722],[22.73958,42.89886,822.2106],[22.7449,42.8948,842.9618],[22.76681,42.88043,690.1694],[22.78396,42.86074,795.6131],[22.78934,42.8485,861.2491],[22.79843,42.83912,902.8337],[22.80804,42.83987,978.2907],[22.81518,42.83485,982.1144],[22.83192,42.83746,1005.3527],[22.84515,42.85508,774.8559],[22.86003,42.84901,805.9523],[22.85383,42.81765,959.6282],[22.87336,42.80757,947.5824],[22.89838,42.81824,888.0844],[22.9177,42.80101,852.8711],[22.93476,42.7761,989.207],[22.96493,42.7762,864.7876],[22.97558,42.76282,857.4395],[22.99449,42.75974,836.3182],[23.02488,42.76266,728.1285],[23.04441,42.73961,796.6848],[23.0595,42.70987,953.4201],[23.09061,42.73884,842.7323],[23.13237,42.74215,671.6741],[23.15345,42.7315,652.1672],[23.17722,42.72894,627.2007],[23.195,42.73589,590.4125],[23.20998,42.74938,558.7081],[23.21215,42.76915,544.3029],[23.19975,42.78739,548.575],[23.24895,42.81721,534.4156],[23.24967,42.86281,832.8147],[23.27365,42.898,912.9072],[23.28957,42.89351,907.5522],[23.30217,42.88224,860.0573],[23.35189,42.85785,578.2074],[23.40057,42.84777,888.8162],[23.45038,42.86348,947.7875],[23.49617,42.87072,816.6262],[23.53555,42.84465,892.9539],[23.57296,42.84294,864.1737],[23.60851,42.86105,1092.282],[23.59632,42.83485,1017.718],[23.57565,42.80653,996.132],[23.52128,42.71905,560.0953],[23.50278,42.65791,535.9062],[23.51798,42.63595,543.7529],[23.56025,42.56009,1128.0447],[23.61275,42.491459999999996,975.814],[23.64427,42.46929,961.355],[23.6544,42.43586,892.5797],[23.6296,42.41695,878.7729],[23.60097,42.42604,899.139],[23.5588,42.4208,944.2903],[23.53203,42.43426,833.3514],[23.5434,42.46749,966.0285],[23.52325,42.49477,979.8528],[23.51674,42.51219,876.8605],[23.51632,42.52428,866.2545],[23.4757,42.53043,1103.4497],[23.45669,42.50133,1166.2581],[23.43209,42.47265,1223.5978],[23.39633,42.47922,1107.4258],[23.36026,42.49984,1186.2657],[23.27851,42.53229,1997.0658],[23.24492,42.49467,1310.1091],[23.22249,42.44992,1013.7335],[23.23272,42.40627,1217.0486],[23.2197,42.39147,1184.3323],[23.21567,42.37318,933.4749],[23.23324,42.37524,1068.5126],[23.24957,42.36871,1141.7584],[23.27282,42.36966,1157.8831],[23.29391,42.37359,1351.979],[23.3276,42.31716,994.6561],[23.33918,42.31246,1246.4646],[23.34651,42.30261,1351.9896],[23.36284,42.28923,1330.4363],[23.38455,42.28316,1233.5215],[23.39933,42.26207,1409.1082],[23.38858,42.24967,1421.8679],[23.36842,42.24455,1648.9608],[23.35623,42.22667,1584.8904],[23.3246,42.19572,2400.5386],[23.33897,42.17316,2404.4019],[23.38382,42.17794,2561.7222],[23.42806,42.18686,2396.5876],[23.4539,42.17197,2170.3586],[23.47333,42.14637,2436.0952],[23.5032,42.14456,2562.6301],[23.52976,42.13523,2445.3193],[23.51911,42.11355,2552.9873],[23.49358,42.09908,2490.4146],[23.54753,42.08412,2402.0481],[23.58081,42.11438,2406.4417],[23.60024,42.15092,2486.061],[23.63766,42.15474,2411.939],[23.66422,42.16259,2346.8108],[23.69843,42.16683,2284.9282],[23.71796,42.16048,2344.8489],[23.73595,42.16704,2398.8745],[23.74711,42.1783,2439.179],[23.76313,42.17761,2416.5249],[23.7807,42.18099,2513.1328],[23.79568,42.18869,2228.8994],[23.79413,42.20208,1982.5049],[23.80085,42.21127,1682.6096],[23.84808,42.22574,1226.208],[23.88064,42.26148,554.7358],[23.8885,42.2907,494.4291],[23.91247,42.296,750.9172],[23.92415,42.28326,608.2977],[23.93717,42.27313,668.0936],[23.95805,42.26804,843.5212],[23.97407,42.28326,711.0868],[23.97335,42.2999,814.6237],[23.95754,42.30959,898.981],[23.94152,42.3468,737.451],[23.9594,42.3923,675.5809],[23.9996,42.39576,453.0481],[24.03836,42.40801,488.7933],[24.05469,42.44503,656.3073],[24.03867,42.4649,712.361],[23.98813,42.45873,414.7099],[23.9502,42.48397,583.1765],[23.93769,42.4979,775.1331],[23.92136,42.50751,754.5103],[23.90751,42.52583,939.2618],[23.89811,42.54702,1129.0367],[23.904,42.56952,901.3798],[23.93366,42.57738,820.6642],[23.96136,42.57929,673.6231],[23.98802,42.57203,549.3756],[24.00983,42.55823,563.2893],[24.03474,42.55337,719.5383],[24.08146,42.57288,929.1413],[24.10657,42.57316,1024.6818],[24.12962,42.58161,1153.3665],[24.15752,42.61073,1285.849],[24.19411,42.62177,1185.887],[24.21158,42.62427,1312.4055],[24.22894,42.62967,1285.6102],[24.25747,42.62823,1340.1296],[24.28496,42.62127,1396.2955],[24.29622,42.60585,1282.4099],[24.3018,42.588,1448.3254],[24.31948,42.58185,1348.6351],[24.3386,42.57781,1215.6676],[24.35038,42.56515,893.1615],[24.36568,42.56456,814.8019],[24.38697,42.56761,801.7458],[24.40815,42.56208,1122.8519],[24.44185,42.56319,1160.6448],[24.46831,42.57714,1285.3929],[24.47296,42.59929,1430.876],[24.44722,42.61262,1325.0564],[24.41632,42.64499,1335.1677],[24.37312,42.66169,1328.8867],[24.3602,42.70742,1018.7024],[24.39668,42.75491,2166.0107],[24.36433,42.75248,1824.0533],[24.3325,42.75778,1831.8206],[24.30935,42.76979,1805.3865],[24.28516,42.77966,1856.2456],[24.15856,42.78085,1412.5192],[24.13861,42.80359,1251.9343],[24.15215,42.84385,1119.3381],[24.15401,42.87635,819.8423],[24.15143,42.90872,806.7639],[24.12931,42.93578,585.3909],[24.09055,42.94234,463.6404],[24.06564,42.96043,411.5701],[24.04466,42.97877,364.1304],[24.05231,42.99978,411.3121],[24.04601,43.02042,645.4578],[24.03195,43.03084,719.668],[24.0243,43.04564,547.2178],[24.00621,43.06021,582.7725],[23.97748,43.05988,655.2467],[23.95909,43.03949,699.6847],[23.93562,43.02776,658.7932],[23.91857,43.0367,549.9482],[23.90235,43.0428,333.4875],[23.80354,43.05608,484.8206],[23.76602,43.06786,437.0706],[23.73843,43.05479,429.2546],[23.71672,43.03461,575.6262],[23.69171,43.0273,751.3674],[23.66536,43.0283,472.048],[23.65016,43.0421,566.9542],[23.63435,43.05303,727.0541],[23.59167,43.02673,1062.7017],[23.5526,43.00916,1298.1318],[23.53203,43.026,974.9236],[23.51694,43.04833,978.9026],[23.49358,43.07055,462.3363],[23.46713,43.089,338.0413],[23.45028,43.09747,332.3365],[23.43519,43.10825,780.9681],[23.43457,43.12814,973.4253],[23.44863,43.13664,1283.901],[23.46981,43.13685,1401.4465],[23.46206,43.15031,1307.434],[23.43137,43.16197,685.7382],[23.39891,43.16295,1132.2776],[23.36274,43.1337,773.6743],[23.31809,43.12083,1294.6414],[23.28605,43.12915,1146.2969],[23.25474,43.123,1421.9281],[23.22032,43.11119,1543.5442]]]}
,"properties": {"ISO3166-1-Alpha-3": "BGR","country": "Bulgaria","fill": "#F00","name": "Sofia","area_km2": 7094.738,"hist_schema_id": "Elevation0-9000","hist_area_km2": {"200": 0.837,"225": 2.511,"250": 3.442,"275": 5.194,"300": 13.586,"325": 50.461,"350": 58.754,"375": 53.664,"400": 53.294,"425": 59.431,"450": 60.166,"475": 62.295,"500": 72.005,"525": 119.897,"550": 247.062,"575": 208.293,"600": 202.437,"625": 241.243,"650": 268.273,"675": 260.248,"700": 261.949,"725": 257.268,"750": 241.579,"775": 225.209,"800": 233.303,"825": 230.411,"850": 224.41,"875": 219.181,"900": 228.1,"925": 229.044,"950": 202.384,"975": 181.908,"1000": 167.296,"1025": 151.174,"1050": 136.436,"1075": 130.675,"1100": 118.012,"1125": 112.181,"1150": 107.474,"1175": 105.257,"1200": 101.614,"1225": 92.724,"1250": 86.442,"1275": 82.659,"1300": 77.189,"1325": 72.141,"1350": 66.369,"1375": 55.598,"1400": 48.395,"1425": 40.333,"1450": 33.078,"1475": 28.859,"1500": 25.388,"1525": 23.574,"1550": 21.213,"1575": 19.234,"1600": 17.23,"1625": 16.022,"1650": 13.026,"1675": 12.901,"1700": 12.219,"1725": 12.843,"1750": 11.518,"1775": 11.76,"1800": 11.113,"1825": 10.411,"1850": 10.077,"1875": 11.3,"1900": 10.891,"1925": 10.922,"1950": 10.207,"1975": 10.21,"2000": 10.495,"2025": 9.227,"2050": 9.376,"2075": 8.764,"2100": 9.079,"2125": 9.347,"2150": 9.206,"2175": 8.735,"2200": 9.615,"2225": 9.474,"2250": 10.763,"2275": 10.512,"2300": 10.497,"2325": 10.513,"2350": 10.152,"2375": 10.246,"2400": 9.24,"2425": 9.099,"2450": 8.376,"2475": 6.977,"2500": 5.972,"2525": 5.987,"2550": 4.636,"2575": 3.724,"2600": 2.923,"2625": 2.137,"2650": 1.414,"2675": 1.304,"2700": 0.943,"2725": 0.864,"2750": 0.566,"2775": 0.267,"2800": 0.173,"2825": 0.126,"2850": 0.11}}}