{"type": "Feature","bbox": [22.7405,42.087,24.4932,43.1986],"geometry": {"type": "MultiPolygon","coordinates": [[[[23.6395,42.432,1004.4297],[23.6422,42.4226,1005.8691],[23.6351,42.4168,917.7816],[23.6125,42.416,836.8975],[23.5849,42.4112,912.1616],[23.5489,42.4162,893.8352],[23.5328,42.4123,842.512],[23.5251,42.4128,884.1827],[23.5196,42.4169,943.504],[23.518,42.4228,918.9144],[23.5212,42.44,915.3752],[23.5245,42.4466,911.915],[23.5261,42.4692,1068.392],[23.5224,42.4774,1079.1592],[23.5093,42.4904,1080.6874],[23.506,42.4985,1013.0104],[23.4995,42.5061,1032.6304],[23.4943,42.5077,1112.6691],[23.4813,42.503,1203.8218],[23.4744,42.5023,1167.2869],[23.4568,42.5052,1179.9125],[23.4488,42.502,1128.1522],[23.4439,42.4938,1133.7168],[23.4418,42.4773,1134.0917],[23.4447,42.4693,1197.8401],[23.4506,42.4609,1215.426],[23.4508,42.456,1197.7114],[23.4479,42.4501,1201.9751],[23.4423,42.445,1162.1595],[23.4363,42.442,1161.921],[23.4279,42.4409,1180.4084],[23.4179,42.4421,1141.9547],[23.4136,42.4441,1115.0754],[23.3978,42.4553,1298.2826],[23.3686,42.4687,1161.9027],[23.3505,42.4835,1123.7104],[23.3423,42.4868,1191.4825],[23.3294,42.5019,1321.8469],[23.2894,42.5124,1565.9906],[23.2821,42.5166,1553.5419],[23.2686,42.5045,1278.2295],[23.2559,42.4853,1248.4897],[23.2502,42.4791,1301.9934],[23.2372,42.4695,1309.2129],[23.2306,42.4595,1180.8838],[23.2287,42.4503,1109.6571],[23.2339,42.4261,1200.631],[23.2331,42.4188,1141.5249],[23.2447,42.4011,1159.9214],[23.2504,42.3849,1140.7769],[23.2496,42.3804,1017.9736],[23.2432,42.3728,1078.3364],[23.2297,42.3624,973.077],[23.2537,42.3525,941.0647],[23.3175,42.3524,1148.9259],[23.3238,42.3515,1205.0734],[23.3324,42.3475,1171.8069],[23.3416,42.3398,1109.3835],[23.3397,42.3278,999.0272],[23.34,42.3171,1145.7434],[23.3499,42.307,1349.1055],[23.3577,42.2911,1298.4648],[23.3653,42.2866,1409.3616],[23.3907,42.2794,1319.2506],[23.4016,42.2709,1313.916],[23.4033,42.2675,1423.8463],[23.4029,42.2619,1449.5149],[23.3979,42.2567,1528.9402],[23.3906,42.2534,1471.7329],[23.3626,42.2477,1591.0443],[23.3268,42.2146,2085.8755],[23.322,42.2024,2258.8589],[23.3229,42.1935,2515.4502],[23.3251,42.19,2409.8655],[23.3325,42.185,2291.269],[23.3416,42.1818,2064.937],[23.3658,42.1808,2357.2441],[23.3756,42.1812,2268.9624],[23.4316,42.1923,2449.0647],[23.443,42.1903,2269.9263],[23.4514,42.183,2324.7798],[23.4529,42.1629,2357.1157],[23.4551,42.1559,2552.3916],[23.4599,42.1493,2573.0325],[23.4639,42.1458,2381.2686],[23.4752,42.1404,2099.1709],[23.5064,42.1295,2310.0674],[23.5122,42.1224,2386.8772],[23.5127,42.1167,2484.5532],[23.5096,42.1109,2500.2566],[23.4925,42.0946,2579.8938],[23.5167,42.0939,2439.8662],[23.5408,42.0874,2423.8955],[23.5532,42.087,2451.8652],[23.5669,42.0912,2376.5129],[23.5798,42.1068,2397.3574],[23.5906,42.1397,2616.8723],[23.5939,42.1448,2703.9089],[23.6069,42.1563,2608.6643],[23.6195,42.1564,2342.7449],[23.6412,42.1519,2404.6692],[23.6505,42.1551,2562.0447],[23.6629,42.1635,2358.554],[23.67,42.1635,2301.6143],[23.6825,42.1591,2291.1555],[23.7049,42.1437,2189.2319],[23.7118,42.1407,2250.8545],[23.7258,42.1367,1986.1827],[23.7324,42.1375,2011.3872],[23.7353,42.142,2145.4207],[23.7337,42.1452,2232.8372],[23.721,42.1595,2344.8193],[23.7219,42.1668,2400.8315],[23.7253,42.1712,2343.6729],[23.7325,42.1734,2581.7781],[23.7649,42.1759,2462.5728],[23.7796,42.1836,2495.8918],[23.7953,42.1978,2172.4822],[23.813,42.2044,1938.4496],[23.8165,42.2091,1716.6404],[23.8415,42.2156,1413.2793],[23.8528,42.2209,1187.293],[23.8657,42.231,962.8107],[23.87,42.2385,828.1454],[23.8758,42.2566,572.7059],[23.8815,42.2638,548.6988],[23.8879,42.2661,569.5162],[23.8998,42.2668,501.8674],[23.9115,42.2589,435.4703],[23.9177,42.2517,422.9787],[23.935,42.2443,413.9108],[23.9387,42.2444,419.7948],[23.947,42.2451,459.4369],[23.958,42.249,595.2313],[23.9842,42.2687,668.3771],[23.9951,42.273,567.8256],[23.9977,42.2812,659.376],[23.9965,42.2862,621.566],[23.9919,42.2907,744.968],[23.9748,42.2952,713.6614],[23.9545,42.2943,694.6375],[23.9449,42.3019,821.7614],[23.943,42.3059,843.6526],[23.9433,42.3106,891.49],[23.9468,42.319,915.7193],[23.9477,42.3339,671.5677],[23.9507,42.3406,767.1833],[23.9588,42.3482,849.4971],[23.9614,42.3528,874.7331],[23.964,42.3674,815.2419],[23.9867,42.3715,617.5873],[23.9951,42.3712,563.4437],[24.0239,42.375,514.0956],[24.0316,42.3773,423.2718],[24.0442,42.3857,319.7449],[24.0534,42.3973,429.0384],[24.0571,42.4098,543.7104],[24.0703,42.43,675.2803],[24.0721,42.4388,738.1516],[24.0707,42.449,727.2772],[24.0722,42.451,709.7062],[24.0604,42.4562,852.7723],[24.0475,42.4564,657.0466],[24.0384,42.4531,659.1697],[24.0323,42.448,662.9599],[24.0223,42.4432,577.0622],[24.0073,42.4403,386.5072],[23.9845,42.4431,594.5668],[23.9689,42.451,619.245],[23.9353,42.476,739.2844],[23.9235,42.482,908.951],[23.9166,42.4889,1004.4255],[23.9144,42.4941,989.4833],[23.9104,42.5194,735.3755],[23.8943,42.5408,1127.6591],[23.8944,42.548,1152.4917],[23.9008,42.5553,1032.2845],[23.9053,42.5578,1002.0148],[23.9563,42.5645,741.0493],[23.9768,42.5714,547.7402],[23.9805,42.5711,523.1703],[24.0148,42.5486,629.8276],[24.0324,42.5395,704.1161],[24.0464,42.5395,777.9473],[24.0694,42.5599,955.3823],[24.0904,42.5683,923.2849],[24.1125,42.5611,1007.933],[24.1215,42.5611,1073.3669],[24.1282,42.5652,1204.0924],[24.1317,42.5758,1334.9929],[24.1317,42.5911,1080.4872],[24.1336,42.5963,1203.7693],[24.1422,42.6047,1328.2511],[24.1651,42.6108,1209.7],[24.1961,42.6158,1199.1265],[24.2178,42.6214,1300.9762],[24.2255,42.6217,1328.1152],[24.2537,42.6118,1371.3586],[24.263,42.6104,1377.9509],[24.2796,42.6117,1269.7034],[24.2938,42.6036,1231.9871],[24.3013,42.5944,1310.8435],[24.3069,42.5803,1287.0847],[24.327,42.5614,840.3012],[24.329,42.5579,785.5834],[24.3295,42.5502,685.9033],[24.3355,42.5421,616.5276],[24.347,42.5417,616.7218],[24.3597,42.5494,739.5076],[24.3678,42.556399999999996,731.7911],[24.3779,42.5589,868.6432],[24.3947,42.5565,910.4927],[24.406,42.551,1117.3705],[24.4141,42.5425,1094.3619],[24.4217,42.5426,1096.0593],[24.4316,42.5448,1113.8044],[24.4437,42.5447,1188.5879],[24.454,42.55,1193.1989],[24.4599,42.5635,1186.9177],[24.4837,42.5772,1162.1979],[24.4887,42.5824,1306.5177],[24.4932,42.5923,1396.4916],[24.4646,42.6036,1503.6439],[24.4527,42.6101,1471.7181],[24.4285,42.6309,1281.5767],[24.3809,42.6466,1231.7673],[24.3686,42.6548,1224.3309],[24.3625,42.6624,1254.5996],[24.3563,42.6726,1230.8906],[24.3534,42.685,1036.6005],[24.352,42.7013,1066.9779],[24.364,42.7228,1210.3373],[24.3782,42.7396,1673.4014],[24.382,42.7471,1926.4272],[24.3619,42.7564,1700.5811],[24.3202,42.7579,1949.2106],[24.2807,42.7736,2027.818],[24.2414,42.7729,2008.8776],[24.2131,42.7693,1615.728],[24.1559,42.7783,1452.8735],[24.1479,42.7825,1375.4899],[24.1463,42.7846,1374.6862],[24.1467,42.7879,1290.1671],[24.1536,42.795,1132.0432],[24.162,42.7991,997.1537],[24.1742,42.801,936.4664],[24.1776,42.8039,852.2326],[24.1788,42.8104,1002.0518],[24.1757,42.8206,836.9535],[24.1853,42.8292,605.4195],[24.1864,42.8345,738.4779],[24.1852,42.8399,719.9198],[24.17,42.8466,785.7896],[24.1654,42.8519,832.5974],[24.1635,42.8613,677.5031],[24.1639,42.8697,627.3632],[24.1731,42.8791,779.7227],[24.1743,42.8896,821.4728],[24.1701,42.894,711.1185],[24.1557,42.8978,713.952],[24.1481,42.9021,767.5003],[24.1428,42.9082,731.8201],[24.1405,42.9161,816.4935],[24.1404,42.9217,789.9998],[24.1427,42.927,704.4183],[24.1498,42.9309,595.0609],[24.1655,42.9355,598.5366],[24.167,42.9386,603.0699],[24.1619,42.9425,599.3169],[24.1377,42.9448,713.1295],[24.1217,42.9483,505.8847],[24.1135,42.9529,487.0356],[24.1036,42.9606,438.925],[24.0991,42.9666,442.9458],[24.0906,42.9714,506.0176],[24.0863,42.9905,508.3096],[24.0864,43.0088,448.957],[24.0783,43.0217,499.2768],[24.0661,43.0338,662.1083],[24.062,43.0454,809.0401],[24.0653,43.0618,441.1838],[24.0644,43.0661,379.5425],[24.0611,43.0693,347.9879],[24.0459,43.0682,419.0963],[24.0023,43.0568,559.5502],[23.9781,43.0579,690.8442],[23.9762,43.0529,806.7361],[23.9745,43.0363,520.2703],[23.9699,43.0301,770.0411],[23.957,43.0274,875.9252],[23.948,43.0281,850.7099],[23.9061,43.0426,348.6643],[23.8958,43.0442,255.8462],[23.8787,43.0436,345.5922],[23.8523,43.0392,424.7325],[23.8236,43.0411,485.7661],[23.8174,43.0433,407.8435],[23.7981,43.0579,473.0262],[23.7803,43.0568,407.8265],[23.7496,43.0479,491.5316],[23.716,43.0254,735.2972],[23.6992,43.02,670.6558],[23.687,43.0214,604.7772],[23.6617,43.0384,622.3795],[23.6517,43.0403,547.7662],[23.6358,43.0272,582.5917],[23.6224,43.0213,676.7225],[23.615,43.0159,680.4244],[23.5933,42.9918,1187.447],[23.5775,42.9851,1333.5865],[23.5695,42.9849,1488.9739],[23.5595,42.9887,1410.5911],[23.5446,43.0025,1498.797],[23.5234,43.0395,1015.9164],[23.5081,43.0551,878.9468],[23.4834,43.0733,337.6978],[23.4736,43.0931,523.1532],[23.4673,43.1007,543.2224],[23.4676,43.1038,614.017],[23.4715,43.109,761.7821],[23.4965,43.1309,1036.9368],[23.4992,43.1444,1168.5909],[23.4973,43.15,1221.2037],[23.4948,43.1518,1197.7781],[23.4765,43.1542,1223.6287],[23.4537,43.1549,1296.5955],[23.4291,43.1584,921.382],[23.3899,43.1593,1242.5956],[23.3718,43.1624,740.4025],[23.3591,43.1626,614.7903],[23.3526,43.1616,719.7479],[23.3422,43.1559,883.9385],[23.3338,43.1471,1097.1497],[23.3243,43.1299,1238.3418],[23.3153,43.1229,1294.0742],[23.3074,43.1197,1329.667],[23.2975,43.1197,1380.0972],[23.2784,43.1229,1355.8081],[23.2479,43.1115,1575.5193],[23.2114,43.1067,1533.4189],[23.1372,43.1069,1417.7312],[23.1276,43.1086,1398.2439],[23.1142,43.1146,1355.157],[23.1032,43.1253,1405.5302],[23.0949,43.1434,1447.4216],[23.087,43.1526,1589.2736],[23.0654,43.1636,1712.1134],[23.0442,43.1705,1801.3021],[23.0371,43.1771,1601.4547],[23.0313,43.1899,1797.1213],[23.0263,43.1958,1800.0618],[23.015,43.1986,1827.0404],[22.997,43.1933,1837.6555],[22.9619,43.1898,1601.8013],[22.978,43.1831,1646.8665],[22.979,43.1786,1606.5958],[22.9597,43.1568,1300.9714],[22.9683,43.1523,1285.2964],[22.9701,43.1464,1133.8254],[22.9672,43.14,1205.0955],[22.9693,43.1306,1223.395],[22.9688,43.1271,1172.6055],[22.9644,43.1185,998.2266],[22.9589,43.1121,950.1855],[22.9574,43.1017,872.5995],[22.9293,43.0845,813.2],[22.9263,43.0811,889.6736],[22.9075,43.0767,872.0709],[22.8938,43.0675,723.073],[22.8847,43.0427,736.7117],[22.8757,43.0354,717.6289],[22.8747,43.0246,681.2094],[22.8391,43.0067,516.565],[22.8265,42.99,666.1202],[22.8227,42.9809,816.3268],[22.7699,42.9616,720.3533],[22.7699,42.9387,554.6626],[22.7674,42.9349,621.9144],[22.7678,42.9297,636.0331],[22.7649,42.9282,614.9667],[22.7606,42.9292,613.1847],[22.7542,42.9252,607.2106],[22.7613,42.9141,777.9729],[22.7622,42.9093,812.0819],[22.7593,42.9023,795.4483],[22.7478,42.8933,792.8195],[22.7431,42.8824,931.1643],[22.7405,42.8809,1002.7368],[22.7542,42.8764,867.1774],[22.7677,42.8687,913.5421],[22.772,42.8616,854.0048],[22.7749,42.8459,938.6416],[22.79,42.8463,925.2543],[22.8154,42.8422,991.6544],[22.8277,42.8445,1084.2059],[22.8354,42.8483,913.1171],[22.846,42.85,899.7941],[22.8503,42.8492,809.5048],[22.8533,42.8475,825.4637],[22.8583,42.8405,927.5995],[22.86,42.8338,946.5922],[22.8597,42.8261,855.7706],[22.8658,42.8191,865.0739],[22.8685,42.8179,882.3439],[22.8924,42.8194,847.8342],[22.9006,42.8176,903.7332],[22.9077,42.8123,915.7781],[22.9121,42.8046,863.6685],[22.9165,42.7893,969.8976],[22.9252,42.7797,965.1136],[22.9402,42.7738,978.3859],[22.9711,42.7707,827.0398],[22.9787,42.765,860.2788],[22.9845,42.7556,892.6009],[22.9979,42.7423,773.0308],[23.0243,42.7436,796.1699],[23.0317,42.7421,746.263],[23.0367,42.7352,807.5191],[23.0388,42.7229,870.2366],[23.051,42.7268,854.1049],[23.0859,42.7267,831.9904],[23.1563,42.7215,651.5927],[23.178,42.7238,621.0274],[23.194,42.7296,593.923],[23.226,42.732,564.3296],[23.2313,42.7372,556.7417],[23.2311,42.7413,553.9062],[23.2218,42.7529,547.3796],[23.2197,42.7611,544.6238],[23.2318,42.7737,534.8365],[23.2464,42.7842,530.8774],[23.252,42.8092,527.0853],[23.2631,42.8161,541.6611],[23.266,42.8195,546.6785],[23.2689,42.8436,617.9015],[23.2847,42.8522,705.6772],[23.2968,42.8772,860.0239],[23.2992,42.8787,786.5807],[23.3177,42.8782,961.0029],[23.3317,42.8686,885.4498],[23.3478,42.8642,721.9023],[23.356,42.8552,619.2969],[23.3654,42.8368,606.8112],[23.3774,42.8326,624.5652],[23.4194,42.8326,821.285],[23.4237,42.8349,798.3709],[23.4378,42.8368,856.7968],[23.4556,42.8446,874.7903],[23.4698,42.8562,943.8271],[23.4744,42.8582,1027.5166],[23.4877,42.8621,666.0813],[23.5091,42.8636,806.8914],[23.5395,42.8535,989.3989],[23.5684,42.8321,814.9187],[23.5786,42.8292,941.0794],[23.6024,42.8329,853.3094],[23.6232,42.843,931.9492],[23.6337,42.843,1165.8854],[23.644,42.838,1059.7296],[23.647,42.8199,1410.399],[23.6511,42.8123,1296.8248],[23.6514,42.7999,1104.4166],[23.6436,42.7805,1001.945],[23.6436,42.7656,792.5984],[23.64,42.7577,746.0643],[23.6295,42.7427,632.7609],[23.6267,42.7169,606.0966],[23.6226,42.7088,589.0055],[23.6102,42.702,576.5212],[23.5873,42.6991,561.5562],[23.5775,42.6961,555.7115],[23.5741,42.6936,550.2007],[23.5609,42.6754,535.1161],[23.5522,42.6719,533.8072],[23.5237,42.6652,534.2673],[23.5213,42.6619,533.4052],[23.5187,42.6462,538.7557],[23.5152,42.6399,542.5073],[23.5148,42.6353,546.4072],[23.5155,42.6297,553.8245],[23.52,42.6261,566.5059],[23.5441,42.6212,578.6225],[23.5535,42.6213,562.6255],[23.5579,42.618,576.3461],[23.5618,42.6107,618.9082],[23.5623,42.6047,654.6125],[23.5568,42.5782,1048.1611],[23.5567,42.5662,1038.3027],[23.559,42.5552,1035.2677],[23.5548,42.5472,978.0731],[23.5466,42.5393,975.3857],[23.5468,42.5321,838.0354],[23.5723,42.513,968.5021],[23.5822,42.5084,989.3003],[23.611,42.509,985.7098],[23.6108,42.5051,1005.8522],[23.6034,42.4955,928.2311],[23.6022,42.4909,919.834],[23.624,42.4663,826.4197],[23.6395,42.432,1004.4297]]]]}
,"properties": {"GID_1": "BGR.21_1","GID_0": "BGR","country": "Bulgaria","state": "Sofia","VARNAME_1": "Sofiya|Sofija","NL_NAME_1": "Sofija","TYPE_1": "Oblast","ENGTYPE_1": "Province","CC_1": "NA","HASC_1": "BG.SF","ISO_1": "BG-23","name": "Sofia.state","area_km2": 7116.815,"hist_schema_id": "Elevation0-9000","hist_area_km2": {"200": 0.821,"225": 2.496,"250": 3.411,"275": 5.163,"300": 13.57,"325": 51.354,"350": 60.177,"375": 55.496,"400": 58.659,"425": 65.652,"450": 66.072,"475": 67.281,"500": 76.744,"525": 113.24,"550": 252.48,"575": 203.271,"600": 194.304,"625": 238.143,"650": 270.394,"675": 264.925,"700": 266.9,"725": 263.727,"750": 247.877,"775": 230.291,"800": 238.115,"825": 232.706,"850": 228.405,"875": 221.41,"900": 230.461,"925": 233.242,"950": 207.645,"975": 186.816,"1000": 168.335,"1025": 150.851,"1050": 133.637,"1075": 127.747,"1100": 114.587,"1125": 108.827,"1150": 102.118,"1175": 98.351,"1200": 96.033,"1225": 88.248,"1250": 83.356,"1275": 80.406,"1300": 75.311,"1325": 71.84,"1350": 65.029,"1375": 55.289,"1400": 48.244,"1425": 38.017,"1450": 30.407,"1475": 26.795,"1500": 22.72,"1525": 20.783,"1550": 19.663,"1575": 18.631,"1600": 16.984,"1625": 16.074,"1650": 13.375,"1675": 13.417,"1700": 12.548,"1725": 12.612,"1750": 11.27,"1775": 11.558,"1800": 10.6,"1825": 9.851,"1850": 9.656,"1875": 10.616,"1900": 10.409,"1925": 10.161,"1950": 9.602,"1975": 9.745,"2000": 10.171,"2025": 8.951,"2050": 9.471,"2075": 9.048,"2100": 9.331,"2125": 9.536,"2150": 9.646,"2175": 9.379,"2200": 10.26,"2225": 9.852,"2250": 11.801,"2275": 11.22,"2300": 12.745,"2325": 12.069,"2350": 11.425,"2375": 10.529,"2400": 9.461,"2425": 9.209,"2450": 8.691,"2475": 7.339,"2500": 6.365,"2525": 6.113,"2550": 4.809,"2575": 3.709,"2600": 2.986,"2625": 2.074,"2650": 1.367,"2675": 1.273,"2700": 0.896,"2725": 0.801,"2750": 0.566,"2775": 0.267,"2800": 0.173,"2825": 0.126,"2850": 0.11}}}