{"type":"Feature","properties":{"GID_2":"BGR.24.1_1","GID_0":"BGR","country":"Bulgaria","GID_1":"BGR.24_1","state":"Varna","NL_NAME_1":"Варна","county":"Aksakovo","VARNAME_2":"NA","NL_NAME_2":"Аксаково","TYPE_2":"Obshtina","ENGTYPE_2":"Municipality","CC_2":"NA","HASC_2":"BG.VN.AK","name":"Aksakovo.county"},
"geometry":{"type": "MultiPolygon","coordinates": [[[[27.9739,43.395,164.3029],[27.9549,43.3982,192.0546],[27.9378,43.3982,106.2146],[27.9192,43.3956,114.6755],[27.897,43.3872,208.7013],[27.8614,43.3603,310.3125],[27.851,43.3571,298.0902],[27.8433,43.3584,318.46],[27.814,43.3778,350.3456],[27.8083,43.3865,338.3163],[27.791,43.4023,318.5472],[27.7886,43.4146,303.7908],[27.7658,43.4173,279.7178],[27.7531,43.421,290.2607],[27.7508,43.424,288.2805],[27.7271,43.4372,311.2852],[27.7197,43.4466,312.6832],[27.7089,43.4751,216.8186],[27.6993,43.4791,258.8082],[27.6875,43.478,288.3892],[27.6794,43.4538,249.9861],[27.6687,43.4398,307.4325],[27.6596,43.4322,315.1701],[27.6522,43.4292,258.2909],[27.65,43.4267,274.5389],[27.6421,43.4134,274.7726],[27.6422,43.4045,299.3361],[27.6531,43.393,304.0339],[27.6669,43.3845,333.0125],[27.6741,43.3827,301.7694],[27.6832,43.3833,285.6409],[27.6868,43.3812,267.0657],[27.6985,43.3628,323.9097],[27.6965,43.3575,326.335],[27.6913,43.352,283.0024],[27.6904,43.3473,297.7484],[27.6918,43.3438,312.06],[27.705,43.3292,336.7485],[27.7115,43.319,292.7806],[27.7308,43.3062,329.381],[27.7466,43.2805,330.4034],[27.7436,43.2737,234.4343],[27.741,43.2715,185.966],[27.7314,43.2693,206.8083],[27.7118,43.2721,340.6124],[27.6837,43.2733,355.5214],[27.6805,43.271,351.6423],[27.6749,43.2595,311.2143],[27.6683,43.2531,269.3031],[27.6488,43.2504,216.7839],[27.6775,43.2278,145.202],[27.6827,43.2217,129.1409],[27.6998,43.227,140.8161],[27.7225,43.2242,96.8126],[27.7441,43.225,51.4564],[27.7654,43.229,19.9766],[27.7809,43.2402,45.469],[27.7902,43.2432,46.2008],[27.7992,43.2441,54.7543],[27.8149,43.2533,95.316],[27.8182,43.2583,120.4327],[27.8179,43.2613,138.293],[27.8121,43.2688,170.033],[27.8149,43.2721,209.8327],[27.822,43.2753,238.5195],[27.8561,43.279,320.8264],[27.8782,43.2963,298.2965],[27.8853,43.2981,288.4073],[27.8959,43.2954,313.575],[27.9036,43.2912,287.5444],[27.9103,43.272,323.8066],[27.9161,43.2654,337.0757],[27.9221,43.2625,321.1331],[27.9488,43.2599,300.4258],[27.96,43.2612,329.6301],[27.9965,43.2725,260.3467],[28.0218,43.2961,258.9608],[28.0326,43.3007,265.5352],[28.0228,43.3215,63.0825],[28.0185,43.3402,177.3594],[28.0139,43.3512,100.3003],[27.9984,43.3669,220.7367],[27.9894,43.3801,268.0636],[27.9769,43.3901,267.4974],[27.9739,43.395,164.3029]]]]}}