{"type": "Feature","bbox": [23.2237,43.4235,23.6274,43.6261],"geometry": {"type": "MultiPolygon","coordinates": [[[[23.4035,43.4235,150.9905],[23.4019,43.4484,149.823],[23.4209,43.4837,178.2452],[23.4314,43.5072,161.8583],[23.439,43.5126,129.2422],[23.4457,43.514,89.2861],[23.4582,43.5131,91.5302],[23.4777,43.5055,94.305],[23.4898,43.5048,90.0639],[23.4923,43.5033,102.1205],[23.5011,43.5053,125.6491],[23.5139,43.5056,130.7001],[23.5293,43.5018,159.5716],[23.5421,43.5018,144.7789],[23.5513,43.5044,132.9234],[23.5572,43.5079,141.6839],[23.5684,43.5218,131.1819],[23.576,43.528,110.3585],[23.619,43.5268,154.3906],[23.6236,43.528,157.8726],[23.6273,43.5312,155.8064],[23.6274,43.5394,142.293],[23.616,43.5524,127.3487],[23.609,43.5576,88.1467],[23.5716,43.5793,110.8014],[23.5494,43.5941,95.9978],[23.4892,43.5922,145.7028],[23.4809,43.5956,147.1394],[23.4767,43.6056,145.1852],[23.4709,43.6131,142.8087],[23.4581,43.6216,141.1711],[23.4384,43.626,145.4034],[23.4189,43.6261,143.0998],[23.4143,43.6163,147.4506],[23.4101,43.6117,150.2351],[23.3962,43.6084,153.5507],[23.39,43.6036,154.6557],[23.3869,43.5922,155.2523],[23.3832,43.5887,143.8632],[23.3757,43.5864,156.5467],[23.3583,43.5858,162.226],[23.3529,43.5829,163.8598],[23.3502,43.5765,165.9464],[23.3452,43.572,168.0047],[23.3349,43.567,173.8258],[23.3287,43.5608,177.1336],[23.3254,43.5558,178.1466],[23.3244,43.5497,180.282],[23.327,43.5343,182.5986],[23.3259,43.5256,121.0267],[23.3235,43.519,157.3836],[23.3137,43.5099,185.0898],[23.3085,43.5064,185.7464],[23.2878,43.5014,146.8],[23.2821,43.4968,191.3614],[23.2695,43.4916,196.7447],[23.2419,43.4923,220.3026],[23.2338,43.49,221.3812],[23.2242,43.4836,202.7937],[23.2237,43.4814,200.3478],[23.2258,43.4792,189.2898],[23.2329,43.4743,157.5622],[23.2495,43.4728,174.8005],[23.2587,43.4684,136.8929],[23.2767,43.4691,136.862],[23.2829,43.4672,111.6256],[23.2964,43.4557,155.1556],[23.3169,43.4512,264.0764],[23.3419,43.4351,297.2771],[23.3502,43.433,248.9781],[23.3896,43.4293,138.2571],[23.4035,43.4235,150.9905]]]]}
,"properties": {"GID_2": "BGR.10.2_1","GID_0": "BGR","country": "Bulgaria","GID_1": "BGR.10_1","state": "Montana","NL_NAME_1": "Монтана","county": "Boichinovtsi","VARNAME_2": "Boychinovtsi","NL_NAME_2": "Бойчиновци","TYPE_2": "Obshtina","ENGTYPE_2": "Municipality","CC_2": "NA","HASC_2": "BG.MT.BO","name": "Boichinovtsi.county","area_km2": 306.6807,"hist_schema_id": "Elevation0-9000","hist_area_km2": {"50": 4.5023,"75": 34.571,"100": 53.0915,"125": 58.3431,"150": 91.1719,"175": 35.5809,"200": 20.6017,"225": 6.9558,"250": 1.4161,"275": 0.431,"300": 0.0154}}}