{"type": "Feature","bbox": [26.3336,43.2766,26.8027,43.5209],"geometry": {"type": "MultiPolygon","coordinates": [[[[26.4689,43.4599,387.2666],[26.4683,43.4569,396.1621],[26.4615,43.4511,354.455],[26.4603,43.4446,385.1528],[26.4604,43.4417,363.493],[26.4663,43.4342,402.3783],[26.4679,43.4283,458.4358],[26.4639,43.4232,474.1137],[26.4445,43.4098,366.9154],[26.4389,43.403,301.3626],[26.4315,43.3976,270.5281],[26.4189,43.3928,321.2262],[26.4024,43.3839,247.2237],[26.3885,43.3795,314.8708],[26.3794,43.3691,315.328],[26.3622,43.3696,300.4645],[26.3539,43.3652,328.8413],[26.3336,43.36,375.2515],[26.3348,43.3538,454.2411],[26.3395,43.3481,471.6587],[26.3411,43.3407,453.3089],[26.3465,43.3316,299.3409],[26.354,43.3292,321.723],[26.3759,43.329,256.8698],[26.3839,43.3216,275.1336],[26.3975,43.3189,408.9707],[26.3991,43.3132,380.3941],[26.3979,43.3098,380.3182],[26.3911,43.3062,386.0326],[26.3772,43.3046,331.0837],[26.372,43.3021,273.1588],[26.3698,43.2977,250.643],[26.3729,43.2897,283.5091],[26.3828,43.2791,373.3156],[26.3884,43.2766,401.9431],[26.4052,43.2803,373.4127],[26.4215,43.2807,387.6822],[26.4413,43.2839,389.6207],[26.4461,43.2875,431.7698],[26.4504,43.2945,485.957],[26.4508,43.2979,468.1494],[26.4474,43.3044,371.0685],[26.4437,43.3209,219.2735],[26.4454,43.3328,206.5612],[26.4521,43.3376,240.071],[26.469,43.3434,226.7582],[26.4774,43.3519,190.1073],[26.4771,43.3547,217.5121],[26.4682,43.3616,198.1583],[26.4667,43.3641,201.2824],[26.468,43.3678,208.1509],[26.4852,43.3697,275.9622],[26.5105,43.362,222.4553],[26.5247,43.3666,224.207],[26.5368,43.3746,204.32],[26.5454,43.3766,209.1039],[26.5539,43.3763,223.2222],[26.5757,43.3728,297.52],[26.5913,43.3672,277.9478],[26.5972,43.3633,266.1554],[26.6029,43.3616,220.3636],[26.6108,43.353,276.5975],[26.6204,43.3481,278.4202],[26.624,43.3473,240.0647],[26.6372,43.3495,284.8451],[26.6464,43.3472,348.3668],[26.6599,43.3474,369.8604],[26.6691,43.3576,353.1209],[26.6754,43.3792,306.2306],[26.6793,43.3828,289.16],[26.6839,43.3839,282.444],[26.6891,43.3828,288.8563],[26.6918,43.3811,291.9606],[26.6955,43.3751,334.4716],[26.6995,43.3737,347.3545],[26.7203,43.3801,351.0444],[26.7251,43.3783,336.6038],[26.7328,43.3715,332.2233],[26.7372,43.3712,334.0068],[26.7448,43.3751,352.4069],[26.7498,43.383,395.2618],[26.7613,43.3844,367.991],[26.7741,43.3815,380.3993],[26.7889,43.3846,406.1384],[26.7994,43.3896,426.6867],[26.8027,43.3968,412.6245],[26.8021,43.4069,440.2564],[26.793,43.4187,387.4497],[26.7851,43.4222,377.2691],[26.7603,43.428,383.9194],[26.754,43.4323,371.2136],[26.7574,43.4433,377.86],[26.7569,43.449,393.7993],[26.7456,43.4663,350.5732],[26.7453,43.4686,399.9145],[26.7491,43.4718,410.2034],[26.7425,43.4788,399.2345],[26.7381,43.5084,450.8206],[26.7364,43.5114,473.0081],[26.7339,43.5123,465.933],[26.7301,43.5104,426.7625],[26.7236,43.497,345.569],[26.7202,43.4941,334.7498],[26.7059,43.4936,321.0137],[26.7004,43.4961,296.9191],[26.6941,43.5034,326.4198],[26.6886,43.5113,338.8591],[26.6863,43.5197,401.0649],[26.6741,43.5209,402.3339],[26.6616,43.5186,348.1379],[26.6455,43.5,285.5036],[26.6206,43.4907,265.5203],[26.6164,43.4879,293.1113],[26.609,43.4768,288.2244],[26.6022,43.4721,321.1302],[26.579,43.4677,389.1319],[26.5499,43.4536,375.6112],[26.5417,43.4513,410.6521],[26.5307,43.4535,437.3004],[26.526,43.4587,439.6946],[26.5187,43.474,461.137],[26.5132,43.4762,438.1377],[26.5001,43.4695,355.5523],[26.4896,43.4604,316.6036],[26.4689,43.4599,387.2666]]]]}
,"properties": {"GID_2": "BGR.15.3_1","GID_0": "BGR","country": "Bulgaria","GID_1": "BGR.15_1","state": "Razgrad","NL_NAME_1": "Разград","county": "Loznitsa","VARNAME_2": "NA","NL_NAME_2": "NA","TYPE_2": "Obshtina","ENGTYPE_2": "Municipality","CC_2": "NA","HASC_2": "BG.RG.LO","name": "Loznitsa.county","area_km2": 407.5104,"hist_schema_id": "Elevation0-9000","hist_area_km2": {"200": 6.613,"225": 23.581,"250": 34.3905,"275": 43.5223,"300": 57.6924,"325": 63.5707,"350": 53.0247,"375": 45.5338,"400": 39.5889,"425": 27.115,"450": 8.4246,"475": 3.9449,"500": 0.5085}}}