{"type": "Feature","bbox": [24.4589,41.8808,24.9211,42.2526],"geometry": {"type": "MultiPolygon","coordinates": [[[[24.5307,42.1685,186.579],[24.5506,42.1685,183.3198],[24.5894,42.158,177.1161],[24.5895,42.1433,172.8284],[24.5884,42.1385,174.6379],[24.5856,42.1352,175.8627],[24.571,42.1272,173.3891],[24.5494,42.1249,182.2408],[24.5651,42.1156,182.5338],[24.5777,42.09,226.4867],[24.5971,42.0724,386.1593],[24.598,42.0693,439.3707],[24.5905,42.0501,645.8016],[24.5917,42.0442,601.4006],[24.5999,42.0303,688.1003],[24.6001,42.0236,882.5151],[24.5929,42.0186,965.9316],[24.5864,42.0177,996.9774],[24.5559,42.0186,989.7344],[24.543,42.0164,1027.4481],[24.537,42.0176,913.4495],[24.5326,42.0224,753.2871],[24.5354,42.0338,541.2239],[24.5344,42.0629,232.2131],[24.5178,42.0767,258.0089],[24.5086,42.077,201.0358],[24.5043,42.0744,201.5974],[24.5001,42.0666,205.814],[24.4811,42.0512,218.6865],[24.4766,42.042,227.5681],[24.4742,42.0278,457.2822],[24.4816,42.0151,377.4663],[24.4831,42.0076,424.8631],[24.4697,41.9724,949.3951],[24.461,41.9544,464.3441],[24.4606,41.9451,715.9563],[24.4639,41.9366,735.2066],[24.4617,41.9298,951.933],[24.4623,41.9262,1055.1587],[24.4662,41.9236,1158.6925],[24.4589,41.9185,785.9757],[24.4741,41.9176,1168.4711],[24.4904,41.923,1479.793],[24.5034,41.9223,1534.2727],[24.5139,41.9128,1555.834],[24.5235,41.8977,1801.2975],[24.532,41.8901,1787.7986],[24.5584,41.8808,1732.6321],[24.5893,41.8821,1401.566],[24.6181,41.8867,1152.6392],[24.634,41.8868,1147.2285],[24.6557,41.8903,1176.3693],[24.6813,41.8968,1050.6624],[24.7042,41.9063,842.1844],[24.7187,41.9095,1193.7793],[24.7538,41.9073,804.6841],[24.7666,41.9094,671.28],[24.7803,41.914,718.6581],[24.806,41.9142,615.3296],[24.8159,41.9151,533.0267],[24.8209,41.9172,531.1423],[24.8284,41.9274,670.3303],[24.8264,41.9414,963.3591],[24.8321,41.9496,874.2399],[24.8326,41.9576,1014.4526],[24.839,41.9646,974.8986],[24.8397,41.9674,910.0475],[24.8398,41.9718,843.2146],[24.835,41.9806,577.3229],[24.8375,41.9877,686.3677],[24.8429,41.9957,771.6845],[24.8409,42.0076,467.1241],[24.8432,42.0153,312.4979],[24.8562,42.0307,209.5696],[24.8704,42.0345,206.8624],[24.8776,42.0391,201.3444],[24.8841,42.0395,200.8417],[24.884,42.0485,194.2232],[24.8783,42.0602,185.4542],[24.8774,42.067,180.9594],[24.8935,42.0979,162.5217],[24.8924,42.1174,152.9722],[24.9013,42.1293,147.1373],[24.9211,42.1411,143.4425],[24.8535,42.1379,148.834],[24.838,42.136,149.8727],[24.8339,42.1326,151.5375],[24.8148,42.131,153.2296],[24.808,42.1249,153.8156],[24.8,42.1132,157.7632],[24.7873,42.1049,158.247],[24.7654,42.1017,162.5074],[24.7596,42.0923,166.8405],[24.7448,42.0895,168.8493],[24.7359,42.0796,187.1831],[24.7263,42.0793,194.6378],[24.7081,42.0858,178.463],[24.7022,42.0902,177.4296],[24.6975,42.1056,173.8554],[24.6896,42.115,171.4404],[24.6876,42.1216,171.4633],[24.688,42.1325,166.2585],[24.6905,42.1433,164.0089],[24.6926,42.1454,163.586],[24.6716,42.1488,163.9264],[24.6567,42.1603,167.3323],[24.6504,42.163,168.0621],[24.6415,42.1631,168.6276],[24.6312,42.1596,170.5146],[24.6246,42.1593,171.1727],[24.6198,42.1603,172.2985],[24.6128,42.1656,173.0648],[24.6088,42.1803,174.3244],[24.6071,42.203,178.744],[24.6001,42.2296,185.5423],[24.5923,42.2415,188.0277],[24.5827,42.251,191.4131],[24.5661,42.2493,192.4794],[24.5472,42.2526,196.6552],[24.5324,42.2516,199.5271],[24.4982,42.2294,204.1181],[24.4843,42.2239,204.726],[24.4762,42.2009,200.7582],[24.4758,42.1906,198.1836],[24.4827,42.1867,195.5901],[24.4982,42.1868,194.9337],[24.5187,42.1829,190.9689],[24.5307,42.1685,186.579]]]]}
,"properties": {"GID_2": "BGR.14.13_1","GID_0": "BGR","country": "Bulgaria","GID_1": "BGR.14_1","state": "Plovdiv","NL_NAME_1": "Пловдив","county": "Rodopi","VARNAME_2": "NA","NL_NAME_2": "NA","TYPE_2": "Obshtina","ENGTYPE_2": "Municipality","CC_2": "NA","HASC_2": "BG.PD.RO","name": "Rodopi.county","area_km2": 801.7458,"hist_schema_id": "Elevation0-9000","hist_area_km2": {"150": 40.657,"175": 144.2828,"200": 79.5109,"225": 21.7066,"250": 10.326,"275": 8.0757,"300": 6.7691,"325": 6.0769,"350": 5.6204,"375": 5.4947,"400": 5.8571,"425": 6.0934,"450": 6.0308,"475": 6.1726,"500": 6.0311,"525": 6.5985,"550": 6.4096,"575": 6.6621,"600": 6.7093,"625": 7.5602,"650": 7.1984,"675": 7.6718,"700": 6.3018,"725": 6.0504,"750": 5.9247,"775": 6.2401,"800": 6.0987,"825": 6.8238,"850": 6.84,"875": 7.108,"900": 7.0296,"925": 7.8652,"950": 8.6532,"975": 9.6463,"1000": 10.3872,"1025": 10.1354,"1050": 11.6483,"1075": 11.9796,"1100": 12.3424,"1125": 12.0117,"1150": 12.4849,"1175": 13.9041,"1200": 13.8098,"1225": 13.2898,"1250": 12.9434,"1275": 13.3063,"1300": 12.9916,"1325": 13.2608,"1350": 13.1667,"1375": 13.231,"1400": 12.9948,"1425": 12.633,"1450": 13.0274,"1475": 12.6026,"1500": 11.1988,"1525": 10.0001,"1550": 10.4267,"1575": 8.3447,"1600": 6.3413,"1625": 3.8649,"1650": 2.7766,"1675": 1.4833,"1700": 0.7102,"1725": 0.6155,"1750": 0.5208,"1775": 0.4104,"1800": 0.2525,"1825": 0.1105,"1850": 0.0947,"1875": 0.1578,"1900": 0.0947,"1925": 0.0631,"1950": 0.0316}}}