{"type":"Feature","properties":{"GID_2":"BGR.7.6_1","GID_0":"BGR","country":"Bulgaria","GID_1":"BGR.7_1","state":"Kardzhali","NL_NAME_1":"Кърджалийска","county":"Krumovgrad","VARNAME_2":"Koşukavak","NL_NAME_2":"Крумовград","TYPE_2":"Obshtina","ENGTYPE_2":"Municipality","CC_2":"NA","HASC_2":"BG.KZ.KR","name":"Krumovgrad.county"},
"geometry":{"type": "MultiPolygon","coordinates": [[[[25.8567,41.6101,425.7377],[25.8397,41.641,359.2898],[25.8365,41.6432,276.375],[25.8066,41.6439,251.0051],[25.7896,41.6488,159.8091],[25.7802,41.6468,218.3941],[25.7738,41.641,220.6328],[25.7646,41.6288,208.7818],[25.7535,41.6219,209.7274],[25.7325,41.6123,366.8397],[25.7144,41.607,259.3395],[25.7101,41.6079,169.7441],[25.6989,41.6154,153.659],[25.691,41.617,163.3123],[25.6796,41.615,209.1878],[25.6656,41.6084,242.2953],[25.655,41.6075,227.9722],[25.6447,41.6085,166.9504],[25.6351,41.6116,220.4036],[25.6277,41.6175,331.6174],[25.624,41.6264,257.0223],[25.6247,41.6314,448.3119],[25.6274,41.6351,446.5929],[25.6178,41.6315,406.2115],[25.6119,41.6312,445.9946],[25.6047,41.6086,479.7164],[25.5993,41.5979,476.4305],[25.5971,41.5817,668.782],[25.5922,41.575,683.7957],[25.5944,41.5719,590.788],[25.6004,41.57,750.4109],[25.6177,41.5541,532.8809],[25.6241,41.5445,369.499],[25.6256,41.5388,360.3889],[25.6243,41.5311,207.3195],[25.6201,41.5237,188.3608],[25.6017,41.5069,290.3215],[25.5937,41.4957,367.464],[25.5935,41.4892,278.3367],[25.5948,41.4865,249.8569],[25.6102,41.4759,275.1909],[25.6081,41.4706,318.3812],[25.5989,41.4652,351.9619],[25.5971,41.4621,390.5166],[25.5955,41.4394,265.0197],[25.592,41.4362,256.5681],[25.5875,41.435,270.2873],[25.5635,41.4358,348.5978],[25.5588,41.4319,371.0794],[25.5549,41.4191,340.5675],[25.5441,41.415,421.9953],[25.5318,41.4164,496.8855],[25.4967,41.4292,642.3857],[25.4875,41.4276,670.0763],[25.4791,41.4192,542.8079],[25.476,41.4101,430.0648],[25.478,41.3973,527.7524],[25.4836,41.3861,554.1177],[25.4854,41.3788,485.0206],[25.4839,41.371,412.0702],[25.4751,41.3553,500.0027],[25.4758,41.3496,493.0518],[25.4803,41.3463,617.1807],[25.4962,41.3448,624.7993],[25.5233,41.3507,624.6421],[25.5343,41.3478,560.7357],[25.538,41.345,456.3521],[25.5407,41.337,482.6674],[25.5391,41.3232,567.9216],[25.5438,41.3234,551.4895],[25.5424,41.316,776.009],[25.5442,41.3112,792.1576],[25.5502,41.3129,834.1964],[25.5528,41.3159,838.1436],[25.5679,41.3152,718.6593],[25.573,41.3167,721.8699],[25.5757,41.3136,728.4044],[25.5836,41.3113,929.9738],[25.5832,41.3083,902.2179],[25.5893,41.3058,836.87],[25.5971,41.3062,831.2839],[25.6068,41.3022,745.8551],[25.616,41.3012,633.6797],[25.6291,41.3081,589.7878],[25.634,41.3081,568.679],[25.639,41.3104,612.3877],[25.6444,41.3094,668.3867],[25.65,41.3104,734.3456],[25.6567,41.3048,550.2702],[25.675,41.3028,598.9844],[25.6764,41.3011,707.3791],[25.686,41.2988,726.3854],[25.6878,41.2954,646.771],[25.6921,41.2931,790.4913],[25.7015,41.2912,882.8154],[25.7053,41.2934,930.9092],[25.7039,41.2995,731.2371],[25.7084,41.305,719.1405],[25.7094,41.3111,686.8186],[25.7151,41.3125,779.0939],[25.7192,41.316,743.3297],[25.7372,41.3161,659.6835],[25.7421,41.3132,699.2369],[25.7466,41.313,723.0526],[25.7543,41.3176,667.7715],[25.7604,41.3142,632.9423],[25.7654,41.3155,616.7449],[25.771,41.3146,638.9258],[25.7752,41.321,659.8948],[25.7822,41.3245,646.1804],[25.788,41.3299,660.3873],[25.7954,41.3314,652.0162],[25.7994,41.3297,667.2195],[25.8005,41.3322,705.4641],[25.8053,41.3345,678.1536],[25.8106,41.3339,694.6562],[25.8117,41.3368,742.2407],[25.8219,41.3334,645.2418],[25.8248,41.33,662.9589],[25.8354,41.3274,708.6482],[25.8396,41.3241,797.7214],[25.8389,41.3214,785.8131],[25.841,41.3186,790.1354],[25.854,41.3207,856.8703],[25.8599,41.3201,973.9178],[25.8585,41.312,1100.0222],[25.8548,41.3054,889.7261],[25.87,41.2992,962.1565],[25.8801,41.3016,1181.3289],[25.8907,41.3004,1075.0841],[25.9061,41.3079,1027.3436],[25.9154,41.3091,982.257],[25.9221,41.3148,966.1235],[25.9324,41.3132,886.4178],[25.9383,41.3145,862.6119],[25.9432,41.3209,848.6125],[25.9443,41.3261,665.4485],[25.933,41.3325,773.6717],[25.9325,41.3493,441.2374],[25.9308,41.3545,417.1764],[25.923,41.3658,344.99],[25.9156,41.3702,400.5381],[25.8871,41.3764,410.4528],[25.8835,41.3817,397.9424],[25.8807,41.3942,363.6862],[25.8713,41.3901,365.7149],[25.8664,41.3902,392.269],[25.8588,41.4003,452.3045],[25.8561,41.4121,415.879],[25.8512,41.4194,448.3878],[25.8496,41.4251,405.1947],[25.8505,41.4291,330.5035],[25.8563,41.4367,241.4044],[25.8582,41.4439,319.0662],[25.8565,41.4502,356.7177],[25.8573,41.4527,302.0825],[25.877,41.4633,315.0096],[25.8815,41.4718,360.0393],[25.8787,41.4768,414.1508],[25.8737,41.4796,458.8983],[25.8496,41.4802,398.2449],[25.8268,41.4923,554.1724],[25.7971,41.4951,549.1449],[25.7939,41.4997,579.5805],[25.7955,41.5101,673.1679],[25.7906,41.5368,606.3323],[25.8004,41.5671,441.0206],[25.8046,41.5737,376.7879],[25.8086,41.5767,516.8916],[25.8377,41.5877,551.499],[25.8524,41.5968,643.6436],[25.856,41.6007,527.1149],[25.8567,41.6101,425.7377]]]]}}