{"type":"Feature","properties":{"GID_2":"BGR.21.22_1","GID_0":"BGR","country":"Bulgaria","GID_1":"BGR.21_1","state":"Sofia","NL_NAME_1":"Sofija","county":"Zlatitsa","VARNAME_2":"NA","NL_NAME_2":"Златица","TYPE_2":"Obshtina","ENGTYPE_2":"Municipality","CC_2":"NA","HASC_2":"BG.SF.ZL","name":"Zlatitsa.county"},
"geometry":{"type": "MultiPolygon","coordinates": [[[[24.0548,42.5463,794.4138],[24.0454,42.5638,845.1774],[24.0457,42.5816,659.9242],[24.0287,42.6315,675.5],[24.0269,42.6421,674.3271],[24.0223,42.6364,698.4143],[24.0148,42.6328,705.5473],[24.0004,42.6287,510.3064],[23.9816,42.6257,558.1213],[23.9708,42.6187,655.3488],[23.9666,42.6116,753.8483],[23.9689,42.6035,652.4056],[23.9662,42.5672,661.7468],[23.9768,42.5714,547.7402],[23.9805,42.5711,523.1703],[24.0148,42.5486,629.8276],[24.0324,42.5395,704.1161],[24.0464,42.5395,777.9473],[24.0548,42.5463,794.4138]]],
[[[24.1463,42.7846,1374.6862],[24.1463,42.7863,1329.1035],[24.138,42.7866,1516.1757],[24.1254,42.7845,1593.0901],[24.1182,42.7812,1351.903],[24.1103,42.7764,1420.0831],[24.0968,42.7613,1600.313],[24.087,42.7555,1432.9639],[24.0868,42.7338,1239.9364],[24.0886,42.7242,1032.7894],[24.0956,42.7061,717.423],[24.0961,42.6953,674.6998],[24.0904,42.6895,671.3732],[24.0758,42.682,635.0282],[24.0791,42.6754,614.9235],[24.0847,42.653,525.6527],[24.0843,42.6213,670.0853],[24.082,42.6067,870.8537],[24.0904,42.5683,923.2849],[24.1125,42.5611,1007.933],[24.1215,42.5611,1073.3669],[24.1282,42.5652,1204.0924],[24.1317,42.5758,1334.9929],[24.1317,42.5911,1080.4872],[24.1336,42.5963,1203.7693],[24.1422,42.6047,1328.2511],[24.1298,42.6185,1030.8434],[24.128,42.6251,1024.1088],[24.1297,42.6448,828.7037],[24.1232,42.6551,634.809],[24.1241,42.6631,748.9756],[24.1641,42.7346,939.291],[24.1917,42.7729,1383.3544],[24.1559,42.7783,1452.8735],[24.1502,42.7809,1520.0035],[24.1463,42.7846,1374.6862]]]]}}