{"type":"Feature","properties":{"GID_2":"BGR.8.5_1","GID_0":"BGR","country":"Bulgaria","GID_1":"BGR.8_1","state":"Kyustendil","NL_NAME_1":"Кюстендил","county":"Kyustendil","VARNAME_2":"NA","NL_NAME_2":"NA","TYPE_2":"City","ENGTYPE_2":"City","CC_2":"NA","HASC_2":"BG.KY.KU","name":"Kyustendil.county"},
"geometry":{"type": "MultiPolygon","coordinates": [[[[22.8727,42.3649,1073.6138],[22.8656,42.3633,1088.9155],[22.8568,42.3582,1204.8088],[22.8445,42.356,1349.7045],[22.8377,42.3609,1360.6251],[22.8342,42.3655,1289.5466],[22.8337,42.3773,1058.5106],[22.8311,42.3818,966.1066],[22.806,42.3822,991.1663],[22.8007,42.3861,878.6787],[22.7972,42.3987,1021.8277],[22.79,42.4062,1136.8672],[22.7832,42.4078,1153.2245],[22.7792,42.4109,1058.1968],[22.7631,42.4125,1386.3717],[22.7558,42.4149,1240.5852],[22.7416,42.4225,1368.2656],[22.7367,42.4275,1241.8787],[22.734,42.4336,1169.105],[22.7227,42.4495,1041.7811],[22.7047,42.4707,1002.2063],[22.6955,42.4689,1225.6638],[22.6915,42.4638,1208.1532],[22.6862,42.4521,1069.1624],[22.6763,42.4437,914.6606],[22.6652,42.4393,808.3291],[22.6492,42.4379,1135.796],[22.6328,42.4335,958.8788],[22.6219,42.4415,998.5664],[22.6167,42.4436,1014.8853],[22.6104,42.4439,961.7383],[22.596,42.4397,745.1277],[22.5882,42.442,729.4709],[22.5845,42.4473,807.5661],[22.5825,42.4544,827.6229],[22.5845,42.4692,877.8202],[22.5839,42.4718,862.4178],[22.5802,42.4751,870.7464],[22.5758,42.4752,935.7579],[22.5627,42.4706,937.2631],[22.532,42.4767,1007.422],[22.5316,42.4725,1005.9653],[22.5383,42.4663,931.3367],[22.5199,42.4473,865.6478],[22.5176,42.4278,778.2907],[22.5143,42.4223,881.522],[22.5171,42.4158,706.5114],[22.5154,42.4114,870.0408],[22.5055,42.4038,1017.4542],[22.503,42.3903,1188.8822],[22.4927,42.3885,1278.1875],[22.4779,42.3909,1228.4119],[22.4652,42.388,1058.5656],[22.4601,42.3886,1056.7756],[22.4642,42.3814,1243.183],[22.4628,42.3766,1244.6603],[22.4578,42.3722,1383.509],[22.4521,42.37,1179.568],[22.4507,42.3643,1145.7565],[22.443,42.3559,1105.0649],[22.445,42.3453,1149.743],[22.4443,42.3416,1070.2393],[22.4464,42.3385,1145.4329],[22.4385,42.3268,1058.6299],[22.4365,42.325,1055.6035],[22.4247,42.3219,957.5482],[22.4165,42.3161,1012.1372],[22.4078,42.3269,1103.8748],[22.4036,42.3231,1193.165],[22.3999,42.3222,1213.0605],[22.3934,42.3252,1228.0934],[22.3886,42.3253,1269.9485],[22.3846,42.3192,1197.2402],[22.3746,42.3181,1189.3452],[22.3719,42.3158,1195.0315],[22.3622,42.3161,1285.021],[22.3554,42.3141,1312.2583],[22.3513,42.3164,1363.1975],[22.3516,42.3134,1262.2953],[22.3457,42.3041,1068.3016],[22.3536,42.3004,1059.6195],[22.3648,42.3004,1088.4277],[22.3725,42.2913,1015.9155],[22.3735,42.2866,994.1841],[22.3861,42.2816,1045.1331],[22.3838,42.2755,1021.7208],[22.389,42.2687,1041.0464],[22.397,42.2618,1060.7383],[22.3985,42.2582,1005.2993],[22.4038,42.2548,1081.3135],[22.4074,42.255,1048.7256],[22.408,42.247,1025.1388],[22.4176,42.2485,957.4899],[22.4181,42.2461,989.332],[22.4217,42.243,924.7945],[22.4217,42.2382,920.6809],[22.4322,42.2322,974.2678],[22.4306,42.2267,959.851],[22.4377,42.2187,939.5385],[22.4395,42.2125,898.2875],[22.4418,42.2116,905.9871],[22.4417,42.2083,936.5004],[22.4494,42.2004,992.4119],[22.4518,42.1937,1024.2476],[22.4512,42.1916,1049.4052],[22.4662,42.1909,1128.7241],[22.4817,42.1844,1447.1763],[22.4841,42.1799,1444.4915],[22.4819,42.1767,1424.5984],[22.4823,42.1738,1375.6884],[22.4857,42.168,1488.6964],[22.4871,42.159,1611.5518],[22.498,42.1478,2019.6289],[22.4928,42.1456,1903.3638],[22.4938,42.1431,1831.2975],[22.5055,42.1366,1675.0834],[22.5097,42.1298,1599.8003],[22.5291,42.1236,1486.1434],[22.5345,42.1179,1339.2358],[22.5427,42.1131,1295.7424],[22.5462,42.1072,1305.2971],[22.5637,42.0975,1353.8721],[22.5707,42.0981,1302.2107],[22.5806,42.0861,1154.9468],[22.5864,42.0857,1312.0636],[22.5923,42.0823,1136.0494],[22.5977,42.0843,1286.7009],[22.6008,42.0835,1305.8433],[22.6176,42.1037,1493.5342],[22.6294,42.1208,1111.8655],[22.6345,42.1221,1223.5524],[22.6435,42.1153,1129.5626],[22.646,42.1145,1121.7938],[22.6487,42.1159,974.1962],[22.6601,42.1299,1325.625],[22.6642,42.1465,1306.1256],[22.6765,42.1531,1115.6611],[22.6843,42.1599,1041.886],[22.7167,42.2108,1048.4128],[22.7226,42.214,1027.9087],[22.7305,42.2156,807.9266],[22.7732,42.2383,583.4197],[22.8276,42.2622,447.2216],[22.8448,42.275,536.9763],[22.8612,42.3001,591.19],[22.8676,42.3061,603.4524],[22.8798,42.3125,653.3563],[22.8978,42.3152,721.1056],[22.8937,42.3229,729.5508],[22.8769,42.3432,940.5916],[22.8727,42.3649,1073.6138]]]]}}