{"type": "Feature","bbox": [25.7225,42.1525,26.1986,42.384],"geometry": {"type": "MultiPolygon","coordinates": [[[[26.1986,42.2279,222.499],[26.1899,42.2311,216.4638],[26.1853,42.2368,186.1496],[26.1769,42.2404,185.2792],[26.1255,42.2499,140.8755],[26.1056,42.2595,146.8849],[26.0935,42.262,139.2229],[26.0819,42.2595,145.6789],[26.0639,42.2483,139.7825],[26.0575,42.249,153.659],[26.0549,42.2542,191.2604],[26.0555,42.2706,160.2858],[26.0506,42.272,144.5074],[26.0267,42.2721,182.8798],[26.0195,42.2752,163.687],[26.0116,42.2825,151.986],[26.0052,42.2951,163.9649],[25.9958,42.3049,142.4334],[25.9839,42.312,137.5659],[25.9594,42.3189,124.4701],[25.952,42.3306,111.3852],[25.9498,42.3381,122.9832],[25.9484,42.3561,126.664],[25.9447,42.3623,126.8058],[25.9357,42.3718,126.3767],[25.9326,42.3783,128.598],[25.9129,42.3773,126.9385],[25.9072,42.3738,123.6537],[25.8992,42.3611,123.7699],[25.8922,42.3566,121.8914],[25.888,42.356,119.5664],[25.8761,42.3601,119.1454],[25.8557,42.3791,124.5133],[25.8501,42.3822,127.6418],[25.8392,42.384,130.7273],[25.8273,42.3834,141.2769],[25.8171,42.3775,133.9943],[25.8018,42.3616,135.4572],[25.7795,42.3561,136.8102],[25.7672,42.3548,136.0131],[25.7579,42.3475,137.1348],[25.7424,42.3442,140.4007],[25.7292,42.3343,142.979],[25.7225,42.3217,150.4595],[25.7231,42.3127,151.6323],[25.7274,42.3065,150.3727],[25.7331,42.3035,150.0901],[25.7401,42.3026,150.5229],[25.7729,42.3053,142.8511],[25.7803,42.3031,141.2861],[25.7917,42.295,140.3965],[25.7943,42.2871,142.1105],[25.7925,42.2788,148.4818],[25.7879,42.274,147.7146],[25.7757,42.2708,144.5997],[25.7719,42.2681,146.6964],[25.7737,42.2589,147.9432],[25.7776,42.2531,156.1687],[25.7883,42.244,151.1283],[25.8144,42.2352,153.4895],[25.8334,42.2232,159.0272],[25.8622,42.2232,149.6464],[25.8724,42.2141,142.4314],[25.8804,42.2118,150.7808],[25.8875,42.2075,148.281],[25.8883,42.2019,158.2325],[25.8949,42.1858,111.198],[25.8997,42.1817,93.3679],[25.9055,42.18,94.0615],[25.9194,42.181,93.2213],[25.9454,42.1794,104.7116],[25.9795,42.1726,155.3369],[26.0075,42.1567,163.3369],[26.0158,42.1558,157.8551],[26.0299,42.1584,106.4312],[26.0463,42.1545,142.2882],[26.0636,42.1525,173.666],[26.069,42.1536,195.2653],[26.0973,42.168,208.728],[26.1002,42.1681,215.2459],[26.1103,42.1626,252.9565],[26.1243,42.1635,290.091],[26.1496,42.156,296.4456],[26.1636,42.165,294.1907],[26.1745,42.1793,267.1761],[26.1787,42.1872,259.0689],[26.1794,42.1943,244.6123],[26.1838,42.2054,219.0484],[26.1986,42.2279,222.499]]]]}
,"properties": {"GID_2": "BGR.22.10_1","GID_0": "BGR","country": "Bulgaria","GID_1": "BGR.22_1","state": "StaraZagora","NL_NAME_1": "СтараЗагора","county": "Radnevo","VARNAME_2": "NA","NL_NAME_2": "Раднево","TYPE_2": "Obshtina","ENGTYPE_2": "Municipality","CC_2": "NA","HASC_2": "BG.SZ.RA","name": "Radnevo.county","area_km2": 497.816,"hist_schema_id": "Elevation0-9000","hist_area_km2": {"25": 0.2355,"50": 4.8677,"75": 12.4836,"100": 55.7794,"125": 216.3665,"150": 126.5707,"175": 25.6736,"200": 20.3686,"225": 13.7275,"250": 11.8596,"275": 5.6245,"300": 2.8914,"325": 1.2415,"350": 0.1257}}}