{"type": "Feature","bbox": [22.3827,43.9121,22.6253,44.0557],"geometry": {"type": "MultiPolygon","coordinates": [[[[22.6046,44.0557,230.5814],[22.5765,44.0543,279.5267],[22.5736,44.046,235.0685],[22.5513,44.0487,269.5784],[22.5452,44.0445,284.4122],[22.5228,44.0415,212.4111],[22.5199,44.0383,237.9347],[22.5298,44.034,253.4587],[22.5312,44.0322,270.8636],[22.5269,44.0283,308.6987],[22.5327,44.0239,307.8564],[22.5296,44.0211,304.7437],[22.528,44.0157,276.2925],[22.5213,44.0149,237.625],[22.5197,44.0105,164.9651],[22.4952,44.0071,234.3145],[22.4777,44.0109,261.5706],[22.462,44.0053,282.0629],[22.4415,44.007,313.4277],[22.4388,44.0066,315.0142],[22.4375,44.0006,328.2258],[22.4186,43.9957,346.9547],[22.4044,43.9943,350.5574],[22.4071,43.9877,351.3276],[22.405,43.9857,349.4179],[22.4107,43.9809,349.1309],[22.4025,43.9751,343.6122],[22.4038,43.9729,343.969],[22.4026,43.9695,339.246],[22.4056,43.9678,344.9102],[22.4044,43.9625,341.7892],[22.406,43.9591,355.6112],[22.4031,43.9493,359.7601],[22.4026,43.9418,365.1492],[22.3973,43.9354,323.0257],[22.399,43.9263,296.2696],[22.3967,43.9237,309.8556],[22.3827,43.9164,343.4031],[22.464,43.9243,269.8901],[22.4745,43.9205,310.3492],[22.4815,43.9143,303.9449],[22.4886,43.9121,302.1923],[22.5086,43.916,278.8382],[22.5206,43.9136,195.5],[22.5294,43.9175,183.6651],[22.5375,43.9273,200.2395],[22.5617,43.9374,167.7832],[22.5706,43.9484,150.6574],[22.5754,43.9698,245.2721],[22.5815,43.9791,253.5126],[22.5758,43.9835,248.7707],[22.5743,43.9872,266.6438],[22.5732,43.993899999999996,245.2645],[22.5749,43.9978,193.596],[22.5818,44.0036,136.055],[22.6059,44.0095,230.8126],[22.6201,44.0193,217.0215],[22.6243,44.0263,159.3207],[22.6253,44.0314,143.925],[22.6147,44.0393,233.9699],[22.6046,44.0557,230.5814]]]]}
,"properties": {"GID_2": "BGR.26.2_1","GID_0": "BGR","country": "Bulgaria","GID_1": "BGR.26_1","state": "Vidin","NL_NAME_1": "Видин","county": "Boinitsa","VARNAME_2": "Boynitsa","NL_NAME_2": "NA","TYPE_2": "Obshtina","ENGTYPE_2": "Municipality","CC_2": "NA","HASC_2": "BG.VD.BO","name": "Boinitsa.county","area_km2": 161.2103,"hist_schema_id": "Elevation0-9000","hist_area_km2": {"100": 0.5489,"125": 1.8147,"150": 3.1875,"175": 5.4308,"200": 8.9549,"225": 16.8261,"250": 26.9554,"275": 37.3327,"300": 30.4283,"325": 19.0479,"350": 9.5993,"375": 1.0839}}}