{"type":"Feature","properties":{"GID_2":"BGR.9.1_1","GID_0":"BGR","country":"Bulgaria","GID_1":"BGR.9_1","state":"Lovech","NL_NAME_1":"Ловеч","county":"Apriltsi","VARNAME_2":"NA","NL_NAME_2":"Априлци","TYPE_2":"Obshtina","ENGTYPE_2":"Municipality","CC_2":"NA","HASC_2":"BG.LV.AP","name":"Apriltsi.county"},
"geometry":{"type": "MultiPolygon","coordinates": [[[[24.8834,42.9256,556.9805],[24.8313,42.9293,536.2804],[24.8245,42.9275,446.6774],[24.821,42.9249,375.8334],[24.8179,42.9203,418.0118],[24.8176,42.9142,427.5004],[24.8181,42.9064,431.7995],[24.8221,42.8939,442.9041],[24.8291,42.879,482.8865],[24.8403,42.8673,573.1261],[24.8456,42.8592,815.2804],[24.8436,42.851,869.5497],[24.8345,42.8364,1129.1671],[24.8353,42.8312,1065.1096],[24.8518,42.8133,785.2915],[24.8697,42.8021,798.4005],[24.8752,42.797,857.8915],[24.8809,42.7876,972.23],[24.8823,42.7835,1066.0173],[24.8802,42.7763,1166.8352],[24.8883,42.7551,1304.9496],[24.8886,42.7512,1365.5264],[24.886,42.7434,1510.0852],[24.8866,42.7352,1576.9319],[24.8928,42.7173,2058.4321],[24.9178,42.708,2129.6074],[24.9394,42.7063,1487.6365],[24.959,42.7115,1866.9515],[24.9738,42.7192,1894.959],[24.9879,42.7221,1788.9299],[25.0088,42.7361,1527.4209],[25.0365,42.7353,1699.8812],[25.0398,42.7476,1839.6184],[25.0377,42.7676,1321.1309],[25.0343,42.7771,996.6161],[25.0188,42.7987,881.1588],[24.9968,42.8233,608.9736],[24.9867,42.8307,574.1238],[24.9735,42.8438,569.7625],[24.9501,42.8705,971.4961],[24.937,42.8764,1057.4844],[24.9122,42.8837,778.6],[24.8957,42.8933,571.8456],[24.8887,42.9058,591.3411],[24.8834,42.9256,556.9805]]]]}}