{"type":"Feature","properties":{"GID_2":"BGR.21.1_1","GID_0":"BGR","country":"Bulgaria","GID_1":"BGR.21_1","state":"Sofia","NL_NAME_1":"Sofija","county":"Anton","VARNAME_2":"NA","NL_NAME_2":"NA","TYPE_2":"Obshtina","ENGTYPE_2":"Municipality","CC_2":"NA","HASC_2":"BG.SF.AN","name":"Anton.county"},
"geometry":{"type": "MultiPolygon","coordinates": [[[[24.2202,42.7696,1780.8306],[24.2174,42.7366,972.4015],[24.2132,42.7217,787.9374],[24.2148,42.717,763.9384],[24.2177,42.7143,756.2784],[24.2223,42.712,739.7018],[24.2372,42.7114,727.1581],[24.2624,42.7132,738.95],[24.2725,42.7161,764.3893],[24.2853,42.717,819.0023],[24.2919,42.7136,856.613],[24.2993,42.7017,786.6531],[24.3066,42.6959,910.7834],[24.341,42.6872,914.5927],[24.3528,42.7024,1065.5475],[24.364,42.7228,1210.3373],[24.3782,42.7396,1673.4014],[24.382,42.7471,1926.4272],[24.3619,42.7564,1700.5811],[24.3202,42.7579,1949.2106],[24.2807,42.7736,2027.818],[24.2414,42.7729,2008.8776],[24.2202,42.7696,1780.8306]]]]}}