{"type":"Feature","properties":{"GID_2":"BGR.19.1_1","GID_0":"BGR","country":"Bulgaria","GID_1":"BGR.19_1","state":"Sliven","NL_NAME_1":"Сливен","county":"Kotel","VARNAME_2":"NA","NL_NAME_2":"Котел","TYPE_2":"Obshtina","ENGTYPE_2":"Municipality","CC_2":"NA","HASC_2":"BG.SL.KO","name":"Kotel.county"},
"geometry":{"type": "MultiPolygon","coordinates": [[[[26.58,42.9288,729.2474],[26.5642,42.929,856.625],[26.5539,42.9317,819.009],[26.5425,42.9397,788.8904],[26.5403,42.9446,867.456],[26.5358,42.966,387.9255],[26.5358,42.973,363.7762],[26.5431,42.9801,394.9442],[26.553,42.987,388.8835],[26.5613,42.99,364.0885],[26.5704,42.9977,357.6199],[26.5619,43.0059,344.0689],[26.5501,43.0137,349.5446],[26.5343,43.0161,252.4879],[26.52,43.0206,332.5088],[26.506,43.0213,298.2782],[26.4986,43.0208,296.3092],[26.4857,43.0161,430.6931],[26.4598,43.0107,452.0318],[26.439,43.0098,501.5028],[26.4253,43.0125,533.1366],[26.4163,43.0162,566.7744],[26.4085,43.0217,616.2683],[26.3999,43.0312,597.7495],[26.395,43.0337,594.853],[26.3853,43.0327,605.8572],[26.3685,43.0145,774.1273],[26.3595,43.0128,754.2913],[26.3539,43.0182,786.3893],[26.3546,43.0257,758.1692],[26.3599,43.041,612.5667],[26.3591,43.0507,566.7476],[26.3554,43.0527,543.707],[26.3494,43.0519,542.4971],[26.3284,43.0397,619.9396],[26.316,43.04,596.1523],[26.3021,43.0469,541.6594],[26.296,43.0462,583.0342],[26.2899,43.0372,663.7944],[26.2821,43.0059,890.222],[26.2754,42.9967,843.7024],[26.2635,42.9861,658.7158],[26.2449,42.9744,517.9649],[26.2052,42.9611,582.4451],[26.1994,42.9578,588.2904],[26.1973,42.9529,489.9731],[26.1996,42.954,520.7972],[26.2092,42.9475,464.5895],[26.218,42.9449,493.1513],[26.2184,42.9406,463.4461],[26.2132,42.9306,370.9715],[26.2132,42.9267,372.8411],[26.2183,42.919,392.0343],[26.2163,42.9018,398.2911],[26.2372,42.8855,688.5529],[26.2416,42.8781,487.8087],[26.2412,42.8731,724.7275],[26.2301,42.8629,537.14],[26.2282,42.8571,677.8243],[26.23,42.8539,723.3593],[26.2385,42.8531,687.5961],[26.2531,42.8559,590.0071],[26.2723,42.8507,730.179],[26.2933,42.8521,967.3904],[26.3178,42.8414,744.8226],[26.3736,42.8115,543.8589],[26.3812,42.8088,588.1683],[26.404,42.8076,538.593],[26.4127,42.8085,515.921],[26.4281,42.8139,552.3457],[26.4341,42.8139,563.7864],[26.4745,42.8075,456.6592],[26.4805,42.8031,545.9595],[26.4849,42.7941,485.8474],[26.4909,42.7872,569.001],[26.5128,42.7681,575.6889],[26.5124,42.7605,717.4635],[26.5034,42.7458,956.3907],[26.5059,42.7305,713.2946],[26.5361,42.7269,491.2539],[26.5435,42.7122,410.1383],[26.5513,42.7078,476.7385],[26.5523,42.7003,499.4244],[26.5635,42.693,587.7983],[26.5702,42.6906,673.9261],[26.6018,42.6876,375.2059],[26.6072,42.6902,368.8131],[26.6119,42.6978,414.1683],[26.6232,42.7015,321.3206],[26.638,42.7096,230.4859],[26.6441,42.7092,223.614],[26.6666,42.7023,319.9412],[26.6636,42.7092,271.1222],[26.6644,42.7158,235.8973],[26.6662,42.7192,231.9513],[26.6695,42.72,233.4534],[26.6886,42.7174,258.5027],[26.6988,42.713,262.333],[26.7051,42.7189,286.0299],[26.7091,42.7277,249.1943],[26.7094,42.7354,221.9887],[26.7051,42.7415,209.7119],[26.6743,42.7619,357.643],[26.6692,42.7674,475.774],[26.6619,42.78,455.8917],[26.6516,42.7827,424.1365],[26.6451,42.7908,422.7121],[26.6403,42.7937,364.7656],[26.6054,42.7944,425.4989],[26.598,42.7962,436.9592],[26.5914,42.8006,406.3054],[26.5841,42.8107,495.6288],[26.5811,42.8213,484.996],[26.5819,42.8275,430.3273],[26.5867,42.8357,403.113],[26.5966,42.8464,436.2989],[26.5989,42.8547,488.7721],[26.5963,42.8661,447.215],[26.5761,42.8948,727.0875],[26.5768,42.9076,824.5923],[26.5863,42.9222,1007.17],[26.5851,42.9279,782.16],[26.58,42.9288,729.2474]]]]}}