{"type": "Feature","bbox": [22.5617,43.3801,22.8052,43.6081],"geometry": {"type": "MultiPolygon","coordinates": [[[[22.8052,43.4953,523.9636],[22.801,43.5119,489.1535],[22.8013,43.5178,398.8536],[22.8052,43.527,489.2618],[22.8042,43.5347,438.1008],[22.8007,43.5388,356.752],[22.8006,43.5425,376.5265],[22.8035,43.5483,324.0697],[22.8033,43.5542,366.279],[22.7884,43.5741,323.9125],[22.7846,43.5839,234.8079],[22.7714,43.5889,226.0053],[22.7607,43.5911,268.5185],[22.758,43.5873,250.177],[22.7431,43.5766,309.1999],[22.715699999999998,43.5672,338.5614],[22.7032,43.5664,382.6327],[22.6989,43.5698,354.2789],[22.6976,43.5751,365.1458],[22.7004,43.5953,416.4932],[22.6995,43.6052,402.9025],[22.6962,43.6079,461.7614],[22.683,43.6081,426.3853],[22.678,43.6061,407.5363],[22.6704,43.5971,314.0447],[22.6617,43.5926,410.9981],[22.6561,43.5728,578.0181],[22.6448,43.5708,689.9276],[22.6344,43.5654,902.7467],[22.6249,43.5671,800.6614],[22.6128,43.5734,625.9902],[22.601,43.5731,588.0913],[22.5908,43.5763,636.3721],[22.5833,43.5756,533.1437],[22.5747,43.5694,510.7617],[22.5719,43.5627,585.564],[22.5722,43.5585,581.4153],[22.587,43.541,615.5209],[22.588,43.5352,809.7476],[22.5832,43.5252,749.3239],[22.5692,43.5103,828.433],[22.5652,43.5004,953.2093],[22.565,43.4899,956.507],[22.5673,43.4845,1148.5439],[22.5693,43.4651,1634.7987],[22.5617,43.4454,947.6444],[22.5651,43.4394,843.5206],[22.5659,43.4322,894.042],[22.5722,43.4273,1032.4163],[22.5981,43.4206,1095.4817],[22.6032,43.4215,1167.7439],[22.6114,43.427,1443.5894],[22.6301,43.4201,1373.969],[22.6319,43.4129,1191.6783],[22.6376,43.4047,1554.2567],[22.6379,43.3963,1782.809],[22.6465,43.3885,1517.7764],[22.6515,43.3871,1435.6151],[22.6635,43.3885,1696.7343],[22.669,43.3871,1737.5796],[22.6885,43.3899,2006.2689],[22.7008,43.3831,1714.4822],[22.7096,43.3821,1543.5687],[22.7138,43.3801,1373.1885],[22.7287,43.3911,1872.1018],[22.7395,43.4019,1281.064],[22.7548,43.4078,1175.3577],[22.7671,43.4156,1406.3811],[22.7861,43.4331,1445.437],[22.7906,43.441,1181.4211],[22.7912,43.4477,933.7159],[22.7832,43.4722,477.3664],[22.7837,43.4791,482.4235],[22.7931,43.4909,507.9113],[22.8052,43.4953,523.9636]]]]}
,"properties": {"GID_2": "BGR.26.4_1","GID_0": "BGR","country": "Bulgaria","GID_1": "BGR.26_1","state": "Vidin","NL_NAME_1": "Видин","county": "Chuprene","VARNAME_2": "NA","NL_NAME_2": "NA","TYPE_2": "Obshtina","ENGTYPE_2": "Municipality","CC_2": "NA","HASC_2": "BG.VD.CH","name": "Chuprene.county","area_km2": 349.5148,"hist_schema_id": "Elevation0-9000","hist_area_km2": {"225": 1.1518,"250": 2.9338,"275": 3.0727,"300": 6.4679,"325": 8.082,"350": 10.219,"375": 10.819,"400": 10.7739,"425": 10.7445,"450": 11.2221,"475": 11.0228,"500": 11.0848,"525": 10.7165,"550": 10.5939,"575": 10.4097,"600": 10.0868,"625": 10.21,"650": 10.364,"675": 9.2262,"700": 8.9347,"725": 8.1045,"750": 7.2282,"775": 6.8133,"800": 6.3677,"825": 6.0759,"850": 5.3992,"875": 5.4763,"900": 4.662,"925": 4.5543,"950": 4.201,"975": 4.2474,"1000": 4.3861,"1025": 4.2171,"1050": 3.7864,"1075": 4.4329,"1100": 4.4176,"1125": 3.9404,"1150": 4.264,"1175": 4.0792,"1200": 4.5412,"1225": 4.187,"1250": 4.0948,"1275": 3.8947,"1300": 3.5715,"1325": 3.3714,"1350": 3.2178,"1375": 3.0791,"1400": 2.8482,"1425": 2.7714,"1450": 2.602,"1475": 2.4327,"1500": 2.3712,"1525": 2.3712,"1550": 2.1096,"1575": 1.9403,"1600": 1.7709,"1625": 1.9865,"1650": 1.8479,"1675": 1.5554,"1700": 1.7557,"1725": 1.5863,"1750": 1.4324,"1775": 1.4632,"1800": 1.2784,"1825": 1.4325,"1850": 1.3709,"1875": 1.3092,"1900": 1.2169,"1925": 1.1091,"1950": 0.9704,"1975": 0.8935,"2000": 0.647,"2025": 0.3852,"2050": 0.3697,"2075": 0.3389,"2100": 0.2773,"2125": 0.1541,"2150": 0.1695}}}