{"type": "Feature","bbox": [22.9074,43.5665,23.1614,43.7655],"geometry": {"type": "MultiPolygon","coordinates": [[[[23.0035,43.751,186.0876],[23.017,43.7468,169.3457],[23.0301,43.7375,150.418],[23.0439,43.7207,113.3033],[23.0445,43.713,94.3707],[23.0406,43.7085,96.9504],[23.0301,43.7031,101.2028],[23.0175,43.7001,106.8649],[23.0009,43.6993,110.5542],[22.9913,43.6954,115.2898],[22.9841,43.6894,116.2723],[22.9716,43.6832,117.6371],[22.924,43.6705,136.4888],[22.9231,43.6681,137.4405],[22.9269,43.6588,228.0427],[22.9215,43.648,203.8571],[22.9253,43.6387,232.1161],[22.9265,43.627,213.4815],[22.9183,43.617,241.052],[22.9172,43.5957,229.7185],[22.9129,43.5843,260.3156],[22.9074,43.5759,274.2761],[22.9089,43.5749,264.145],[22.927,43.5674,262.819],[22.9381,43.5665,254.6245],[22.9433,43.5679,239.9222],[22.9678,43.5823,248.0928],[22.9881,43.585,235.9887],[22.9995,43.5899,233.6405],[23.0178,43.5913,224.882],[23.0308,43.5946,220.4273],[23.0404,43.6016,202.0026],[23.0507,43.6122,214.9063],[23.0535,43.6163,216.571],[23.0549,43.6229,210.843],[23.0617,43.6336,178.7095],[23.0712,43.6416,157.6316],[23.0812,43.6474,138.6852],[23.0877,43.6574,156.1367],[23.1001,43.6656,190.6329],[23.1065,43.6793,126.009],[23.1121,43.6854,180.1214],[23.1217,43.6909,153.1589],[23.1289,43.6915,143.2909],[23.1477,43.6879,171.9337],[23.156,43.6915,168.0026],[23.16,43.6994,169.8744],[23.1614,43.7137,151.2949],[23.1593,43.7256,60.6652],[23.148,43.7353,76.8405],[23.1422,43.7356,78.2602],[23.1294,43.7453,99.9711],[23.105,43.7471,107.2099],[23.0951,43.7512,115.4475],[23.0787,43.761,149.3383],[23.0671,43.7649,106.9691],[23.0592,43.7655,69.9665],[23.0418,43.7653,38.1107],[23.032,43.7629,77.8682],[23.0035,43.751,186.0876]]]]}
,"properties": {"GID_2": "BGR.10.3_1","GID_0": "BGR","country": "Bulgaria","GID_1": "BGR.10_1","state": "Montana","NL_NAME_1": "Монтана","county": "Brusartsi","VARNAME_2": "NA","NL_NAME_2": "Брусарци","TYPE_2": "Obshtina","ENGTYPE_2": "Municipality","CC_2": "NA","HASC_2": "BG.MT.BR","name": "Brusartsi.county","area_km2": 214.0859,"hist_schema_id": "Elevation0-9000","hist_area_km2": {"25": 0.0153,"50": 0.8579,"75": 25.8084,"100": 43.81,"125": 27.2455,"150": 23.8427,"175": 23.9097,"200": 23.5259,"225": 32.1257,"250": 11.885,"275": 1.0598}}}