{"type":"Feature","properties":{"GID_2":"BGR.13.11_1","GID_0":"BGR","country":"Bulgaria","GID_1":"BGR.13_1","state":"Pleven","NL_NAME_1":"Плевенска","county":"Pordim","VARNAME_2":"NA","NL_NAME_2":"NA","TYPE_2":"Obshtina","ENGTYPE_2":"Municipality","CC_2":"NA","HASC_2":"BG.PV.PO","name":"Pordim.county"},
"geometry":{"type": "MultiPolygon","coordinates": [[[[25.0346,43.3971,99.4717],[24.9939,43.3997,118.1352],[24.9658,43.3934,127.1753],[24.952,43.3981,131.8016],[24.9492,43.4031,132.3246],[24.948,43.4121,120.0314],[24.9481,43.4363,68.7016],[24.9544,43.448,72.3973],[24.965699999999998,43.458,42.0474],[24.9674,43.4614,41.524],[24.9658,43.4659,42.7872],[24.9636,43.4677,41.6437],[24.9472,43.4738,42.2616],[24.9409,43.4702,48.9865],[24.9287,43.4681,69.7068],[24.9031,43.4595,103.3295],[24.8953,43.4542,128.9334],[24.8845,43.4429,116.2106],[24.8722,43.4368,139.0856],[24.8607,43.4362,152.1681],[24.8472,43.4328,158.1061],[24.8277,43.4366,184.1485],[24.8164,43.4361,196.5115],[24.7888,43.4287,218.613],[24.7846,43.4233,217.7936],[24.7832,43.4164,220.5763],[24.7799,43.4098,246.7489],[24.7689,43.3973,266.7785],[24.7662,43.3885,295.1614],[24.7721,43.3773,268.1844],[24.7805,43.3714,259.3381],[24.7938,43.3661,264.0688],[24.8106,43.3647,215.6307],[24.8354,43.373,178.9966],[24.8562,43.3669,177.6237],[24.8575,43.3657,175.9442],[24.8572,43.3616,177.4178],[24.8457,43.3507,193.4609],[24.839,43.3361,191.6692],[24.838,43.3279,197.5163],[24.869,43.3128,187.5773],[24.8973,43.308,175.0716],[24.9033,43.3052,159.755],[24.9117,43.298,174.6209],[24.9176,43.2964,176.5089],[24.9256,43.2983,163.9408],[24.9388,43.3114,150.9545],[24.9554,43.3208,129.1314],[24.9751,43.3276,129.7678],[24.986,43.336,121.078],[24.9929,43.3367,118.5293],[25.0143,43.3496,104.8645],[25.0171,43.3522,100.0602],[25.0199,43.3622,111.3329],[25.0262,43.3711,99.5489],[25.0281,43.3924,91.9508],[25.0293,43.395,89.7848],[25.0346,43.3971,99.4717]]]]}}