{"type":"Feature","properties":{"GID_2":"BGR.2.7_1","GID_0":"BGR","country":"Bulgaria","GID_1":"BGR.2_1","state":"Burgas","NL_NAME_1":"Бургас","county":"Pomorie","VARNAME_2":"Anchialos|Anchialus|Tuthom|Anhia","NL_NAME_2":"Поморие","TYPE_2":"Obshtina","ENGTYPE_2":"Municipality","CC_2":"NA","HASC_2":"BG.BR.PO","name":"Pomorie.county"},
"geometry":{"type": "MultiPolygon","coordinates": [[[[27.5661,42.5526,11.3994],[27.5671,42.5526,1.8887],[27.5685,42.5546,11.5893],[27.5661,42.5526,11.3994]]],
[[[27.6649,42.6387,0.0],[27.665,42.6387,0.0],[27.6649,42.6389,9.2016],[27.6649,42.6387,0.0]]],
[[[27.4327,42.7284,251.9106],[27.4322,42.725,247.844],[27.4345,42.7204,248.7724],[27.4379,42.7184,236.0649],[27.4665,42.7139,200.369],[27.477,42.7096,188.9826],[27.4857,42.7035,228.1118],[27.4949,42.6895,236.2098],[27.5101,42.6773,250.5639],[27.5111,42.6711,268.7108],[27.5065,42.6591,257.0135],[27.4968,42.643,170.817],[27.4972,42.6351,130.3727],[27.5011,42.6252,97.2595],[27.5075,42.6159,48.6527],[27.5117,42.612,19.0637],[27.5299,42.6019,10.1859],[27.5312,42.5959,21.4428],[27.5382,42.5847,44.7117],[27.5427,42.5735,57.0395],[27.5534,42.5661,39.3893],[27.5617,42.5629,21.7028],[27.569,42.5553,0.0],[27.5768,42.5624,2.9557],[27.5888,42.5651,2.0659],[27.5957,42.5629,12.8522],[27.5993,42.5576,0.5606],[27.606,42.5635,0.0],[27.6132,42.5649,2.4654],[27.6296,42.5621,2.0348],[27.6421,42.554,5.3448],[27.6399,42.5507,0.0],[27.6513,42.5549,0.0],[27.6354,42.5726,0.9042],[27.6324,42.5849,0.358],[27.631,42.6076,0.0],[27.6338,42.6218,0.8033],[27.6374,42.6299,2.774],[27.6449,42.6382,2.2181],[27.651,42.639,8.7599],[27.6551,42.636,0.8231],[27.6596,42.6387,0.0],[27.6648,42.639,9.2016],[27.6556,42.6527,32.2349],[27.6458,42.68,80.1336],[27.6426,42.6819,65.2298],[27.6351,42.6954,49.2083],[27.6342,42.7052,37.483],[27.63,42.7165,21.3537],[27.6169,42.7317,50.4576],[27.6165,42.7368,38.3227],[27.5951,42.7582,46.5109],[27.5836,42.7766,58.9591],[27.5824,42.7795,59.8836],[27.5833,42.7912,121.3878],[27.5751,42.8047,262.3264],[27.5754,42.8065,260.3534],[27.5782,42.8077,208.5714],[27.5967,42.8094,197.2482],[27.6175,42.8281,404.2387],[27.6289,42.8356,283.9108],[27.6336,42.8415,292.8333],[27.6341,42.8505,213.8484],[27.6388,42.857,244.2222],[27.6386,42.861,163.4618],[27.6284,42.8736,261.2715],[27.6284,42.8758,309.0114],[27.6327,42.8781,243.8376],[27.6438,42.8784,150.0973],[27.646,42.8806,177.6497],[27.6434,42.8888,104.527],[27.6397,42.8927,83.5483],[27.6389,42.8975,90.2989],[27.6108,42.9009,117.2486],[27.5794,42.9005,155.613],[27.5598,42.8975,164.0421],[27.5349,42.8848,312.2181],[27.528199999999998,42.8835,408.0857],[27.5198,42.8842,346.0785],[27.5122,42.8937,286.0971],[27.5061,42.8954,319.1579],[27.4678,42.8913,268.6414],[27.4679,42.8793,353.4653],[27.4739,42.8713,291.422],[27.4681,42.8599,322.9352],[27.4664,42.8517,410.6872],[27.4731,42.8387,505.4193],[27.4722,42.8314,474.6606],[27.4805,42.8116,268.5655],[27.4775,42.8031,144.4476],[27.4624,42.7934,74.0481],[27.4351,42.7872,76.2577],[27.4233,42.7823,83.2801],[27.4229,42.772,154.9396],[27.434,42.7502,254.2487],[27.4327,42.7284,251.9106]]]]}}