{"type": "Feature","bbox": [23.8633,42.7495,24.1864,42.9666],"geometry": {"type": "MultiPolygon","coordinates": [[[[24.0991,42.9666,442.9458],[24.0827,42.9509,469.9195],[24.0696,42.9458,363.8761],[24.0547,42.9332,460.8191],[24.0357,42.9254,494.946],[24.016,42.911,576.2189],[23.9869,42.8971,816.1754],[23.9468,42.886,488.7017],[23.9233,42.8758,681.1256],[23.8819,42.8723,954.0453],[23.8712,42.8596,1174.2971],[23.8669,42.8503,1266.1082],[23.866,42.8333,1078.8096],[23.8633,42.8265,1249.3431],[23.8719,42.8269,1147.7251],[23.8857,42.8218,1211.7646],[23.9137,42.7932,1215.7422],[23.9277,42.7903,1104.1375],[23.9456,42.7785,1071.2148],[23.9572,42.7739,1034.5],[23.9931,42.7632,1375.7327],[24.0223,42.7514,1388.8431],[24.0592,42.7495,1149.0601],[24.0673,42.7501,1208.0762],[24.087,42.7555,1432.9639],[24.0968,42.7613,1600.313],[24.1103,42.7764,1420.0831],[24.1182,42.7812,1351.903],[24.1314,42.7856,1571.5338],[24.1463,42.7863,1329.1035],[24.1494,42.7919,1182.772],[24.157,42.7973,1076.4159],[24.1742,42.801,936.4664],[24.1776,42.8039,852.2326],[24.1788,42.8104,1002.0518],[24.1757,42.8206,836.9535],[24.1853,42.8292,605.4195],[24.1864,42.8345,738.4779],[24.1852,42.8399,719.9198],[24.17,42.8466,785.7896],[24.1654,42.8519,832.5974],[24.1635,42.8613,677.5031],[24.1639,42.8697,627.3632],[24.1731,42.8791,779.7227],[24.1743,42.8896,821.4728],[24.1701,42.894,711.1185],[24.1557,42.8978,713.952],[24.1481,42.9021,767.5003],[24.1428,42.9082,731.8201],[24.1401,42.9195,788.4506],[24.1417,42.9254,719.1455],[24.1442,42.9283,686.066],[24.1655,42.9355,598.5366],[24.167,42.9386,603.0699],[24.1619,42.9425,599.3169],[24.1377,42.9448,713.1295],[24.1217,42.9483,505.8847],[24.105,42.9595,461.8747],[24.0991,42.9666,442.9458]]]]}
,"properties": {"GID_2": "BGR.21.9_1","GID_0": "BGR","country": "Bulgaria","GID_1": "BGR.21_1","state": "Sofia","NL_NAME_1": "Sofija","county": "Etropole","VARNAME_2": "NA","NL_NAME_2": "Етрополе","TYPE_2": "Obshtina","ENGTYPE_2": "Municipality","CC_2": "NA","HASC_2": "BG.SF.ET","name": "Etropole.county","area_km2": 371.517,"hist_schema_id": "Elevation0-9000","hist_area_km2": {"350": 0.0776,"375": 1.4746,"400": 2.127,"425": 4.0061,"450": 5.5436,"475": 7.128,"500": 10.4687,"525": 11.6507,"550": 12.087,"575": 13.2689,"600": 13.0208,"625": 13.1763,"650": 14.8712,"675": 13.8465,"700": 14.5318,"725": 15.2321,"750": 14.9226,"775": 13.9124,"800": 13.2758,"825": 11.5976,"850": 12.2667,"875": 11.3495,"900": 11.5215,"925": 10.6663,"950": 10.7762,"975": 9.3925,"1000": 9.1289,"1025": 9.1291,"1050": 7.901,"1075": 7.9013,"1100": 7.1393,"1125": 6.984,"1150": 6.4243,"1175": 5.8491,"1200": 5.9735,"1225": 4.3559,"1250": 4.7917,"1275": 3.6095,"1300": 3.0807,"1325": 2.9098,"1350": 2.303,"1375": 1.7741,"1400": 1.5873,"1425": 1.2294,"1450": 1.3073,"1475": 1.1206,"1500": 0.856,"1525": 0.7627,"1550": 0.5603,"1575": 0.6693,"1600": 0.5136,"1625": 0.4047,"1650": 0.2802,"1675": 0.2179,"1700": 0.1557,"1725": 0.1557,"1750": 0.1712,"1775": 0.0311,"1800": 0.0467}}}