{"type": "Feature","bbox": [26.3722,41.937,26.783,42.3176],"geometry": {"type": "MultiPolygon","coordinates": [[[[26.5789,41.9415,242.2915],[26.5928,41.9513,299.4205],[26.6195,41.9639,408.177],[26.6198,41.9703,436.2736],[26.6234,41.9769,444.9064],[26.6283,41.9771,424.2111],[26.6445,41.9697,400.1421],[26.6644,41.9656,473.6685],[26.6887,41.9647,456.6642],[26.7014,41.9608,430.9229],[26.7135,41.9611,444.9879],[26.7233,41.9566,459.5944],[26.7321,41.956,440.5527],[26.7389,41.9577,459.2357],[26.7511,41.9545,434.1967],[26.7601,41.9641,467.191],[26.7773,41.9759,443.6348],[26.7783,41.993,444.9313],[26.783,42.0037,463.2151],[26.7814,42.0087,445.3943],[26.7718,42.0104,474.3962],[26.7562,42.0082,389.2157],[26.7369,42.0143,364.9656],[26.7339,42.0185,352.726],[26.7332,42.0279,354.2283],[26.7382,42.0539,251.2568],[26.7292,42.0655,207.7015],[26.729,42.0738,205.8525],[26.7313,42.0816,254.6136],[26.7293,42.0852,238.8717],[26.7299,42.0881,245.1816],[26.7352,42.0997,257.4335],[26.7344,42.1135,281.7833],[26.7306,42.1269,220.3579],[26.7249,42.1312,202.4692],[26.7139,42.1352,187.8865],[26.7069,42.1487,165.514],[26.7005,42.1563,137.1969],[26.6967,42.165,156.239],[26.6995,42.1743,162.5133],[26.7077,42.1795,132.3779],[26.712,42.1853,146.1391],[26.7118,42.1912,129.1367],[26.7077,42.1961,142.5311],[26.7032,42.2062,181.0206],[26.7041,42.2148,194.4526],[26.714,42.2253,191.7193],[26.7253,42.2307,192.4953],[26.7412,42.242,209.7714],[26.7454,42.2588,267.2199],[26.7623,42.2774,335.5481],[26.7631,42.2819,314.0038],[26.7619,42.2881,274.3698],[26.7522,42.3059,227.7738],[26.7507,42.312,221.4574],[26.7458,42.3176,235.4585],[26.7146,42.3141,191.4724],[26.6951,42.3043,201.1751],[26.6862,42.3049,195.6738],[26.6779,42.3096,174.2181],[26.6672,42.3092,162.2546],[26.6488,42.3036,152.8794],[26.633,42.2942,169.3006],[26.624,42.2907,168.0521],[26.6146,42.2884,148.343],[26.5994,42.2873,109.8951],[26.5858,42.2822,140.0417],[26.5805,42.277,109.6014],[26.5813,42.2673,120.5232],[26.5849,42.2616,109.1245],[26.5821,42.2543,113.8149],[26.5669,42.2504,116.7621],[26.56,42.2446,105.5477],[26.5472,42.2417,166.3187],[26.5421,42.2342,139.9807],[26.5351,42.2315,167.7166],[26.5245,42.2319,120.7041],[26.5122,42.2361,184.1269],[26.5055,42.2366,170.884],[26.4823,42.2291,141.0429],[26.474,42.2296,118.4898],[26.4621,42.2338,146.4381],[26.4418,42.2286,199.5101],[26.4342,42.2295,202.2811],[26.4148,42.2369,233.0115],[26.4079,42.2378,249.1347],[26.4002,42.2345,273.0465],[26.3938,42.2278,282.2419],[26.3837,42.2236,242.2792],[26.379,42.2196,228.2684],[26.3778,42.2129,204.7169],[26.3804,42.1972,171.2323],[26.3743,42.184,180.8095],[26.3722,42.1739,168.4883],[26.3756,42.1685,146.8281],[26.3822,42.1643,157.1945],[26.3877,42.1621,165.4703],[26.3962,42.162,163.7656],[26.42,42.1703,164.0675],[26.4264,42.1695,167.8406],[26.4365,42.1639,175.6414],[26.443,42.1578,148.4803],[26.4562,42.1551,183.106],[26.479,42.1628,110.2112],[26.491,42.164,102.4406],[26.4951,42.1617,100.2758],[26.495,42.1587,99.5325],[26.5012,42.1477,109.2086],[26.5079,42.1427,114.5873],[26.5293,42.1434,96.1688],[26.5334,42.1416,103.1766],[26.531,42.1338,97.9054],[26.5229,42.1234,98.8933],[26.5203,42.1124,100.3667],[26.5081,42.0948,126.3039],[26.5064,42.0902,165.2452],[26.5105,42.0704,94.2597],[26.52,42.0534,189.8009],[26.5189,42.0369,231.3868],[26.5169,42.0343,225.9956],[26.4956,42.0309,131.6513],[26.4912,42.0265,77.8673],[26.4906,42.0198,78.1605],[26.4921,42.0172,79.4738],[26.5084,42.0087,81.8783],[26.5104,41.9931,103.0883],[26.5249,41.9816,79.2519],[26.5233,41.9718,89.9682],[26.5248,41.9684,104.5486],[26.5479,41.9534,126.2098],[26.5534,41.942,60.3918],[26.5591,41.937,77.7561],[26.5725,41.9438,222.4183],[26.5789,41.9415,242.2915]]]]}
,"properties": {"GID_2": "BGR.28.2_1","GID_0": "BGR","country": "Bulgaria","GID_1": "BGR.28_1","state": "Yambol","NL_NAME_1": "Ямбол","county": "Elhovo","VARNAME_2": "NA","NL_NAME_2": "Елхово","TYPE_2": "Obshtina","ENGTYPE_2": "Municipality","CC_2": "NA","HASC_2": "BG.YA.EL","name": "Elhovo.county","area_km2": 747.1684,"hist_schema_id": "Elevation0-9000","hist_area_km2": {"75": 0.9136,"100": 61.9264,"125": 97.8882,"150": 93.9196,"175": 110.2856,"200": 88.4774,"225": 67.6092,"250": 50.2429,"275": 37.1223,"300": 38.0727,"325": 30.8888,"350": 16.0047,"375": 13.7075,"400": 11.188,"425": 10.1014,"450": 10.4184,"475": 6.0215,"500": 2.0178,"525": 0.2207,"550": 0.1419}}}