{"type": "Feature","bbox": [23.1196,42.8265,23.6917,43.1627],"geometry": {"type": "MultiPolygon","coordinates": [[[[23.6464,42.8265,1205.3069],[23.6878,42.8275,1463.9392],[23.6917,42.8435,1053.7776],[23.6892,42.8552,826.5522],[23.6862,42.8612,791.2543],[23.6713,42.8748,1058.1479],[23.6581,42.8821,1058.7117],[23.6394,42.8875,881.7899],[23.6258,42.8943,1036.8575],[23.5883,42.9266,1136.9949],[23.5845,42.9332,1207.2137],[23.5838,42.9363,1260.3679],[23.585,42.9386,1267.7395],[23.6039,42.9478,1045.92],[23.6058,42.9512,1021.2393],[23.6047,42.9548,1212.7357],[23.5854,42.9639,1308.2794],[23.5808,42.9705,1294.0217],[23.5775,42.9851,1333.5865],[23.5634,42.9863,1478.9995],[23.5525,42.9942,1429.7904],[23.543,43.0046,1455.7017],[23.532,43.0264,974.9236],[23.5234,43.0395,1015.9164],[23.5081,43.0551,878.9468],[23.4834,43.0733,337.6978],[23.4736,43.0931,523.1532],[23.4673,43.1007,543.2224],[23.4676,43.1038,614.017],[23.4715,43.109,761.7821],[23.4965,43.1309,1036.9368],[23.4992,43.1444,1168.5909],[23.4973,43.15,1221.2037],[23.4948,43.1518,1197.7781],[23.4241,43.1588,928.5222],[23.3899,43.1593,1242.5956],[23.3678,43.1627,626.7872],[23.3526,43.1616,719.7479],[23.3399,43.1539,995.2499],[23.3338,43.1471,1097.1497],[23.3243,43.1299,1238.3418],[23.3114,43.121,1318.038],[23.2975,43.1197,1380.0972],[23.2784,43.1229,1355.8081],[23.2479,43.1115,1575.5193],[23.2173,43.1082,1478.8431],[23.2298,43.1018,1444.5988],[23.2368,43.0942,1404.2119],[23.2376,43.0907,1326.8679],[23.235,43.0786,1378.239],[23.2176,43.0642,1368.7625],[23.204,43.0587,1225.3397],[23.192,43.0497,938.2968],[23.1856,43.0409,1010.634],[23.182,43.0248,1245.5234],[23.1839,43.015,1054.4587],[23.1828,43.0131,970.1688],[23.181,43.0125,958.6396],[23.167,43.0195,1178.7351],[23.1588,43.0209,1221.428],[23.1265,43.019,1034.1262],[23.1229,43.0173,1045.1511],[23.1201,43.0115,975.0203],[23.1196,43.0044,850.7982],[23.1251,42.9897,801.8368],[23.1257,42.984,759.3441],[23.1433,42.982,741.2914],[23.1648,42.9839,752.4044],[23.172,42.981,696.1382],[23.1718,42.9761,743.4126],[23.1591,42.9657,829.8947],[23.1578,42.9629,821.4878],[23.1601,42.9572,878.3446],[23.1661,42.956,865.7178],[23.1761,42.9581,925.7908],[23.1994,42.9704,861.8966],[23.2109,42.9715,726.8358],[23.221,42.9671,675.5369],[23.2263,42.9586,814.9031],[23.2292,42.9454,1103.7927],[23.2328,42.9417,1029.4814],[23.2419,42.9407,980.5601],[23.2642,42.9453,753.5429],[23.2734,42.944,938.2075],[23.2749,42.9426,934.6432],[23.2735,42.932,916.3715],[23.2748,42.925,999.1724],[23.2797,42.9192,1054.0739],[23.2991,42.9041,1073.4816],[23.3002,42.897,947.4749],[23.2979,42.887,884.3799],[23.3002,42.8834,845.1631],[23.307,42.8794,759.4261],[23.3177,42.8782,961.0029],[23.3317,42.8686,885.4498],[23.3511,42.862,572.442],[23.3654,42.8368,606.8112],[23.3723,42.8333,630.2802],[23.3822,42.8321,657.2554],[23.4194,42.8326,821.285],[23.4237,42.8349,798.3709],[23.4378,42.8368,856.7968],[23.4485,42.8406,865.5085],[23.4744,42.8582,1027.5166],[23.4877,42.8621,666.0813],[23.5091,42.8636,806.8914],[23.5395,42.8535,989.3989],[23.5684,42.8321,814.9187],[23.5786,42.8292,941.0794],[23.6024,42.8329,853.3094],[23.6232,42.843,931.9492],[23.6315,42.8432,1064.4619],[23.644,42.838,1059.7296],[23.6464,42.8265,1205.3069]]]]}
,"properties": {"GID_2": "BGR.21.21_1","GID_0": "BGR","country": "Bulgaria","GID_1": "BGR.21_1","state": "Sofia","NL_NAME_1": "Sofija","county": "Svoge","VARNAME_2": "NA","NL_NAME_2": "Своге","TYPE_2": "Obshtina","ENGTYPE_2": "Municipality","CC_2": "NA","HASC_2": "BG.SF.SV","name": "Svoge.county","area_km2": 898.0696,"hist_schema_id": "Elevation0-9000","hist_area_km2": {"300": 0.0929,"325": 0.991,"350": 1.3162,"375": 2.2763,"400": 2.5401,"425": 3.811,"450": 5.7802,"475": 6.5106,"500": 10.1137,"525": 10.6856,"550": 12.1897,"575": 13.4772,"600": 14.3163,"625": 17.1402,"650": 18.7679,"675": 20.3978,"700": 22.0547,"725": 24.4614,"750": 28.4331,"775": 29.2262,"800": 33.2897,"825": 36.6594,"850": 36.7382,"875": 38.9629,"900": 38.5134,"925": 39.6468,"950": 37.3194,"975": 36.7424,"1000": 34.8788,"1025": 32.5325,"1050": 30.3132,"1075": 28.8345,"1100": 24.0564,"1125": 21.727,"1150": 19.0715,"1175": 16.2946,"1200": 17.4874,"1225": 17.6079,"1250": 17.2649,"1275": 16.7992,"1300": 16.1934,"1325": 14.5042,"1350": 12.5825,"1375": 10.8628,"1400": 8.5388,"1425": 4.8359,"1450": 2.7292,"1475": 2.3568,"1500": 1.7057,"1525": 1.2558,"1550": 1.2404,"1575": 0.8697,"1600": 0.5439,"1625": 0.3263,"1650": 0.1088,"1675": 0.0933}}}