{"type":"Feature","properties":{"GID_2":"BGR.15.5_1","GID_0":"BGR","country":"Bulgaria","GID_1":"BGR.15_1","state":"Razgrad","NL_NAME_1":"Разград","county":"Samuil","VARNAME_2":"NA","NL_NAME_2":"NA","TYPE_2":"Obshtina","ENGTYPE_2":"Municipality","CC_2":"NA","HASC_2":"BG.RG.SA","name":"Samuil.county"},
"geometry":{"type": "MultiPolygon","coordinates": [[[[26.7177,43.6237,295.319],[26.7175,43.6149,293.0595],[26.7148,43.6035,330.5005],[26.7121,43.5986,336.9445],[26.6984,43.5879,328.1721],[26.6953,43.5826,344.1166],[26.6985,43.5773,359.8403],[26.7139,43.569,348.7935],[26.7138,43.5622,358.7232],[26.7091,43.5509,398.3235],[26.6905,43.5332,420.0492],[26.6883,43.5289,429.6437],[26.6864,43.5177,392.6555],[26.6886,43.5113,338.8591],[26.6963,43.5006,329.6555],[26.7024,43.4946,283.9563],[26.7059,43.4936,321.0137],[26.7202,43.4941,334.7498],[26.7236,43.497,345.569],[26.7301,43.5104,426.7625],[26.7318,43.5121,456.6946],[26.7364,43.5114,473.0081],[26.7397,43.5015,362.9216],[26.7425,43.4788,399.2345],[26.7439,43.477,371.7824],[26.7491,43.4718,410.2034],[26.7682,43.4721,482.7462],[26.7755,43.474,489.229],[26.7769,43.4776,488.8042],[26.7763,43.4918,418.8079],[26.781,43.4974,384.6992],[26.7884,43.4999,425.1786],[26.7985,43.5001,460.4607],[26.8088,43.496,496.4494],[26.8137,43.4963,498.5496],[26.8271,43.5015,509.5343],[26.8339,43.5062,493.0071],[26.8367,43.5101,489.2366],[26.8356,43.5254,411.4962],[26.8324,43.5321,411.6131],[26.8289,43.5341,404.1702],[26.8139,43.5355,394.0986],[26.8088,43.5398,369.7147],[26.8084,43.5526,353.2543],[26.8136,43.5577,341.0797],[26.8356,43.5721,332.8669],[26.8598,43.5801,349.5293],[26.8751,43.5895,371.6795],[26.8824,43.597,364.9541],[26.8863,43.6155,311.2005],[26.8911,43.6211,299.5699],[26.8978,43.6229,304.1946],[26.9093,43.6222,288.9318],[26.9328,43.6132,300.6949],[26.9442,43.611,325.6841],[26.9521,43.6115,349.0495],[26.9608,43.615,331.155],[26.9667,43.6194,337.6348],[26.9715,43.6263,324.1478],[26.9678,43.6336,322.0063],[26.9712,43.6429,305.0083],[26.9498,43.6642,291.2504],[26.9403,43.6699,254.3866],[26.9183,43.6741,281.3184],[26.9001,43.6757,271.4784],[26.8721,43.6836,271.2758],[26.8512,43.6837,289.7937],[26.8422,43.6826,290.2398],[26.8386,43.6786,290.4204],[26.8367,43.6702,286.7463],[26.8365,43.6525,284.6639],[26.8335,43.6474,303.7713],[26.8114,43.6437,269.9348],[26.8068,43.6409,300.9863],[26.7928,43.6227,310.0746],[26.7873,43.6187,338.0262],[26.7617,43.6167,315.2921],[26.7177,43.6237,295.319]]]]}}