{"type": "Feature","bbox": [23.7541,41.6637,24.1137,42.143],"geometry": {"type": "MultiPolygon","coordinates": [[[[23.823,41.8195,1776.1443],[23.8393,41.8133,1670.834],[23.8564,41.8043,1851.1621],[23.8854,41.7989,1733.724],[23.9081,41.7877,1636.0367],[23.9153,41.7809,1679.4089],[23.962,41.7532,1592.6848],[23.9801,41.7469,1543.1777],[23.9869,41.7404,1678.9165],[23.9917,41.7244,1600.2422],[24.0388,41.6932,1541.1458],[24.0645,41.6722,1605.5884],[24.0731,41.6672,1626.5673],[24.0861,41.6637,1550.3149],[24.090699999999998,41.6711,1568.9172],[24.0951,41.6842,1194.5],[24.1082,41.6975,1355.6993],[24.1137,41.7055,1529.7626],[24.1123,41.7229,1547.4596],[24.1002,41.7337,1565.9384],[24.0769,41.7432,1597.4089],[24.069,41.7481,1686.7556],[24.0427,41.7822,1686.8107],[24.0352,41.7878,1629.1461],[24.0191,41.7947,1725.4307],[24.0015,41.808,1709.7723],[23.9958,41.8195,1751.4851],[23.9947,41.8296,1855.6053],[23.9987,41.8397,1853.1855],[24.0159,41.8518,1964.7268],[24.0209,41.8608,2040.3138],[24.0199,41.8701,2021.7583],[24.0216,41.8764,1967.5076],[24.0281,41.8833,2032.0686],[24.019,41.9032,2095.8958],[24.021,41.909,1920.0126],[24.0214,41.9166,1687.2985],[24.0146,41.9335,1428.231],[24.0151,41.9423,1304.5165],[24.0183,41.9468,1204.4507],[24.0352,41.9595,1172.8094],[24.0474,41.9766,1177.8228],[24.0578,41.9863,1041.4894],[24.0656,42.0003,957.5709],[24.0866,42.0101,759.8358],[24.0863,42.0134,757.0774],[24.0735,42.0217,748.4463],[24.0711,42.0248,748.1479],[24.0738,42.0372,816.3362],[24.072,42.0464,780.7145],[24.0643,42.0667,644.7538],[24.0694,42.0766,728.8123],[24.0673,42.0878,563.8356],[24.0794,42.0962,554.186],[24.0842,42.1017,747.2497],[24.0846,42.1195,1256.1874],[24.0872,42.1282,1336.8075],[24.0848,42.1303,1412.907],[24.0709,42.1372,1394.2705],[24.0472,42.143,1290.5046],[24.0444,42.1398,1379.2947],[24.0271,42.1303,1073.8269],[23.9922,42.1175,1143.3258],[23.9661,42.101,1417.5486],[23.9539,42.0969,1556.175],[23.9343,42.0926,1578.1506],[23.8994,42.0904,1473.4307],[23.8588,42.0801,1547.83],[23.7926,42.076,1670.056],[23.7892,42.0433,1318.4142],[23.79,42.0371,1297.382],[23.7922,42.0342,1216.8181],[23.7982,42.0313,1313.5062],[23.8141,42.0269,1284.9453],[23.8171,42.0248,1180.7887],[23.8179,42.022,1132.7671],[23.8147,42.0176,1227.9205],[23.7872,41.9986,1353.892],[23.7604,41.9734,1671.6343],[23.7579,41.9701,1600.8367],[23.7541,41.9586,1481.3531],[23.7564,41.9559,1522.9723],[23.7637,41.9347,1558.9976],[23.7657,41.9083,1505.2623],[23.7703,41.9009,1523.7285],[23.7739,41.898,1554.0837],[23.7855,41.8777,1534.3508],[23.7887,41.8524,1502.0797],[23.7934,41.8383,1558.2595],[23.823,41.8195,1776.1443]]]]}
,"properties": {"GID_2": "BGR.11.11_1","GID_0": "BGR","country": "Bulgaria","GID_1": "BGR.11_1","state": "Pazardzhik","NL_NAME_1": "Пазарджик","county": "Velingrad","VARNAME_2": "NA","NL_NAME_2": "Велинград","TYPE_2": "Obshtina","ENGTYPE_2": "Municipality","CC_2": "NA","HASC_2": "BG.PZ.VE","name": "Velingrad.county","area_km2": 816.4507,"hist_schema_id": "Elevation0-9000","hist_area_km2": {"525": 0.236,"550": 0.5192,"575": 0.6293,"600": 0.7867,"625": 1.3531,"650": 1.4633,"675": 1.7937,"700": 2.1241,"725": 5.6819,"750": 18.8023,"775": 11.5253,"800": 11.3049,"825": 11.4786,"850": 12.03,"875": 11.9355,"900": 10.5033,"925": 10.5198,"950": 9.8592,"975": 10.6319,"1000": 11.1364,"1025": 12.0664,"1050": 13.6583,"1075": 14.4781,"1100": 13.9742,"1125": 15.0466,"1150": 14.3692,"1175": 14.1805,"1200": 29.4552,"1225": 20.2767,"1250": 20.9515,"1275": 22.1359,"1300": 23.5733,"1325": 22.3741,"1350": 23.5409,"1375": 25.2587,"1400": 25.7501,"1425": 28.1656,"1450": 31.3071,"1475": 31.4194,"1500": 32.8264,"1525": 36.6029,"1550": 35.7528,"1575": 32.1069,"1600": 26.0811,"1625": 19.5581,"1650": 15.4576,"1675": 12.5546,"1700": 11.4038,"1725": 9.3041,"1750": 8.3389,"1775": 6.2845,"1800": 4.3248,"1825": 2.762,"1850": 2.5571,"1875": 2.0523,"1900": 1.7365,"1925": 1.6733,"1950": 2.0048,"1975": 1.9891,"2000": 1.4366,"2025": 1.0103,"2050": 0.8524,"2075": 0.3788,"2100": 0.3314,"2125": 0.3314,"2150": 0.2209,"2175": 0.2209}}}