{"type": "Feature","bbox": [24.9585,43.5013,25.2253,43.7001],"geometry": {"type": "MultiPolygon","coordinates": [[[[25.209,43.5689,132.9992],[25.213,43.5766,72.1231],[25.2121,43.601,20.6697],[25.214,43.6048,19.0637],[25.2237,43.6109,19.2956],[25.2253,43.6159,19.2459],[25.2216,43.6249,18.9836],[25.1971,43.6488,19.6543],[25.1956,43.6653,20.0748],[25.2131,43.6905,16.0],[25.1688,43.7001,16.5],[25.1688,43.6978,16.5],[25.1452,43.693,16.5],[25.1441,43.695,16.5],[25.1341,43.6905,16.5],[25.1128,43.6842,16.5],[25.0598,43.6914,16.5],[25.0478,43.6956,17.0],[25.0373,43.6888,23.1536],[25.0208,43.6862,21.9258],[24.9885,43.6889,21.5875],[24.9778,43.6815,160.2513],[24.9651,43.6781,95.9582],[24.9589,43.6724,91.2405],[24.9585,43.6614,186.946],[24.9601,43.6579,196.1104],[24.9644,43.6525,209.4958],[24.9733,43.6458,218.3713],[24.985,43.6414,193.9556],[25.0139,43.6394,119.3658],[25.0253,43.6353,43.0951],[25.0297,43.6299,83.5234],[25.031,43.6242,99.8615],[25.027,43.6168,79.5814],[25.017,43.6111,92.2211],[24.9948,43.6025,129.6151],[24.9849,43.5958,171.5896],[24.9826,43.5925,225.7982],[24.9818,43.5869,244.4308],[24.9871,43.5811,247.711],[25.0025,43.5754,229.1581],[25.0273,43.5716,228.5853],[25.0396,43.5746,225.8185],[25.0618,43.5902,92.0588],[25.0689,43.5906,133.8663],[25.073,43.5868,178.4301],[25.0768,43.5774,188.633],[25.0795,43.5755,201.5934],[25.0949,43.5705,185.9264],[25.1126,43.5615,168.6168],[25.1125,43.5571,125.3118],[25.1053,43.5521,103.5399],[25.0795,43.5499,181.9904],[25.071,43.5474,172.5966],[25.0601,43.5394,218.1572],[25.0583,43.5341,191.1727],[25.0642,43.5258,178.3741],[25.0669,43.514,156.5857],[25.0697,43.5095,160.6376],[25.0761,43.5041,168.4297],[25.0856,43.5013,147.7714],[25.0977,43.5023,172.54],[25.1497,43.5173,151.7253],[25.158,43.5233,117.8712],[25.1688,43.5466,123.2717],[25.1768,43.5507,114.5961],[25.1895,43.5614,65.0706],[25.209,43.5689,132.9992]]]]}
,"properties": {"GID_2": "BGR.13.1_1","GID_0": "BGR","country": "Bulgaria","GID_1": "BGR.13_1","state": "Pleven","NL_NAME_1": "Плевенска","county": "Belene","VARNAME_2": "NA","NL_NAME_2": "Белене","TYPE_2": "Obshtina","ENGTYPE_2": "Municipality","CC_2": "NA","HASC_2": "BG.PV.BE","name": "Belene.county","area_km2": 280.8437,"hist_schema_id": "Elevation0-9000","hist_area_km2": {"25": 151.1527,"50": 14.7858,"75": 12.3484,"100": 17.4495,"125": 20.1706,"150": 24.228,"175": 21.1813,"200": 11.9293,"225": 6.8148,"250": 0.7833}}}