{"type":"Feature","properties":{"GID_2":"BGR.25.6_1","GID_0":"BGR","country":"Bulgaria","GID_1":"BGR.25_1","state":"VelikoTarnovo","NL_NAME_1":"ВеликоТърново","county":"Strazhitsa","VARNAME_2":"NA","NL_NAME_2":"NA","TYPE_2":"Obshtina","ENGTYPE_2":"Municipality","CC_2":"NA","HASC_2":"BG.VT.ST","name":"Strazhitsa.county"},
"geometry":{"type": "MultiPolygon","coordinates": [[[[25.8244,43.3788,204.8358],[25.8179,43.3637,181.2974],[25.8194,43.3499,197.2266],[25.818,43.3461,234.6295],[25.813,43.3454,245.9924],[25.8114,43.3519,261.8226],[25.8076,43.3514,268.6595],[25.7998,43.334,311.717],[25.8203,43.3184,313.4551],[25.8238,43.3128,259.3287],[25.8242,43.305,226.0104],[25.8214,43.3008,244.8021],[25.8143,43.2959,252.3801],[25.7991,43.2901,295.4922],[25.7943,43.2851,258.9741],[25.7953,43.2835,270.5073],[25.806,43.2828,275.8463],[25.8065,43.2802,261.7064],[25.8006,43.2663,263.5078],[25.8019,43.2623,294.5299],[25.807,43.2573,318.5384],[25.8105,43.2507,326.1789],[25.8176,43.245,355.528],[25.8299,43.2433,362.831],[25.8421,43.2462,344.7285],[25.8583,43.2544,300.7992],[25.8664,43.2557,285.4135],[25.8723,43.2546,273.0562],[25.8854,43.2473,240.0981],[25.9049,43.2444,216.9058],[25.9063,43.241,218.1521],[25.9045,43.234,236.6744],[25.8932,43.2211,257.2353],[25.8909,43.2145,284.121],[25.8917,43.2086,291.0652],[25.8946,43.2053,235.6797],[25.8991,43.1928,177.2271],[25.9051,43.1903,126.991],[25.9094,43.1907,108.4511],[25.9351,43.2044,109.7861],[25.9433,43.2042,76.7448],[25.9436,43.1912,85.9378],[25.9576,43.1775,151.505],[25.9587,43.1656,72.7938],[25.9641,43.16,73.7716],[25.9782,43.1519,101.5445],[25.9809,43.1462,168.0553],[25.98,43.1405,190.3396],[25.9858,43.1392,353.7072],[26.0028,43.1301,415.6117],[26.0144,43.1142,430.0128],[26.0216,43.1115,409.1017],[26.0291,43.1118,416.0817],[26.0517,43.1203,419.3505],[26.0551,43.12,340.5536],[26.0617,43.1116,356.8908],[26.0642,43.1104,335.1292],[26.0712,43.11,268.6721],[26.0772,43.1117,266.6409],[26.0809,43.1161,371.748],[26.0832,43.1242,375.7269],[26.0831,43.1453,482.6035],[26.0915,43.1561,404.2171],[26.0906,43.1747,405.2678],[26.0917,43.1775,410.4442],[26.0959,43.1816,418.6295],[26.1177,43.1933,285.9926],[26.1253,43.2004,365.7568],[26.1286,43.2067,313.9178],[26.1288,43.2147,228.7316],[26.1229,43.2278,324.0521],[26.1069,43.233,337.376],[26.0955,43.2468,305.7301],[26.0947,43.2525,252.3427],[26.0916,43.2567,265.8065],[26.0713,43.2639,240.0351],[26.0698,43.2662,170.2525],[26.0716,43.2732,266.8492],[26.0912,43.2826,301.9023],[26.1004,43.289,304.0874],[26.1022,43.2947,269.9423],[26.0938,43.3054,381.2284],[26.0624,43.3212,352.2571],[26.0497,43.3259,343.9438],[26.0313,43.328,334.4562],[26.0011,43.327,253.4626],[25.9719,43.3326,233.41],[25.9681,43.3349,234.778],[25.9631,43.3432,222.415],[25.9586,43.3617,284.1812],[25.9516,43.3777,333.0192],[25.9426,43.3817,258.3523],[25.9321,43.3818,314.0326],[25.9121,43.3762,249.3949],[25.8992,43.3702,330.4296],[25.8872,43.369,340.4187],[25.8741,43.3693,362.9238],[25.8244,43.3788,204.8358]]]]}}