{"type":"Feature","properties":{"ISO3166-1-Alpha-3":"BGR","country":"Bulgaria","fill":"#F0F","id":"2232","name":"Haskovo"},
"geometry":{"type": "Polygon","coordinates": [[[25.63258,42.12459,113.1857],[25.60756,42.12999,149.1724],[25.62255,42.14549,138.6952],[25.62441,42.16283,148.5094],[25.62296,42.18022,157.5772],[25.58886,42.19275,145.9421],[25.54049,42.16732,173.8309],[25.50679,42.17629,158.9847],[25.47393,42.16652,158.2226],[25.45946,42.13428,133.4875],[25.44985,42.09867,124.2339],[25.43962,42.09994,146.6026],[25.42856,42.09965,115.0124],[25.41708,42.10156,106.6931],[25.40603,42.10924,107.7141],[25.39817,42.11309,107.7691],[25.3868,42.11402,113.1624],[25.3651,42.11299,111.3135],[25.32954,42.12451,136.247],[25.30846,42.13136,118.3633],[25.29337,42.13345,116.708],[25.28397,42.13324,118.6566],[25.28231,42.0871,133.403],[25.29223,42.05294,161.6243],[25.29999,42.01702,156.8024],[25.2943,42.00576,219.7145],[25.29906,41.99687,274.6187],[25.31042,41.98788,277.2617],[25.30753,41.97201,327.4652],[25.27373,41.92917,441.5894],[25.22257,41.9037,678.5865],[25.21079,41.87848,653.7388],[25.24717,41.81703,456.3349],[25.29999,41.8097,464.9427],[25.33037,41.81755,466.773],[25.35311,41.83848,289.1072],[25.37016,41.84602,256.9138],[25.38928,41.84665,247.0],[25.40024,41.8314,272.3023],[25.39889,41.81187,379.5909],[25.4084,41.79778,424.9979],[25.44923,41.78401,439.7365],[25.47083,41.76998,523.0535],[25.49222,41.77138,455.209],[25.50969,41.78593,329.5834],[25.5316,41.7867,268.1581],[25.5501,41.76978,356.4959],[25.56715,41.76148,294.0806],[25.58576,41.76138,264.7798],[25.59713,41.75321,240.6086],[25.60777,41.74094,349.5793],[25.63402,41.70092,407.6109],[25.61139,41.6612,320.5571],[25.6056,41.63366,312.0384],[25.63909,41.62035,221.5],[25.65852,41.62314,277.8087],[25.68022,41.63043,196.9339],[25.69707,41.62335,154.7931],[25.71474,41.62105,228.7001],[25.73489,41.63201,159.2735],[25.74699,41.6517,152.3334],[25.78223,41.66464,223.2826],[25.81716,41.65482,225.0884],[25.82088,41.63436,409.2655],[25.8276,41.61477,495.3745],[25.87308,41.57816,619.0696],[25.9169,41.56271,408.2611],[25.9569,41.59198,373.7271],[25.96423,41.6126,331.1713],[25.98056,41.61937,138.0671],[25.99886,41.61906,319.6247],[26.00981,41.63575,281.2993],[26.05239,41.64663,471.0909],[26.05901,41.64397,417.3779],[26.05949,41.64378,417.3779],[26.05503,41.64875,423.3706],[26.05028,41.66046,346.4105],[26.04748,41.67461,235.5882],[26.0481,41.68908,258.3532],[26.05369,41.70151,370.1599],[26.06051,41.7073,472.5798],[26.06722,41.70885,493.4494],[26.07405,41.70913,589.7896],[26.08149,41.71151,423.9775],[26.10836,41.72789,165.8398],[26.13513,41.7334,108.041],[26.1899,41.73469,47.902],[26.21182,41.75048,49.1243],[26.22618,41.74967,48.5223],[26.23445,41.74583,50.6869],[26.26101,41.72306,46.0819],[26.27393,41.7149,44.9364],[26.29491,41.71032,46.8617],[26.33336,41.71304,43.4094],[26.32323,41.72368,56.8822],[26.31631,41.74376,108.0418],[26.32003,41.76546,100.4314],[26.33419,41.78954,165.197],[26.37553,41.81662,214.1787],[26.47836,41.81329,138.9785],[26.52611,41.82424,101.7959],[26.53955,41.83799,137.3913],[26.54782,41.85628,135.539],[26.55205,41.87445,173.3206],[26.55289,41.88164,173.9591],[26.55231,41.8814,173.9591],[26.53071,41.87228,169.658],[26.50549,41.88184,198.9693],[26.48028,41.89385,220.6844],[26.46002,41.91152,217.1699],[26.46157,41.94927,288.1342],[26.43728,41.97418,232.0716],[26.40297,41.97992,291.8737],[26.38157,41.9586,380.0602],[26.36679,41.94075,498.651],[26.35791,41.95646,472.5034],[26.35036,41.98757,740.3568],[26.32008,42.00459,665.0323],[26.22851,42.01351,442.0139],[26.14283,42.0457,458.639],[26.09901,42.03586,457.9026],[26.05705,42.01961,346.9537],[26.028,42.03715,287.8446],[26.00217,42.06521,200.5336],[25.94977,42.10808,181.8581],[25.87845,42.12322,94.7676],[25.86998,42.1273,89.1808],[25.85613,42.12048,133.2407],[25.84507,42.10857,112.5374],[25.80352,42.07831,140.9229],[25.7566,42.06152,172.3344],[25.73293,42.08642,173.6993],[25.69159,42.11833,169.8434],[25.66368,42.13577,156.0437],[25.63258,42.12459,113.1857]]]}}