{"type": "Feature","bbox": [25.2693,41.3127,26.5858,42.2279],"geometry": {"type": "MultiPolygon","coordinates": [[[[26.0939,41.6342,533.4364],[26.0913,41.6401,572.0663],[26.0892,41.6378,554.6055],[26.0873,41.6399,564.1214],[26.0809,41.6381,496.4307],[26.0677,41.6479,421.5943],[26.0686,41.6518,482.5277],[26.0618,41.66,356.7856],[26.0623,41.6641,356.1826],[26.0667,41.6698,284.341],[26.064,41.6742,248.5488],[26.0642,41.6801,262.7465],[26.0591,41.6853,308.2399],[26.0615,41.6913,336.5755],[26.0591,41.6961,407.9362],[26.0624,41.6979,430.7681],[26.0678,41.6978,485.9847],[26.0667,41.7035,447.0978],[26.0688,41.707,514.4836],[26.0779,41.7103,525.5092],[26.0832,41.7146,374.9525],[26.0901,41.716,374.3255],[26.1042,41.7122,218.7204],[26.1137,41.7121,194.6062],[26.1192,41.724,129.7801],[26.1162,41.7228,131.7491],[26.1209,41.7277,121.0993],[26.1308,41.7323,107.547],[26.1425,41.7346,100.9099],[26.1502,41.7394,83.4161],[26.1743,41.748,49.2363],[26.1773,41.748,49.3594],[26.1788,41.7424,49.1192],[26.1831,41.7393,50.4128],[26.1967,41.7344,50.4234],[26.2172,41.7312,47.1368],[26.2243,41.7365,48.2419],[26.2266,41.7457,48.0996],[26.2302,41.7446,48.9474],[26.2306,41.7479,48.6981],[26.235,41.7467,50.6869],[26.2341,41.7402,47.9354],[26.248,41.7281,49.1141],[26.2506,41.7224,44.6512],[26.2598,41.7215,47.8861],[26.264,41.7184,45.6629],[26.286,41.7119,45.8858],[26.2926,41.7127,46.4888],[26.3011,41.7105,45.7076],[26.3157,41.7105,42.6548],[26.3285,41.7165,43.8983],[26.3346,41.7176,43.0755],[26.346,41.7127,42.4512],[26.3616,41.7124,46.2454],[26.3621,41.7099,46.5826],[26.3702,41.712,45.9138],[26.365,41.7203,57.0777],[26.3414,41.7481,88.7909],[26.3396,41.7589,109.8229],[26.3484,41.7832,126.4843],[26.3774,41.8327,253.1011],[26.3839,41.8362,263.7794],[26.538,41.8373,137.3913],[26.5509,41.8451,183.9017],[26.5572,41.858,66.9185],[26.5688,41.8699,59.3414],[26.5815,41.8781,75.428],[26.573,41.887,114.1643],[26.5743,41.8903,52.4701],[26.5841,41.9004,103.6013],[26.5858,41.9052,109.7878],[26.5792,41.914,155.1994],[26.571,41.9208,151.1199],[26.5692,41.9275,132.5454],[26.5789,41.9415,242.2915],[26.5725,41.9438,222.4183],[26.5591,41.937,77.7561],[26.5534,41.942,60.3918],[26.5479,41.9534,126.2098],[26.5248,41.9684,104.5486],[26.5233,41.9718,89.9682],[26.5249,41.9816,79.2519],[26.5104,41.9931,103.0883],[26.5084,42.0087,81.8783],[26.4921,42.0172,79.4738],[26.4906,42.0198,78.1605],[26.4912,42.0265,77.8673],[26.4956,42.0309,131.6513],[26.5169,42.0343,225.9956],[26.5189,42.0369,231.3868],[26.52,42.0534,189.8009],[26.5105,42.0704,94.2597],[26.5064,42.0902,165.2452],[26.5081,42.0948,126.3039],[26.5203,42.1124,100.3667],[26.5229,42.1234,98.8933],[26.531,42.1338,97.9054],[26.5334,42.1416,103.1766],[26.5293,42.1434,96.1688],[26.5079,42.1427,114.5873],[26.5012,42.1477,109.2086],[26.495,42.1587,99.5325],[26.4951,42.1617,100.2758],[26.491,42.164,102.4406],[26.479,42.1628,110.2112],[26.4562,42.1551,183.106],[26.4449,42.157,149.25],[26.4311,42.1676,164.4572],[26.42,42.1703,164.0675],[26.3962,42.162,163.7656],[26.3877,42.1621,165.4703],[26.3778,42.1667,154.7069],[26.3722,42.1739,168.4883],[26.329,42.1794,187.7032],[26.3216,42.1872,197.1264],[26.3137,42.1896,206.5137],[26.3042,42.198,197.4357],[26.2932,42.2021,220.6514],[26.2531,42.2074,215.1708],[26.2366,42.2168,210.9229],[26.2273,42.2202,220.9992],[26.2134,42.2224,243.1131],[26.2081,42.2255,225.6857],[26.1986,42.2279,222.499],[26.1838,42.2054,219.0484],[26.1766,42.1824,258.4529],[26.1659,42.1672,287.1457],[26.1496,42.156,296.4456],[26.1453,42.1485,276.0522],[26.1434,42.1343,227.7552],[26.1443,42.1188,171.1678],[26.1467,42.1137,214.0305],[26.1573,42.1007,248.7027],[26.1605,42.0917,281.5385],[26.1627,42.0791,356.8734],[26.162,42.0555,394.3212],[26.1638,42.0418,505.4587],[26.1572,42.0391,524.3994],[26.1365,42.0378,493.9579],[26.1198,42.0296,428.6654],[26.1023,42.0301,389.6118],[26.0978,42.028,406.4935],[26.0855,42.0135,382.2158],[26.0791,42.0106,384.362],[26.072,42.0101,360.936],[26.0656,42.0117,328.9558],[26.0456,42.0235,327.7352],[26.0407,42.0298,304.3188],[26.0363,42.0412,273.3774],[26.0295,42.0497,258.4571],[26.0146,42.0629,221.527],[26.0049,42.0754,241.7159],[25.9865,42.0889,208.1757],[25.9764,42.091,195.3962],[25.95,42.0902,165.1345],[25.9217,42.1087,169.6714],[25.9063,42.1075,125.6843],[25.8949,42.1037,106.3594],[25.8908,42.1045,112.1934],[25.8853,42.1089,96.4031],[25.8785,42.1114,86.4508],[25.8692,42.1107,85.7903],[25.8623,42.1055,102.8107],[25.8576,42.0975,92.9344],[25.8555,42.0833,152.2858],[25.8465,42.0656,124.5654],[25.8217,42.0609,111.2026],[25.8016,42.0493,133.4279],[25.772,42.0476,139.0623],[25.7593,42.0503,138.5997],[25.7551,42.0528,157.2072],[25.7511,42.0591,163.807],[25.7496,42.0862,144.7991],[25.7457,42.0951,139.5059],[25.7383,42.1023,154.9155],[25.7245,42.1109,165.1876],[25.7199,42.1179,166.978],[25.7154,42.1346,167.1167],[25.7087,42.1403,140.0],[25.6965,42.1418,156.5406],[25.6876,42.14,172.7015],[25.6667,42.1294,146.636],[25.6531,42.1185,159.4581],[25.6421,42.1143,109.199],[25.6361,42.117,107.1403],[25.6354,42.1258,127.9589],[25.6398,42.1447,120.8891],[25.6427,42.1678,151.8507],[25.6416,42.1787,139.9064],[25.639,42.1882,144.2137],[25.6367,42.1906,142.5681],[25.6311,42.1934,153.9214],[25.6217,42.1936,179.4793],[25.6099,42.1894,165.7903],[25.6045,42.185,159.7475],[25.599,42.1787,155.253],[25.5971,42.1691,133.3518],[25.593,42.1635,136.2226],[25.5709,42.1585,167.2346],[25.5642,42.1552,169.6591],[25.5671,42.1517,169.9795],[25.5835,42.1505,151.9078],[25.5833,42.1455,169.9482],[25.5757,42.1404,183.1831],[25.5641,42.1394,162.5185],[25.5525,42.1409,176.9165],[25.5317,42.1529,177.496],[25.5262,42.1538,165.2056],[25.5165,42.1518,177.6992],[25.495,42.1418,154.1242],[25.4878,42.1317,159.2112],[25.4924,42.1204,135.7241],[25.4926,42.1136,150.0627],[25.4803,42.098,163.125],[25.4756,42.0843,103.3737],[25.4689,42.0782,102.8349],[25.4539,42.0779,104.2313],[25.4484,42.0804,103.8552],[25.4347,42.0912,106.0034],[25.4153,42.0929,102.7058],[25.4007,42.0983,109.5536],[25.3841,42.0989,110.558],[25.377,42.0945,114.1759],[25.3596,42.0664,121.9148],[25.3464,42.05,133.0563],[25.3326,42.0229,183.0102],[25.3329,42.0166,222.8586],[25.3409,42.0088,262.1664],[25.3447,41.9981,262.4786],[25.3497,41.9659,249.6746],[25.3453,41.946,279.1481],[25.3286,41.9284,414.699],[25.3181,41.9197,537.2657],[25.2926,41.9013,757.14],[25.2749,41.8919,501.204],[25.277,41.8921,584.431],[25.2719,41.884,492.7995],[25.2693,41.8697,624.7217],[25.2745,41.8517,361.9455],[25.2798,41.8405,364.0806],[25.2803,41.8142,463.6364],[25.2861,41.8109,537.0421],[25.3087,41.8046,424.6694],[25.3158,41.7978,455.1967],[25.3195,41.7903,526.1192],[25.325,41.7887,535.6406],[25.3319,41.7912,467.2075],[25.3358,41.796,448.7837],[25.3387,41.8075,438.2979],[25.3405,41.8094,426.68],[25.3443,41.8118,434.6149],[25.3643,41.8144,323.9434],[25.3677,41.8163,317.6487],[25.3796,41.8298,274.0974],[25.3901,41.8353,265.0352],[25.3961,41.8338,247.0],[25.4046,41.8276,293.6611],[25.4086,41.82,296.9418],[25.412,41.7998,399.328],[25.4183,41.7897,424.8044],[25.4267,41.7821,491.6588],[25.4483,41.7814,537.9451],[25.4572,41.7791,475.2209],[25.4804,41.7634,503.8564],[25.518,41.7531,392.417],[25.5372,41.7414,415.4048],[25.5442,41.7408,382.9037],[25.5603,41.7437,318.4568],[25.5842,41.7522,247.3457],[25.5877,41.7515,241.3186],[25.6032,41.7442,340.4428],[25.6195,41.7316,347.573],[25.6358,41.7219,330.9467],[25.646,41.7118,310.4343],[25.6485,41.6905,414.1503],[25.6514,41.6798,350.8702],[25.6561,41.6706,320.2253],[25.6539,41.6595,319.5893],[25.6469,41.6486,354.6682],[25.6274,41.6351,446.5929],[25.6247,41.6314,448.3119],[25.624,41.6264,257.0223],[25.6265,41.6195,323.3596],[25.6351,41.6116,220.4036],[25.6447,41.6085,166.9504],[25.6635,41.6081,258.8134],[25.6709,41.61,234.0748],[25.6796,41.615,209.1878],[25.691,41.617,163.3123],[25.6989,41.6154,153.659],[25.7101,41.6079,169.7441],[25.7144,41.607,259.3395],[25.7325,41.6123,366.8397],[25.7535,41.6219,209.7274],[25.7646,41.6288,208.7818],[25.7767,41.6439,222.2888],[25.785,41.6488,166.6091],[25.7896,41.6488,159.8091],[25.8066,41.6439,251.0051],[25.8365,41.6432,276.375],[25.8397,41.641,359.2898],[25.8567,41.6101,425.7377],[25.856,41.6007,527.1149],[25.8463,41.5924,614.6852],[25.8377,41.5877,551.499],[25.8086,41.5767,516.8916],[25.8046,41.5737,376.7879],[25.8004,41.5671,441.0206],[25.7906,41.5368,606.3323],[25.7955,41.5101,673.1679],[25.7939,41.4997,579.5805],[25.7971,41.4951,549.1449],[25.8268,41.4923,554.1724],[25.8496,41.4802,398.2449],[25.8737,41.4796,458.8983],[25.8787,41.4768,414.1508],[25.8815,41.4718,360.0393],[25.877,41.4633,315.0096],[25.8573,41.4527,302.0825],[25.8565,41.4502,356.7177],[25.8582,41.4439,319.0662],[25.8563,41.4367,241.4044],[25.8505,41.4291,330.5035],[25.8496,41.4251,405.1947],[25.8512,41.4194,448.3878],[25.8561,41.4121,415.879],[25.8588,41.4003,452.3045],[25.8664,41.3902,392.269],[25.8713,41.3901,365.7149],[25.8807,41.3942,363.6862],[25.8835,41.3817,397.9424],[25.8871,41.3764,410.4528],[25.9156,41.3702,400.5381],[25.923,41.3658,344.99],[25.9308,41.3545,417.1764],[25.9325,41.3493,441.2374],[25.933,41.3325,773.6717],[25.9443,41.3261,665.4485],[25.9432,41.3209,848.6125],[25.9383,41.3145,862.6119],[25.9626,41.3127,519.5676],[25.9705,41.318,530.228],[25.9864,41.323,508.8276],[25.9906,41.3276,485.7695],[25.991,41.333,422.8781],[25.9985,41.3391,348.3687],[26.018,41.3418,353.255],[26.0193,41.3446,388.2549],[26.0294,41.345,388.987],[26.0302,41.3471,380.3368],[26.04,41.3478,338.8372],[26.0508,41.3441,299.9577],[26.0668,41.3471,247.161],[26.0785,41.3434,165.0331],[26.0788,41.3457,157.5454],[26.0864,41.3519,177.3194],[26.0866,41.3486,208.6338],[26.0941,41.3528,109.7898],[26.0997,41.3483,101.5037],[26.1073,41.3517,182.6584],[26.1174,41.3487,173.4128],[26.1232,41.3583,120.1684],[26.1225,41.36,109.965],[26.1244,41.3634,108.4905],[26.1222,41.3641,131.0973],[26.1241,41.3667,132.838],[26.124,41.3707,72.6446],[26.1306,41.3706,155.3692],[26.1367,41.3748,73.6206],[26.1382,41.3815,155.216],[26.1415,41.3849,179.0697],[26.1463,41.3866,175.1167],[26.1457,41.3948,200.514],[26.1502,41.3987,145.9017],[26.1537,41.4075,104.0301],[26.1507,41.4199,87.5662],[26.1597,41.4247,55.9894],[26.1668,41.4345,119.6063],[26.1764,41.4357,53.6571],[26.1828,41.4398,65.1183],[26.1897,41.436,52.6805],[26.1922,41.4394,55.2245],[26.1865,41.4482,83.0885],[26.1726,41.4612,113.5654],[26.1595,41.467,147.0836],[26.1529,41.4727,163.687],[26.1511,41.4831,191.2473],[26.1571,41.4844,240.7027],[26.1702,41.4909,192.795],[26.1726,41.4977,143.6494],[26.1703,41.5008,142.3368],[26.1783,41.5124,190.968],[26.1821,41.5141,200.6633],[26.1838,41.517,192.1808],[26.1797,41.5216,168.1318],[26.1808,41.5271,159.0335],[26.174,41.5522,64.6376],[26.1562,41.5498,97.0755],[26.145,41.552,139.6843],[26.1478,41.5893,309.4645],[26.1509,41.6028,346.2917],[26.1489,41.6042,339.9928],[26.1439,41.6039,314.0979],[26.1414,41.6061,315.508],[26.1407,41.6096,336.1075],[26.1353,41.6111,362.4194],[26.1342,41.6137,359.4106],[26.1358,41.6182,378.6721],[26.134,41.622,373.7057],[26.136,41.6288,425.3437],[26.1239,41.6273,395.0793],[26.1241,41.6249,368.9802],[26.1206,41.6219,353.143],[26.1077,41.625,439.0575],[26.0966,41.6244,491.1598],[26.0917,41.63,511.2218],[26.0939,41.6342,533.4364]]]]}
,"properties": {"GID_1": "BGR.6_1","GID_0": "BGR","country": "Bulgaria","state": "Haskovo","VARNAME_1": "Khaskovo","NL_NAME_1": "Хасково","TYPE_1": "Oblast","ENGTYPE_1": "Province","CC_1": "NA","HASC_1": "BG.KK","ISO_1": "BG-26","name": "Haskovo.state","area_km2": 5315.673,"hist_schema_id": "Elevation0-9000","hist_area_km2": {"50": 82.743,"75": 169.628,"100": 267.188,"125": 343.475,"150": 484.604,"175": 585.819,"200": 509.456,"225": 507.591,"250": 467.526,"275": 345.584,"300": 264.63,"325": 204.274,"350": 179.117,"375": 156.216,"400": 134.79,"425": 114.45,"450": 102.702,"475": 88.591,"500": 70.403,"525": 54.053,"550": 42.713,"575": 32.286,"600": 24.884,"625": 19.452,"650": 15.527,"675": 12.655,"700": 11.56,"725": 9.378,"750": 6.405,"775": 3.939,"800": 2.166,"825": 1.281,"850": 0.475,"875": 0.08}}}