{"type":"Feature","properties":{"featurecla":"River","scalerank":7,"rivernum":442,"dissolve":"442River","name":"Evros1","name_alt":"Maritsa","note":null,"min_zoom":6.0,"strokeweig":0.2,"name_en":"Maritsa","min_label":7.0},
"geometry":{"type": "LineString","coordinates": [[24.070556640625,42.23590729374412,256.6119],[24.088623046875,42.24237702030662,250.748],[24.094140625000023,42.24335358280662,247.2249],[24.108544921875023,42.24201080936912,241.4711],[24.134033203125,42.23212311405662,234.7515],[24.145751953125,42.229754949994117,230.6993],[24.207421875000023,42.229754949994117,225.6794],[24.230712890625,42.22540924686912,221.9684],[24.377197265625,42.16644928593162,195.5164],[24.388427734375,42.15741608280662,193.594],[24.404687500000023,42.15009186405662,192.0727],[24.480712890625,42.15070221561912,185.5825],[24.505126953125,42.14655182499412,180.2485],[24.535546875000023,42.159442449994117,183.1101],[24.933349609375,42.16083405155662,154.1427],[24.9365234375,42.161737371869116,168.4045],[24.938378906250023,42.16388580936912,161.8708],[24.941015625,42.16608307499412,142.7714],[24.94677734375,42.16705963749412,142.6476],[24.952392578125,42.16498444218162,142.7223],[24.958251953125,42.16046784061912,141.3019],[24.962792968750023,42.156024481244117,141.2901],[24.963769531250023,42.15399811405662,142.1812],[24.973535156250023,42.15485260624412,141.0164],[24.98681640625,42.160174871869117,138.7792],[24.997949218750023,42.16083405155662,139.7047],[25.010351562500006,42.15692780155662,138.7722],[25.019775390625,42.15106842655662,140.2537],[25.029687500000023,42.14923737186912,136.2076],[25.0595703125,42.16657135624412,133.823],[25.095703125,42.17255280155662,129.9099],[25.115234375,42.181268621869116,136.297],[25.126074218750006,42.17206452030662,128.8829],[25.141992187500023,42.16705963749412,127.6165],[25.152929687500006,42.16046784061912,126.347],[25.1494140625,42.14655182499412,124.7673],[25.167382812500023,42.144061590619117,124.3942],[25.193261718750023,42.12457916874412,122.2585],[25.214453125,42.119891668744117,121.069],[25.225488281250023,42.12372467655662,119.6165],[25.241943359375,42.13776276249412,121.8504],[25.248779296875,42.136590887494116,121.7196],[25.257421875,42.13275787968162,120.4115],[25.293359375000023,42.13349030155662,116.708],[25.308496093750023,42.13141510624412,118.3633],[25.365136718750023,42.113055731244117,111.3135],[25.386816406250006,42.11408112186912,113.1624],[25.398193359375,42.11310455936912,107.7691],[25.406005859375,42.10932037968162,107.7141],[25.417089843750006,42.10162994999412,106.6931],[25.428613281250023,42.09967682499412,133.0363],[25.439550781250006,42.099969793744116,146.6026],[25.449804687500006,42.098749090619116,124.2339],[25.5015625,42.069354559369117,97.5596],[25.522705078125,42.06525299686912,96.66],[25.601171875,42.07208893436912,92.1878],[25.63427734375,42.06732819218162,92.5617],[25.739013671875,42.02362702030662,94.1009],[25.755957031250006,42.02167389530662,156.0918],[25.810791015625,42.02362702030662,125.1258],[25.820214843750023,42.026874090619117,108.5735],[25.841064453125,42.04096100468162,109.1066],[25.85205078125,42.04413483280662,81.8624],[25.8623046875,42.04083893436912,84.0989],[25.8740234375,42.033075262494116,76.6424],[25.884033203125,42.02399323124412,75.7663],[25.889746093750006,42.01679108280662,86.5018],[25.8955078125,41.997577215619117,82.4288],[25.89892578125,41.977557684369117,85.581],[25.905371093750006,41.961786199994116,73.1405],[25.920654296875,41.95538971561912,70.7943],[25.92919921875,41.947870184369116,67.6588],[25.956933593750023,41.91242096561912,84.5849],[25.971777343750006,41.900751043744116,66.2994],[25.99072265625,41.89484284061912,65.4973],[26.006445312500006,41.892840887494117,73.6225],[26.04345703125,41.893329168744117,91.4408],[26.062255859375,41.88764069218162,124.8838],[26.077880859375,41.87433502811912,67.0634],[26.10205078125,41.84552643436912,62.9951],[26.10888671875,41.840838934369117,58.3779],[26.1265625,41.83173248905662,60.2096],[26.136328125,41.82440827030662,60.3441],[26.141503906250023,41.82172272343162,61.6891],[26.15283203125,41.820428778119116,63.6602],[26.15673828125,41.81879303593162,65.4922],[26.158398437500011,41.813739324994117,66.4555],[26.157324218750006,41.799823309369117,54.6577],[26.16015625,41.79401276249412,54.2778],[26.190527343750006,41.77374909061912,49.8218],[26.1982421875,41.76642487186912,56.6916],[26.203027343750023,41.758075262494117,50.9558],[26.211328125000023,41.75079987186912,49.1243],[26.2255859375,41.749872137494116,48.5223]]}}