{"type":"Feature","properties":{"featurecla":"River","scalerank":7,"rivernum":442,"dissolve":"442River","name":"Evros2","name_alt":"Maritsa","note":null,"min_zoom":6.0,"strokeweig":0.25,"name_en":"Maritsa","min_label":7.0},
"geometry":{"type": "LineString","coordinates": [[26.2255859375,41.749872137494116,48.5223],[26.233984375,41.746112371869117,50.6869],[26.260498046875,41.72333405155662,46.0819],[26.2734375,41.71515534061912,44.9364],[26.29443359375,41.710565496869116,43.948],[26.359082031250011,41.71515534061912,46.5141],[26.376953125,41.71088287968162,47.5297],[26.40390625,41.692157293744117,40.2314],[26.442285156250023,41.68475983280662,38.4121],[26.4599609375,41.67902252811912,37.5885],[26.475683593750006,41.67597077030662,36.4496],[26.491943359375,41.681024481244116,35.7839],[26.491455078125,41.67401764530662,37.9632],[26.49365234375,41.67084381718162,35.3549],[26.4970703125,41.66937897343162,36.5154],[26.499414062500023,41.667352606244116,36.1089],[26.499414062500023,41.667352606244116,36.1089],[26.499414062500023,41.667352606244116,36.1089],[26.499414062500023,41.667352606244116,36.1089],[26.499414062500023,41.667352606244116,36.1089],[26.534277343750006,41.66657135624412,31.5],[26.560791015625,41.654803778119117,35.6715],[26.580468750000023,41.63568756718162,33.0594],[26.594921875000011,41.61273834843162,30.549],[26.5947265625,41.605243231244117,33.3233],[26.595800781250006,41.59784577030662,34.9897],[26.59814453125,41.591083074994117,36.3844],[26.601806640625,41.58539459843162,31.621],[26.597363281250011,41.573504949994117,31.1722],[26.601171875,41.54755280155662,29.8521],[26.594921875000011,41.53766510624412,32.0035],[26.605566406250006,41.52326080936912,36.6752],[26.610449218750006,41.505975653119116,46.659],[26.615478515625,41.468768621869117,25.4018],[26.631738281250023,41.41998932499412,34.0207],[26.635839843750006,41.39984772343162,22.9888],[26.636132812500023,41.37872955936912,23.5815],[26.63125,41.35773346561912,23.1857],[26.6220703125,41.34064362186912,21.5045],[26.609277343750023,41.33100006718162,21.5409],[26.590722656250023,41.32953522343162,20.9389],[26.569042968750011,41.33380768436912,21.1215],[26.550195312500023,41.34198639530662,18.7422],[26.539648437500006,41.352069403119117,17.8871],[26.488867187500006,41.31110260624412,18.9017],[26.478271484375,41.309833074994117,16.6529],[26.474023437500023,41.30658600468162,18.4838],[26.471435546875,41.30219147343162,19.5263],[26.465917968750006,41.29743073124412,17.4332],[26.437890625000023,41.28375885624412,16.2199],[26.411523437500023,41.26593659061912,15.7757],[26.39453125,41.25922272343162,15.4832],[26.331152343750006,41.254413153119117,15.28],[26.320068359375,41.246454168744116,13.0727],[26.33544921875,41.22919342655662,20.1109],[26.325097656250023,41.20722077030662,14.0145],[26.320556640625,41.187860418744116,13.3473],[26.32373046875,41.17011139530662,10.8139],[26.33544921875,41.15277741093162,10.8304],[26.316796875000023,41.13068268436912,10.7012],[26.316796875000023,41.12250397343162,10.8171],[26.331738281250011,41.11933014530662,10.6648],[26.338964843750006,41.114764715619117,9.3522],[26.321875,41.08881256718162,9.8427],[26.324609375000023,41.07428619999412,8.7486],[26.338623046875,41.051776434369117,7.3604],[26.34716796875,41.04120514530662,7.9257],[26.373632812500006,41.031366278119116,6.8974],[26.37451171875,41.019647528119116,8.0468],[26.367578125000023,41.007928778119116,7.2916],[26.359082031250011,41.00263092655662,6.3049],[26.344140625000023,41.00128815311912,5.9564],[26.33544921875,40.99738190311912,7.1059],[26.332617187500006,40.990985418744117,5.7212],[26.33544921875,40.98212311405662,6.2856],[26.345898437500011,40.971942449994117,6.2056],[26.355712890625,40.968377996869116,5.0459],[26.358496093750006,40.96491119999412,5.034],[26.3486328125,40.95477936405662,6.5595],[26.33447265625,40.94647858280662,5.7576],[26.305908203125,40.93622467655662,5.4771],[26.2939453125,40.926874090619116,4.6491]]}}