{"type": "Feature","bbox": [27.0884,42.9241,27.5003,43.1192],"geometry": {"type": "MultiPolygon","coordinates": [[[[27.408,42.9241,242.5741],[27.4253,42.9277,207.068],[27.4548,42.9256,269.9779],[27.4814,42.927,207.1986],[27.4957,42.9321,247.1972],[27.5003,42.9393,342.5845],[27.4983,42.9454,326.7218],[27.4948,42.9497,360.1396],[27.4938,42.9571,397.3796],[27.4938,42.9928,186.8574],[27.4912,42.996,235.0375],[27.4771,43.0006,130.6277],[27.4715,43.0057,41.0371],[27.4707,43.0088,37.8291],[27.4744,43.0171,82.4882],[27.4893,43.031,26.2268],[27.4945,43.0411,22.2684],[27.4816,43.0567,110.7289],[27.4766,43.0652,141.0438],[27.4797,43.0728,127.1323],[27.4869,43.0794,199.7041],[27.4775,43.0827,198.8355],[27.468,43.0831,171.4149],[27.4521,43.0785,218.3619],[27.4461,43.075,190.8924],[27.4316,43.0748,140.0211],[27.4281,43.0794,218.0165],[27.4287,43.0889,224.9552],[27.4258,43.0941,187.2398],[27.4303,43.1038,69.1869],[27.4304,43.1103,42.525],[27.4255,43.1169,33.0031],[27.4224,43.1179,40.301],[27.3983,43.1192,37.2445],[27.3788,43.1165,72.7099],[27.3571,43.0981,199.7512],[27.352,43.0949,258.4419],[27.3451,43.0936,255.247],[27.341,43.095,279.7389],[27.3353,43.1009,229.1847],[27.3293,43.1019,291.7728],[27.3175,43.1008,96.6112],[27.3117,43.1027,121.4228],[27.2994,43.1007,101.0836],[27.2894,43.0968,119.5347],[27.2784,43.0957,117.9025],[27.2759,43.0971,104.2536],[27.2767,43.1016,94.3167],[27.283,43.1082,85.8754],[27.2822,43.1102,73.1511],[27.2744,43.1108,76.7399],[27.2542,43.0989,120.1957],[27.2407,43.0958,173.4283],[27.2391,43.0913,250.8658],[27.2384,43.0864,291.0946],[27.2464,43.0694,225.0457],[27.2448,43.0661,193.5737],[27.258,43.0559,92.4885],[27.2594,43.0537,111.1885],[27.2585,43.0487,151.7298],[27.2539,43.0476,189.8979],[27.2445,43.0496,177.3807],[27.2229,43.0505,312.6958],[27.2032,43.048,172.8809],[27.1822,43.0423,42.2662],[27.1497,43.0433,213.7732],[27.1408,43.0391,343.4524],[27.1377,43.0295,321.8636],[27.1336,43.0261,426.622],[27.1216,43.0254,333.2341],[27.0998,43.0276,433.0474],[27.09,43.0256,396.2876],[27.0884,43.0231,340.0144],[27.090699999999998,43.0204,348.1217],[27.1011,43.0153,298.3043],[27.1044,43.0108,314.7631],[27.1025,43.0032,396.3186],[27.0966,42.992,375.423],[27.0969,42.988,400.3784],[27.102,42.9857,340.258],[27.1298,42.9844,212.9798],[27.134,42.9829,203.4452],[27.1377,42.9785,211.385],[27.1374,42.9707,263.5881],[27.128,42.9472,498.2874],[27.1416,42.9465,490.8949],[27.1597,42.9509,506.1656],[27.1874,42.9639,295.2417],[27.1977,42.9719,205.9212],[27.22,42.9797,374.6058],[27.2401,42.9801,320.7535],[27.3,42.9754,58.5],[27.3458,42.9663,178.7506],[27.36,42.9562,348.2037],[27.371,42.9412,144.0524],[27.3909,42.933,404.299],[27.4005,42.9263,260.6096],[27.408,42.9241,242.5741]]]]}
,"properties": {"GID_2": "BGR.24.5_1","GID_0": "BGR","country": "Bulgaria","GID_1": "BGR.24_1","state": "Varna","NL_NAME_1": "Варна","county": "Dalgopol","VARNAME_2": "NA","NL_NAME_2": "NA","TYPE_2": "Obshtina","ENGTYPE_2": "Municipality","CC_2": "NA","HASC_2": "BG.VN.DA","name": "Dalgopol.county","area_km2": 419.9838,"hist_schema_id": "Elevation0-9000","hist_area_km2": {"25": 37.1892,"50": 38.0395,"75": 31.7121,"100": 43.323,"125": 44.0665,"150": 38.6117,"175": 35.7437,"200": 34.1482,"225": 27.8741,"250": 23.3484,"275": 16.6683,"300": 13.7548,"325": 10.7483,"350": 8.8098,"375": 5.3359,"400": 3.5674,"425": 2.73,"450": 1.9081,"475": 1.4428,"500": 0.6827,"525": 0.2793}}}