{"type":"Feature","properties":{"ISO3166-1-Alpha-3":"BGR","country":"Bulgaria","fill":"#FF0","id":"2237","name":"Kardzhali"},
"geometry":{"type": "Polygon","coordinates": [[[25.22257,41.9037,678.5865],[25.19591,41.90858,610.8226],[25.17297,41.89749,613.8356],[25.16397,41.88576,516.0872],[25.1494,41.88178,498.4115],[25.13348,41.86639,695.0203],[25.12429,41.84453,1021.5285],[25.10207,41.83101,918.8607],[25.097,41.80902,803.775],[25.09111,41.79334,896.5764],[25.06713,41.79497,864.7405],[25.04956,41.7806,1169.4639],[25.0383,41.76081,1128.3192],[25.04894,41.74358,857.059],[25.0661,41.72536,693.4658],[25.07705,41.69193,596.4535],[25.09101,41.68138,588.1094],[25.08439,41.6618,859.3607],[25.08625,41.63872,1121.5959],[25.0939,41.62924,700.5825],[25.09018,41.62172,666.0678],[25.06506,41.60772,651.0956],[25.03747,41.60255,714.7197],[25.01473,41.60578,876.861],[24.99344,41.59968,1061.8577],[24.99365,41.57751,941.0096],[25.01163,41.55899,623.9192],[25.02755,41.52865,829.8193],[25.04708,41.50052,814.4733],[25.07075,41.4916,972.9949],[25.08863,41.51201,732.4382],[25.14206,41.52349,910.6129],[25.15291,41.47747,729.6656],[25.14692,41.46465,780.8954],[25.15178,41.45533,693.2443],[25.14826,41.4306,484.4827],[25.13483,41.4082,671.0817],[25.14382,41.39603,652.0186],[25.15478,41.38375,445.1021],[25.14971,41.37505,457.0677],[25.1464,41.36551,445.6249],[25.15478,41.31831,631.0934],[25.15385,41.30754,447.8501],[25.15787,41.30611,493.5182],[25.1771,41.29386,536.1891],[25.21968,41.24973,631.027],[25.23911,41.24089,915.5805],[25.26226,41.2381,948.7371],[25.28572,41.2394,1241.4255],[25.45346,41.28043,907.5135],[25.4791,41.28379,745.6348],[25.48948,41.28306,652.2326],[25.49734,41.2812,595.7477],[25.50509,41.28058,568.2133],[25.51491,41.28348,678.4734],[25.52369,41.29169,609.1926],[25.5302,41.30275,590.2321],[25.53795,41.31221,790.1265],[25.55149,41.31567,752.1601],[25.63976,41.31107,638.9382],[25.64958,41.30849,707.1207],[25.67045,41.29919,556.5419],[25.67996,41.29717,658.5171],[25.69123,41.29841,699.3386],[25.69805,41.30192,778.0819],[25.70518,41.3073,673.3943],[25.71748,41.31412,763.8696],[25.72874,41.31707,677.1238],[25.76347,41.31903,665.7461],[25.80078,41.33805,707.1792],[25.81101,41.34104,671.7012],[25.83334,41.33464,703.0798],[25.86269,41.31009,1036.2257],[25.88202,41.30404,1214.3612],[25.89628,41.30627,1062.6927],[25.92119,41.31603,914.2274],[25.93514,41.31593,853.2026],[25.94858,41.31397,693.1555],[25.95963,41.315,545.9752],[25.98227,41.32327,537.605],[26.00893,41.33681,434.993],[26.02185,41.34166,353.2277],[26.10733,41.3566,102.6421],[26.11466,41.3552,100.959],[26.12087,41.35779,115.8678],[26.13244,41.37153,161.6899],[26.14784,41.39691,177.0596],[26.159,41.42181,56.754],[26.16427,41.42786,54.9931],[26.17058,41.42957,54.5295],[26.17564,41.43189,57.8615],[26.1774,41.43995,98.5779],[26.1743,41.446,144.889],[26.16045,41.45587,148.1615],[26.15621,41.46042,132.6284],[26.14588,41.47804,192.3499],[26.14763,41.48476,239.7765],[26.15931,41.4938,168.7013],[26.16293,41.50646,166.4977],[26.16448,41.51773,196.4426],[26.16314,41.52915,125.185],[26.15807,41.54232,99.7832],[26.15249,41.54703,116.4229],[26.13678,41.5492,184.4772],[26.1312,41.55266,178.1607],[26.12944,41.55938,189.763],[26.13099,41.57514,232.1219],[26.13027,41.58268,204.2335],[26.12107,41.60821,287.0224],[26.11528,41.61663,350.7787],[26.10671,41.62428,426.7867],[26.09523,41.62839,527.1774],[26.08118,41.63046,445.3553],[26.06691,41.6355,491.2079],[26.05949,41.64378,417.3779],[26.05901,41.64397,417.3779],[26.05239,41.64663,471.0909],[26.00981,41.63575,281.2993],[25.99886,41.61906,319.6247],[25.98056,41.61937,138.0671],[25.96423,41.6126,331.1713],[25.9569,41.59198,373.7271],[25.9169,41.56271,408.2611],[25.87308,41.57816,619.0696],[25.8276,41.61477,495.3745],[25.82088,41.63436,409.2655],[25.81716,41.65482,225.0884],[25.78223,41.66464,223.2826],[25.74699,41.6517,152.3334],[25.73489,41.63201,159.2735],[25.71474,41.62105,228.7001],[25.69707,41.62335,154.7931],[25.68022,41.63043,196.9339],[25.65852,41.62314,277.8087],[25.63909,41.62035,221.5],[25.6056,41.63366,312.0384],[25.61139,41.6612,320.5571],[25.63402,41.70092,407.6109],[25.60777,41.74094,349.5793],[25.59713,41.75321,240.6086],[25.58576,41.76138,264.7798],[25.56715,41.76148,294.0806],[25.5501,41.76978,356.4959],[25.5316,41.7867,268.1581],[25.50969,41.78593,329.5834],[25.49222,41.77138,455.209],[25.47083,41.76998,523.0535],[25.44923,41.78401,439.7365],[25.4084,41.79778,424.9979],[25.39889,41.81187,379.5909],[25.40024,41.8314,272.3023],[25.38928,41.84665,247.0],[25.37016,41.84602,256.9138],[25.35311,41.83848,289.1072],[25.33037,41.81755,466.773],[25.29999,41.8097,464.9427],[25.24717,41.81703,456.3349],[25.21079,41.87848,653.7388],[25.22257,41.9037,678.5865]]]}}