{"type":"Feature","properties":{"GID_1":"BGR.7_1","GID_0":"BGR","country":"Bulgaria","state":"Kardzhali","VARNAME_1":"Kurdjali|Kârdžali|Kirjali","NL_NAME_1":"Кърджалийска","TYPE_1":"Oblast","ENGTYPE_1":"Province","CC_1":"NA","HASC_1":"BG.KZ","ISO_1":"BG-09","name":"Kardzhali.state"},
"geometry":{"type": "MultiPolygon","coordinates": [[[[25.437,41.7812,484.8368],[25.4267,41.7821,491.6588],[25.4183,41.7897,424.8044],[25.412,41.7998,399.328],[25.4086,41.82,296.9418],[25.4046,41.8276,293.6611],[25.3961,41.8338,247.0],[25.3901,41.8353,265.0352],[25.3796,41.8298,274.0974],[25.3677,41.8163,317.6487],[25.3643,41.8144,323.9434],[25.3443,41.8118,434.6149],[25.3405,41.8094,426.68],[25.334,41.7928,437.6202],[25.3277,41.789,500.5864],[25.3195,41.7903,526.1192],[25.3158,41.7978,455.1967],[25.3087,41.8046,424.6694],[25.2817,41.8124,501.9319],[25.2797,41.8158,459.776],[25.2798,41.8405,364.0806],[25.2745,41.8517,361.9455],[25.2693,41.8697,624.7217],[25.2719,41.884,492.7995],[25.277,41.8921,584.431],[25.2635,41.8903,480.321],[25.2409,41.8797,670.5489],[25.2188,41.8722,559.1812],[25.2033,41.8602,648.7758],[25.1914,41.8457,749.1647],[25.1755,41.8338,847.0334],[25.1672,41.8304,910.3267],[25.1512,41.819,898.2166],[25.1408,41.7901,660.988],[25.1365,41.7857,535.3005],[25.0984,41.772,793.6378],[25.0927,41.7667,925.4544],[25.0888,41.7564,1118.0828],[25.0891,41.7408,982.1057],[25.0957,41.7275,1145.2174],[25.0964,41.7225,1029.2434],[25.1006,41.7186,1149.0505],[25.0998,41.7143,1143.9113],[25.1054,41.7008,853.041],[25.1059,41.6944,702.1189],[25.124,41.6663,594.4381],[25.1301,41.6597,526.9968],[25.1306,41.6548,458.1577],[25.1212,41.64,607.1107],[25.1213,41.6301,451.0245],[25.1267,41.6186,551.4904],[25.1268,41.6108,704.8735],[25.1223,41.6033,831.5729],[25.1145,41.5959,1009.7618],[25.0915,41.5835,976.3035],[25.0818,41.5821,865.9709],[25.0359,41.5817,759.3548],[25.017,41.5782,907.7709],[25.0137,41.5744,911.3038],[25.0107,41.5612,730.3312],[25.0155,41.5507,642.4685],[25.0364,41.5313,703.1584],[25.0396,41.5208,753.4373],[25.0388,41.5115,704.4281],[25.0638,41.4958,762.4586],[25.0687,41.493899999999996,864.1813],[25.08,41.4933,808.7588],[25.1018,41.4942,852.7763],[25.1152,41.4964,817.8237],[25.1332,41.5032,895.7488],[25.1626,41.5056,846.3284],[25.1762,41.5027,813.7144],[25.1892,41.4913,801.3669],[25.1901,41.4804,748.9273],[25.1888,41.4776,768.5048],[25.1835,41.4739,866.6584],[25.1818,41.4518,684.0139],[25.1744,41.4498,638.8535],[25.1694,41.4429,733.2764],[25.1538,41.4337,544.9686],[25.1547,41.4313,525.1671],[25.1586,41.4303,647.8329],[25.1824,41.4304,756.1572],[25.1863,41.4283,737.0061],[25.186,41.4223,729.7382],[25.1777,41.4142,712.7128],[25.1603,41.406,554.4669],[25.1494,41.4029,489.2897],[25.1438,41.3981,617.4488],[25.1527,41.3945,533.1078],[25.1588,41.3826,379.0981],[25.1578,41.3772,500.1706],[25.1531,41.3694,543.5205],[25.1503,41.3596,509.7615],[25.1505,41.3544,437.4556],[25.1576,41.3496,446.9561],[25.1596,41.3365,540.8308],[25.1355,41.32,554.0408],[25.1416,41.3204,517.1098],[25.1476,41.3154,543.4355],[25.1581,41.3155,545.3774],[25.161,41.3129,521.0799],[25.1617,41.3101,615.7964],[25.1726,41.3061,630.214],[25.1701,41.3002,478.9305],[25.1747,41.2971,522.8388],[25.1746,41.2955,471.8552],[25.1811,41.2923,682.3126],[25.1879,41.2937,688.2057],[25.1914,41.2899,569.1279],[25.2001,41.2893,657.9185],[25.2058,41.2811,557.5804],[25.21,41.2809,562.6008],[25.2139,41.2774,516.7929],[25.2169,41.2672,509.474],[25.2145,41.2628,514.8835],[25.2168,41.2627,611.3421],[25.2247,41.2527,595.9596],[25.2233,41.2456,648.1473],[25.2308,41.2434,736.3931],[25.244,41.2456,1038.4551],[25.2643,41.242,1149.1703],[25.2795,41.2348,1299.9105],[25.284,41.242,1170.2554],[25.2883,41.2439,1157.1716],[25.3075,41.2432,1223.0197],[25.3196,41.2405,1113.8154],[25.3228,41.2418,1138.834],[25.328,41.2403,1079.0972],[25.3335,41.2471,903.8564],[25.3418,41.2474,1086.8008],[25.3449,41.2503,992.3954],[25.3483,41.2499,964.1483],[25.3516,41.255,750.6729],[25.3593,41.2592,753.8277],[25.377,41.2559,973.4739],[25.3809,41.2577,1064.6951],[25.3868,41.2573,1054.3984],[25.3952,41.2618,893.2162],[25.4017,41.2609,942.903],[25.404,41.2645,869.1187],[25.4089,41.2657,781.3979],[25.4152,41.2638,722.1954],[25.4205,41.2642,747.3282],[25.4242,41.2745,746.212],[25.4348,41.2751,874.691],[25.4439,41.28,894.1956],[25.4501,41.2802,919.098],[25.4543,41.2828,853.8575],[25.461,41.2818,927.7135],[25.4669,41.2874,819.0562],[25.5005,41.2855,702.4289],[25.5097,41.2832,660.3174],[25.518,41.2769,637.5656],[25.5246,41.2782,686.5976],[25.5263,41.2864,590.6947],[25.5285,41.2888,603.5984],[25.5275,41.2906,632.045],[25.5311,41.2936,690.4524],[25.5338,41.2991,626.8545],[25.5358,41.2997,665.0568],[25.5378,41.3082,697.7317],[25.5502,41.3129,834.1964],[25.5528,41.3159,838.1436],[25.5679,41.3152,718.6593],[25.573,41.3167,721.8699],[25.5757,41.3136,728.4044],[25.5836,41.3113,929.9738],[25.5832,41.3083,902.2179],[25.5893,41.3058,836.87],[25.5971,41.3062,831.2839],[25.6068,41.3022,745.8551],[25.616,41.3012,633.6797],[25.6291,41.3081,589.7878],[25.634,41.3081,568.679],[25.639,41.3104,612.3877],[25.6444,41.3094,668.3867],[25.65,41.3104,734.3456],[25.6567,41.3048,550.2702],[25.675,41.3028,598.9844],[25.6764,41.3011,707.3791],[25.686,41.2988,726.3854],[25.6878,41.2954,646.771],[25.6921,41.2931,790.4913],[25.7015,41.2912,882.8154],[25.7053,41.2934,930.9092],[25.7039,41.2995,731.2371],[25.7084,41.305,719.1405],[25.7094,41.3111,686.8186],[25.7151,41.3125,779.0939],[25.7192,41.316,743.3297],[25.7372,41.3161,659.6835],[25.7421,41.3132,699.2369],[25.7466,41.313,723.0526],[25.7543,41.3176,667.7715],[25.7604,41.3142,632.9423],[25.7654,41.3155,616.7449],[25.771,41.3146,638.9258],[25.7752,41.321,659.8948],[25.7822,41.3245,646.1804],[25.788,41.3299,660.3873],[25.7954,41.3314,652.0162],[25.7994,41.3297,667.2195],[25.8005,41.3322,705.4641],[25.8053,41.3345,678.1536],[25.8106,41.3339,694.6562],[25.8117,41.3368,742.2407],[25.8219,41.3334,645.2418],[25.8248,41.33,662.9589],[25.8354,41.3274,708.6482],[25.8396,41.3241,797.7214],[25.8389,41.3214,785.8131],[25.841,41.3186,790.1354],[25.854,41.3207,856.8703],[25.8599,41.3201,973.9178],[25.8585,41.312,1100.0222],[25.8548,41.3054,889.7261],[25.87,41.2992,962.1565],[25.8801,41.3016,1181.3289],[25.8907,41.3004,1075.0841],[25.9061,41.3079,1027.3436],[25.9154,41.3091,982.257],[25.9221,41.3148,966.1235],[25.9324,41.3132,886.4178],[25.9383,41.3145,862.6119],[25.9432,41.3209,848.6125],[25.9443,41.3261,665.4485],[25.933,41.3325,773.6717],[25.9325,41.3493,441.2374],[25.9308,41.3545,417.1764],[25.923,41.3658,344.99],[25.9156,41.3702,400.5381],[25.8871,41.3764,410.4528],[25.8835,41.3817,397.9424],[25.8807,41.3942,363.6862],[25.8713,41.3901,365.7149],[25.8664,41.3902,392.269],[25.8588,41.4003,452.3045],[25.8561,41.4121,415.879],[25.8512,41.4194,448.3878],[25.8496,41.4251,405.1947],[25.8505,41.4291,330.5035],[25.8563,41.4367,241.4044],[25.8582,41.4439,319.0662],[25.8565,41.4502,356.7177],[25.8573,41.4527,302.0825],[25.877,41.4633,315.0096],[25.8815,41.4718,360.0393],[25.8787,41.4768,414.1508],[25.8737,41.4796,458.8983],[25.8496,41.4802,398.2449],[25.8268,41.4923,554.1724],[25.7971,41.4951,549.1449],[25.7939,41.4997,579.5805],[25.7955,41.5101,673.1679],[25.7906,41.5368,606.3323],[25.8004,41.5671,441.0206],[25.8046,41.5737,376.7879],[25.8086,41.5767,516.8916],[25.8377,41.5877,551.499],[25.8463,41.5924,614.6852],[25.856,41.6007,527.1149],[25.8567,41.6101,425.7377],[25.8397,41.641,359.2898],[25.8365,41.6432,276.375],[25.8066,41.6439,251.0051],[25.7896,41.6488,159.8091],[25.785,41.6488,166.6091],[25.7767,41.6439,222.2888],[25.7646,41.6288,208.7818],[25.7535,41.6219,209.7274],[25.7325,41.6123,366.8397],[25.7144,41.607,259.3395],[25.7101,41.6079,169.7441],[25.6989,41.6154,153.659],[25.691,41.617,163.3123],[25.6796,41.615,209.1878],[25.6709,41.61,234.0748],[25.6635,41.6081,258.8134],[25.6447,41.6085,166.9504],[25.6351,41.6116,220.4036],[25.6265,41.6195,323.3596],[25.624,41.6264,257.0223],[25.6247,41.6314,448.3119],[25.6274,41.6351,446.5929],[25.6469,41.6486,354.6682],[25.6539,41.6595,319.5893],[25.6561,41.6706,320.2253],[25.6514,41.6798,350.8702],[25.6485,41.6905,414.1503],[25.646,41.7118,310.4343],[25.6384,41.7199,329.2734],[25.6195,41.7316,347.573],[25.6032,41.7442,340.4428],[25.5877,41.7515,241.3186],[25.5842,41.7522,247.3457],[25.5603,41.7437,318.4568],[25.5442,41.7408,382.9037],[25.5372,41.7414,415.4048],[25.518,41.7531,392.417],[25.4804,41.7634,503.8564],[25.4572,41.7791,475.2209],[25.4483,41.7814,537.9451],[25.437,41.7812,484.8368]]]]}}