{"type": "Feature","id": 138264.0,"bbox": [25.41627037852129,41.624029852337912,25.605967644146233,41.669317938275356],"geometry": {"type": "MultiPolygon","coordinates": [[[[25.466296306634149,41.62582636775096,276.8512],[25.46949303477129,41.624945379681662,259.2896],[25.469924080876808,41.6260714876322,236.925],[25.466296306634149,41.62582636775096,276.8512]]],
[[[25.466296306634149,41.62582636775096,276.8512],[25.453990105083733,41.629217840619049,384.7054],[25.430674675396233,41.637152410931662,256.209],[25.41627037852129,41.6337954773378,278.2003],[25.43970787852129,41.624029852337912,221.5],[25.466296306634149,41.62582636775096,276.8512]]],
[[[25.60108483164629,41.649908758587856,237.276],[25.587412956646347,41.652594305462912,240.9942],[25.578623894146347,41.659002996869049,303.791],[25.570811394146347,41.669317938275356,349.2697],[25.560313347271347,41.666876532025356,253.1734],[25.54175865977129,41.6544253601503,276.5345],[25.51392662852129,41.645331121869106,416.7881],[25.488047722271347,41.645025946087742,280.328],[25.474375847271233,41.637701727337856,224.584],[25.469924080876808,41.6260714876322,236.925],[25.475840691021347,41.626471258587912,221.5],[25.501963737896347,41.635931707806549,283.7396],[25.52479088633379,41.641119696087856,262.8287],[25.546641472271233,41.647162176556549,221.5],[25.578623894146347,41.645025946087742,221.5],[25.599864128521233,41.637091375775356,221.5],[25.605967644146233,41.6398989929628,309.4124],[25.60108483164629,41.649908758587856,237.276]]]]}
,"properties": {"name": null,"lge_id": null,"pfafstette": 6315.0,"lke_type": "N","altitude": 219,"objectid": 85711,"scalerank": 12,"featurecla": "Lake","note": "_untitled_85711","funkyname": 0,"min_zoom": 7.0,"min_label": 8.0,"area_km2": 17.69771,"hist_schema_id": "Elevation0-9000","hist_area_km2": {"225": 8.08056,"250": 2.61421,"275": 2.42403,"300": 0.99816,"325": 0.79218,"350": 0.66543,"375": 0.68127,"400": 0.38028,"425": 0.30106,"450": 0.30105,"475": 0.26935,"500": 0.03169,"525": 0.06337,"550": 0.04753,"575": 0.04753}}}