{"type":"Feature","properties":{"GID_2":"BGR.4.4_1","GID_0":"BGR","country":"Bulgaria","GID_1":"BGR.4_1","state":"Gabrovo","NL_NAME_1":"Габрово","county":"Tryavna","VARNAME_2":"NA","NL_NAME_2":"Трявна","TYPE_2":"Obshtina","ENGTYPE_2":"Municipality","CC_2":"NA","HASC_2":"BG.GB.TR","name":"Tryavna.county"},
"geometry":{"type": "MultiPolygon","coordinates": [[[[25.4906,42.8871,488.0943],[25.4856,42.8745,458.5096],[25.4695,42.8603,451.3441],[25.4442,42.8325,687.7333],[25.4378,42.8168,754.7053],[25.4378,42.812,787.1998],[25.442,42.8052,729.9977],[25.4518,42.7991,834.9918],[25.457,42.7937,756.5595],[25.459,42.7892,797.6009],[25.4593,42.7712,1047.7891],[25.4624,42.763,1275.0414],[25.4869,42.7633,1238.3271],[25.501,42.7603,1117.3899],[25.5101,42.7549,1208.8201],[25.5181,42.7475,1183.3191],[25.5275,42.7425,998.9521],[25.5482,42.7368,1077.1067],[25.5772,42.7406,853.5583],[25.5892,42.7491,898.8612],[25.606,42.7537,863.4539],[25.616,42.7538,735.0544],[25.623,42.7522,809.2352],[25.6304,42.7462,841.8303],[25.6392,42.7354,653.5557],[25.6491,42.7317,792.3939],[25.6551,42.7312,724.5583],[25.6655,42.7343,594.3152],[25.6745,42.7416,606.3354],[25.6774,42.7502,753.5081],[25.6708,42.7573,679.3928],[25.6638,42.7621,625.0839],[25.6523,42.7646,777.4],[25.6431,42.7685,796.6176],[25.641,42.7901,868.1591],[25.637,42.7967,810.6438],[25.6241,42.8093,698.7506],[25.623,42.8125,618.3556],[25.623,42.8206,489.9528],[25.6268,42.8273,435.6771],[25.6604,42.8444,515.0085],[25.6664,42.8494,555.2842],[25.6694,42.8558,421.1878],[25.6683,42.8601,456.6085],[25.6657,42.8627,470.7219],[25.646,42.8677,406.5056],[25.6472,42.883,388.5968],[25.6465,42.8975,414.3672],[25.645,42.8992,399.5739],[25.6371,42.902,492.9218],[25.6116,42.9006,617.5803],[25.6086,42.9014,657.334],[25.5955,42.9117,612.8186],[25.5819,42.9049,574.2617],[25.5623,42.9028,544.6327],[25.5411,42.9065,696.6425],[25.5195,42.9069,635.7863],[25.5139,42.9062,573.9053],[25.5062,42.9021,461.7016],[25.4997,42.8976,534.8958],[25.4906,42.8871,488.0943]]]]}}