{"type":"Feature","properties":{"GID_2":"BGR.14.2_1","GID_0":"BGR","country":"Bulgaria","GID_1":"BGR.14_1","state":"Plovdiv","NL_NAME_1":"Пловдив","county":"Brezovo","VARNAME_2":"NA","NL_NAME_2":"Брезово","TYPE_2":"Obshtina","ENGTYPE_2":"Municipality","CC_2":"NA","HASC_2":"BG.PD.BR","name":"Brezovo.county"},
"geometry":{"type": "MultiPolygon","coordinates": [[[[24.9113,42.3226,190.7517],[24.938,42.3227,197.6221],[24.9495,42.3134,196.0963],[24.96,42.3128,197.2193],[24.9712,42.315,201.6377],[24.9802,42.3214,208.9007],[24.9896,42.3219,211.2157],[25.0071,42.3147,210.6928],[25.0219,42.3132,212.5497],[25.039,42.3086,216.8388],[25.0439,42.3058,210.4006],[25.0604,42.2909,198.3771],[25.0823,42.2614,174.6566],[25.0945,42.2524,169.2946],[25.1075,42.2493,166.4123],[25.1076,42.2353,165.5827],[25.1099,42.2348,161.3713],[25.1174,42.2393,163.6451],[25.1392,42.245,165.3195],[25.2083,42.2488,189.0654],[25.2155,42.2525,193.0823],[25.2165,42.2559,197.1641],[25.216,42.2602,205.8343],[25.2094,42.2671,233.4671],[25.1964,42.2722,250.0217],[25.1805,42.2748,236.335],[25.1696,42.2803,245.7294],[25.1563,42.28,236.0508],[25.1505,42.2828,201.8471],[25.147,42.2906,186.8009],[25.1449,42.3018,212.9789],[25.1494,42.3548,293.1113],[25.1432,42.3855,383.7746],[25.1451,42.3893,406.171],[25.1518,42.3926,410.8295],[25.1601,42.3933,385.8245],[25.171,42.3919,381.3796],[25.2106,42.3779,298.7182],[25.2259,42.3765,290.6458],[25.2374,42.379,327.9761],[25.2432,42.3884,320.503],[25.2401,42.4027,339.0633],[25.2033,42.4177,369.36],[25.1918,42.4238,426.3384],[25.1887,42.4285,441.1223],[25.1895,42.4328,479.8633],[25.1918,42.4345,455.0773],[25.2116,42.4424,503.4973],[25.219,42.4483,497.818],[25.2262,42.4696,707.1161],[25.2145,42.4852,912.4799],[25.2074,42.4897,862.5335],[25.1972,42.4916,827.1947],[25.1869,42.4898,921.233],[25.172,42.4831,951.3055],[25.1511,42.4817,676.6753],[25.1365,42.4785,702.1707],[25.1275,42.4789,675.4829],[25.1066,42.4876,772.2412],[25.0833,42.491,1018.5121],[25.0716,42.4979,1046.672],[25.0567,42.5142,1034.7072],[25.0512,42.5369,755.3693],[25.0168,42.5336,768.9788],[25.0112,42.5291,816.2498],[25.0086,42.5241,694.9635],[25.0098,42.5102,763.0793],[25.0155,42.4873,799.3776],[25.0117,42.4632,536.8845],[25.0095,42.4591,547.6289],[24.9953,42.4545,508.7616],[24.9828,42.4572,545.168],[24.9658,42.4648,797.7693],[24.9505,42.4672,635.6385],[24.9376,42.4447,381.0764],[24.9344,42.4375,338.6292],[24.9347,42.4267,323.731],[24.9405,42.4213,331.9406],[24.9519,42.4162,329.729],[24.9563,42.409,301.5168],[24.9538,42.4042,289.2574],[24.9504,42.4019,286.4898],[24.9217,42.395,254.7615],[24.9161,42.3923,252.4663],[24.911,42.3859,244.3997],[24.9088,42.3806,238.792],[24.9076,42.366,223.7402],[24.9017,42.3532,212.2281],[24.9012,42.3468,205.168],[24.9111,42.3276,191.7837],[24.9113,42.3226,190.7517]]]]}}