{"type": "Feature","bbox": [26.3444,43.8816,26.771,44.0788],"geometry": {"type": "MultiPolygon","coordinates": [[[[26.6672,43.8816,160.5707],[26.6733,43.8883,126.0362],[26.6985,43.9047,111.141],[26.7149,43.9179,118.3175],[26.7245,43.9271,130.3645],[26.7294,43.9384,134.4581],[26.7372,43.9508,126.8176],[26.7418,43.9553,116.3199],[26.7616,43.9675,69.2653],[26.7704,43.9762,94.8739],[26.771,43.9837,119.647],[26.763,43.9965,120.9292],[26.7646,44.0005,115.7812],[26.7632,44.0061,102.8706],[26.7562,44.0169,125.899],[26.7578,44.0205,121.0764],[26.7663,44.0271,128.5164],[26.7685,44.0329,120.3374],[26.7667,44.0788,8.5],[26.7252,44.073,9.3676],[26.7252,44.0748,21.0797],[26.7096,44.0765,15.6348],[26.6918,44.0747,9.5],[26.6643,44.0651,9.5],[26.6653,44.0631,10.2444],[26.6165,44.0565,10.0],[26.5943,44.0503,24.9297],[26.5719,44.0543,10.0],[26.5298,44.0539,10.0],[26.5036,44.047,10.5],[26.4592,44.0388,10.5],[26.4601,44.0364,29.0358],[26.4467,44.034,34.0631],[26.4361,44.0334,36.393],[26.436,44.0356,10.5],[26.4079,44.0377,14.8353],[26.4011,44.0405,10.5],[26.3815,44.0432,10.5],[26.3727,44.0424,36.086],[26.3444,44.0344,10.5],[26.3566,44.0235,15.9684],[26.3869,44.0134,14.2298],[26.3948,44.0084,15.0243],[26.3967,44.0031,18.0284],[26.3934,43.9986,28.1408],[26.3733,43.9817,29.409],[26.3754,43.9731,42.742],[26.3876,43.9589,45.8862],[26.4119,43.9584,48.9487],[26.4286,43.9615,41.7255],[26.4499,43.9565,40.9888],[26.4706,43.9549,76.1612],[26.4781,43.9508,106.3508],[26.4835,43.9402,105.1267],[26.4888,43.9341,114.3429],[26.4986,43.9319,74.5512],[26.5093,43.9331,115.1805],[26.5345,43.9417,52.3873],[26.5592,43.9475,32.6968],[26.5732,43.9483,75.2397],[26.5857,43.9464,78.5675],[26.5917,43.9372,95.8485],[26.61,43.9221,98.6356],[26.6132,43.9037,96.0716],[26.6208,43.8939,111.3621],[26.6292,43.8898,129.5356],[26.6672,43.8816,160.5707]]]]}
,"properties": {"GID_2": "BGR.18.7_1","GID_0": "BGR","country": "Bulgaria","GID_1": "BGR.18_1","state": "Silistra","NL_NAME_1": "Силистра","county": "Tutrakan","VARNAME_2": "Turtucaia","NL_NAME_2": "Тутракан","TYPE_2": "Obshtina","ENGTYPE_2": "Municipality","CC_2": "NA","HASC_2": "BG.SI.TU","name": "Tutrakan.county","area_km2": 421.2565,"hist_schema_id": "Elevation0-9000","hist_area_km2": {"0": 18.8805,"25": 94.0152,"50": 46.4518,"75": 50.4719,"100": 65.3651,"125": 143.7985,"150": 2.2737}}}