{"type":"Feature","properties":{"GID_2":"BGR.23.5_1","GID_0":"BGR","country":"Bulgaria","GID_1":"BGR.23_1","state":"Targovishte","NL_NAME_1":"Търговищка","county":"Targovishte","VARNAME_2":"NA","NL_NAME_2":"Търговищкаобласт","TYPE_2":"Obshtina","ENGTYPE_2":"Municipality","CC_2":"NA","HASC_2":"BG.TU.TA","name":"Targovishte.county"},
"geometry":{"type": "MultiPolygon","coordinates": [[[[26.3884,43.2766,401.9431],[26.3756,43.2685,344.8868],[26.3617,43.2661,377.4477],[26.3495,43.2618,258.3616],[26.346,43.2553,338.9872],[26.3438,43.2368,303.0569],[26.3608,43.2328,368.6492],[26.3631,43.2279,424.3388],[26.3687,43.2224,481.9927],[26.3819,43.2152,440.6878],[26.3865,43.2104,400.8297],[26.3926,43.1969,425.1565],[26.3922,43.1944,428.4987],[26.4081,43.1881,405.0333],[26.4286,43.1896,483.1942],[26.4398,43.1888,525.9106],[26.4631,43.1948,525.2157],[26.4685,43.1936,520.4589],[26.4745,43.1899,487.079],[26.4862,43.1887,414.1962],[26.4939,43.1826,412.9751],[26.4942,43.1807,437.392],[26.4936,43.1749,333.6832],[26.4859,43.1668,355.2178],[26.4814,43.157,425.7999],[26.4837,43.1464,414.6917],[26.4871,43.1434,394.6555],[26.508,43.1432,362.7909],[26.531,43.1369,356.0378],[26.5376,43.1364,367.3895],[26.5421,43.1366,380.7353],[26.5605,43.1435,359.8652],[26.5722,43.143,330.6143],[26.5802,43.1387,319.0212],[26.5901,43.1298,312.6208],[26.6202,43.1167,282.8617],[26.6306,43.1151,270.5789],[26.6398,43.1102,254.0139],[26.6579,43.0954,231.3164],[26.6804,43.0972,260.2168],[26.6878,43.1025,269.0761],[26.6872,43.108,281.3276],[26.6808,43.1165,321.5327],[26.6706,43.1263,366.8218],[26.6653,43.1391,575.7161],[26.6647,43.1445,588.1447],[26.6667,43.1533,619.6207],[26.6766,43.1658,415.4398],[26.6767,43.1672,446.469],[26.6713,43.1712,428.7811],[26.6704,43.1764,316.4471],[26.6759,43.1809,271.7873],[26.6803,43.1809,269.0195],[26.7003,43.1731,308.665],[26.7128,43.174,276.7783],[26.7163,43.1778,303.0731],[26.7179,43.1838,234.2356],[26.7193,43.1929,221.464],[26.7178,43.2061,184.5409],[26.7241,43.2212,179.1079],[26.7382,43.2306,158.0095],[26.7525,43.2365,147.3585],[26.7687,43.2467,113.8065],[26.777,43.2609,111.6651],[26.7775,43.2731,154.9391],[26.7723,43.2811,133.2342],[26.7509,43.2894,193.6286],[26.7404,43.2954,196.747],[26.7377,43.2985,193.7909],[26.7359,43.3074,224.3699],[26.7367,43.3133,213.071],[26.7435,43.3235,217.0864],[26.747,43.334,179.4738],[26.7644,43.3572,328.6984],[26.771,43.3772,408.7184],[26.7741,43.3815,380.3993],[26.7669,43.3838,379.9721],[26.7527,43.3841,406.6133],[26.7485,43.3819,377.3675],[26.7435,43.374,352.4069],[26.7348,43.3712,331.9265],[26.7308,43.3726,319.5],[26.7251,43.3783,336.6038],[26.7203,43.3801,351.0444],[26.6995,43.3737,347.3545],[26.6955,43.3751,334.4716],[26.6918,43.3811,291.9606],[26.6891,43.3828,288.8563],[26.6839,43.3839,282.444],[26.6793,43.3828,289.16],[26.6754,43.3792,306.2306],[26.6691,43.3576,353.1209],[26.6625,43.3494,361.4865],[26.6562,43.3471,368.3556],[26.6464,43.3472,348.3668],[26.6372,43.3495,284.8451],[26.624,43.3473,240.0647],[26.6204,43.3481,278.4202],[26.6108,43.353,276.5975],[26.6029,43.3616,220.3636],[26.5972,43.3633,266.1554],[26.5913,43.3672,277.9478],[26.5757,43.3728,297.52],[26.5539,43.3763,223.2222],[26.5454,43.3766,209.1039],[26.5368,43.3746,204.32],[26.5247,43.3666,224.207],[26.5105,43.362,222.4553],[26.4852,43.3697,275.9622],[26.468,43.3678,208.1509],[26.4667,43.3641,201.2824],[26.4682,43.3616,198.1583],[26.4771,43.3547,217.5121],[26.4774,43.3519,190.1073],[26.469,43.3434,226.7582],[26.4521,43.3376,240.071],[26.4454,43.3328,206.5612],[26.4437,43.3209,219.2735],[26.4474,43.3044,371.0685],[26.4508,43.2979,468.1494],[26.4504,43.2945,485.957],[26.4461,43.2875,431.7698],[26.4413,43.2839,389.6207],[26.4371,43.2831,395.8503],[26.4215,43.2807,387.6822],[26.4052,43.2803,373.4127],[26.3884,43.2766,401.9431]]]]}}