{"type":"Feature","properties":{"GID_2":"BGR.8.8_1","GID_0":"BGR","country":"Bulgaria","GID_1":"BGR.8_1","state":"Kyustendil","NL_NAME_1":"Кюстендил","county":"SaparevaBanya","VARNAME_2":"NA","NL_NAME_2":"Сапаревабаня","TYPE_2":"Obshtina","ENGTYPE_2":"Municipality","CC_2":"NA","HASC_2":"BG.KY.SB","name":"SaparevaBanya.county"},
"geometry":{"type": "MultiPolygon","coordinates": [[[[23.3229,42.1935,2515.4502],[23.3225,42.2051,2207.688],[23.3268,42.2146,2085.8755],[23.3459,42.2333,1604.4299],[23.3626,42.2477,1591.0443],[23.3906,42.2534,1471.7329],[23.3979,42.2567,1528.9402],[23.4029,42.2619,1449.5149],[23.4033,42.2675,1423.8463],[23.3971,42.2755,1441.9456],[23.3907,42.2794,1319.2506],[23.3653,42.2866,1409.3616],[23.3577,42.2911,1298.4648],[23.3499,42.307,1349.1055],[23.34,42.3171,1145.7434],[23.3397,42.3278,999.0272],[23.3416,42.3398,1109.3835],[23.3324,42.3475,1171.8069],[23.3238,42.3515,1205.0734],[23.3175,42.3524,1148.9259],[23.2662,42.3515,955.8763],[23.2543,42.3528,941.0647],[23.2525,42.3411,754.6603],[23.2458,42.3255,650.0939],[23.2441,42.3155,654.4695],[23.2364,42.3057,650.4515],[23.2247,42.299,635.5355],[23.215,42.2964,619.2806],[23.1829,42.2922,572.6271],[23.1732,42.2859,555.5107],[23.1714,42.2767,577.5663],[23.1735,42.2694,594.9431],[23.1792,42.2612,672.5823],[23.1951,42.2463,1069.2554],[23.2335,42.2279,1628.8789],[23.2632,42.2223,2073.6653],[23.2731,42.2146,2156.8271],[23.2857,42.211,2273.6382],[23.3012,42.2003,2520.0862],[23.3229,42.1935,2515.4502]]]]}}