{"type":"Feature","properties":{"GID_2":"BGR.22.3_1","GID_0":"BGR","country":"Bulgaria","GID_1":"BGR.22_1","state":"StaraZagora","NL_NAME_1":"СтараЗагора","county":"Galabovo","VARNAME_2":"NA","NL_NAME_2":"Гълъбово","TYPE_2":"Obshtina","ENGTYPE_2":"Municipality","CC_2":"NA","HASC_2":"BG.SZ.GA","name":"Galabovo.county"},
"geometry":{"type": "MultiPolygon","coordinates": [[[[26.1638,42.0418,505.4587],[26.162,42.0555,394.3212],[26.1627,42.0791,356.8734],[26.1605,42.0917,281.5385],[26.1573,42.1007,248.7027],[26.1467,42.1137,214.0305],[26.1438,42.1219,163.9589],[26.1434,42.1343,227.7552],[26.1453,42.1485,276.0522],[26.1496,42.156,296.4456],[26.1243,42.1635,290.091],[26.1103,42.1626,252.9565],[26.1002,42.1681,215.2459],[26.0973,42.168,208.728],[26.069,42.1536,195.2653],[26.0636,42.1525,173.666],[26.0463,42.1545,142.2882],[26.0299,42.1584,106.4312],[26.0126,42.1559,157.5757],[26.0024,42.1587,171.7578],[25.9918,42.1665,162.6585],[25.9795,42.1726,155.3369],[25.9644,42.1761,149.6349],[25.9292,42.1806,94.6699],[25.9055,42.18,94.0615],[25.8997,42.1817,93.3679],[25.8949,42.1858,111.198],[25.8883,42.2019,158.2325],[25.8875,42.2075,148.281],[25.8804,42.2118,150.7808],[25.8724,42.2141,142.4314],[25.8622,42.2232,149.6464],[25.8444,42.2224,143.3038],[25.848,42.2107,164.2715],[25.8471,42.2053,121.4339],[25.8431,42.2031,112.7831],[25.8345,42.2021,124.0518],[25.8203,42.1933,167.2616],[25.8126,42.1938,169.2175],[25.8015,42.2015,169.343],[25.7898,42.2051,155.0506],[25.7791,42.2046,141.2333],[25.7723,42.2001,172.1553],[25.7701,42.1936,173.41],[25.7714,42.1824,162.4747],[25.7843,42.1616,154.2774],[25.7854,42.1423,151.1013],[25.7973,42.1302,133.5085],[25.8032,42.1208,108.9209],[25.808,42.0894,194.5845],[25.8227,42.0611,111.2026],[25.8465,42.0656,124.5654],[25.8555,42.0833,152.2858],[25.8576,42.0975,92.9344],[25.8623,42.1055,102.8107],[25.8692,42.1107,85.7903],[25.8759,42.1116,82.3946],[25.8853,42.1089,96.4031],[25.8908,42.1045,112.1934],[25.8949,42.1037,106.3594],[25.9063,42.1075,125.6843],[25.9217,42.1087,169.6714],[25.95,42.0902,165.1345],[25.9839,42.0903,207.0981],[26.0049,42.0754,241.7159],[26.0146,42.0629,221.527],[26.0295,42.0497,258.4571],[26.0363,42.0412,273.3774],[26.0407,42.0298,304.3188],[26.0456,42.0235,327.7352],[26.0679,42.0107,332.9436],[26.0791,42.0106,384.362],[26.0855,42.0135,382.2158],[26.0978,42.028,406.4935],[26.1023,42.0301,389.6118],[26.1198,42.0296,428.6654],[26.1365,42.0378,493.9579],[26.1572,42.0391,524.3994],[26.1638,42.0418,505.4587]]]]}}