{"type":"Feature","properties":{"GID_2":"BGR.25.10_1","GID_0":"BGR","country":"Bulgaria","GID_1":"BGR.25_1","state":"VelikoTarnovo","NL_NAME_1":"ВеликоТърново","county":"Zlataritsa","VARNAME_2":"NA","NL_NAME_2":"Златарица","TYPE_2":"Obshtina","ENGTYPE_2":"Municipality","CC_2":"NA","HASC_2":"BG.VT.ZL","name":"Zlataritsa.county"},
"geometry":{"type": "MultiPolygon","coordinates": [[[[26.0772,43.1117,266.6409],[26.0712,43.11,268.6721],[26.0642,43.1104,335.1292],[26.0617,43.1116,356.8908],[26.0551,43.12,340.5536],[26.0517,43.1203,419.3505],[26.0326,43.1125,402.1859],[26.0191,43.1123,370.7998],[26.0131,43.1154,430.0128],[26.0075,43.1251,423.918],[25.9978,43.1334,320.0267],[25.9858,43.1392,353.7072],[25.9752,43.1413,141.3175],[25.9636,43.1406,141.7289],[25.9545,43.1378,357.2952],[25.9338,43.1365,325.2573],[25.9211,43.1337,245.9052],[25.9157,43.13,135.6661],[25.894,43.1056,275.1077],[25.8877,43.1005,233.0256],[25.8658,43.0905,211.9138],[25.8654,43.0866,163.9149],[25.8689,43.0806,145.6575],[25.8683,43.0754,128.1329],[25.8623,43.0702,108.7818],[25.8521,43.0648,114.149],[25.8465,43.0564,133.4369],[25.8555,43.0504,100.8209],[25.857,43.0393,112.1568],[25.8625,43.032,112.9023],[25.8739,43.0227,249.3886],[25.8767,43.0176,386.5548],[25.8765,43.0073,179.087],[25.88,43.0033,179.5989],[25.8812,42.9957,247.373],[25.8756,42.9836,475.0552],[25.8755,42.9701,515.6881],[25.885,42.976,419.7201],[25.901,42.9961,292.1053],[25.915,42.9973,309.226],[25.9384,42.9913,431.9336],[25.9599,42.9953,505.793],[25.9813,43.0061,351.196],[26.004,43.0269,363.9543],[26.0153,43.0302,361.087],[26.0225,43.0302,401.6835],[26.0266,43.0278,473.0558],[26.0487,42.9998,500.1932],[26.0578,42.9936,549.6224],[26.0739,42.9904,560.7033],[26.1147,42.9909,464.5135],[26.1158,43.0034,391.1739],[26.1485,43.025,467.9135],[26.1506,43.0277,516.8447],[26.151,43.0325,579.7783],[26.1484,43.0373,628.6492],[26.1437,43.0403,524.341],[26.1302,43.0444,268.5096],[26.1027,43.0604,204.0779],[26.0852,43.082,189.6669],[26.0753,43.0995,404.8711],[26.0772,43.1117,266.6409]]]]}}