{"type": "Feature","bbox": [27.3269,43.3487,27.6866,43.5986],"geometry": {"type": "MultiPolygon","coordinates": [[[[27.4729,43.5967,264.2477],[27.4561,43.5943,238.4017],[27.4463,43.5958,193.92],[27.44,43.5986,206.4959],[27.4279,43.586,244.3708],[27.4115,43.5766,262.6774],[27.3753,43.5643,253.2333],[27.3482,43.5576,281.4883],[27.3361,43.5505,293.955],[27.3291,43.5436,311.513],[27.3269,43.5384,313.5136],[27.3273,43.53,311.4933],[27.3303,43.521,308.5521],[27.3414,43.5167,285.2849],[27.3582,43.5157,252.5161],[27.3601,43.5092,287.2249],[27.3568,43.5017,310.0834],[27.3363,43.4871,322.325],[27.3325,43.4816,333.8442],[27.3353,43.4781,329.7455],[27.3571,43.4771,301.7696],[27.3607,43.472,269.914],[27.361,43.4657,254.9866],[27.3751,43.458,265.3492],[27.3812,43.4503,253.8382],[27.3957,43.4417,274.0612],[27.4057,43.4329,294.8675],[27.4093,43.4274,291.6781],[27.4184,43.4219,314.7164],[27.4217,43.4181,310.7884],[27.4243,43.406,281.8318],[27.4275,43.3994,276.9865],[27.4347,43.394,279.7809],[27.4619,43.39,317.8859],[27.4715,43.3832,302.7933],[27.4767,43.3773,308.2434],[27.4829,43.3768,289.087],[27.4926,43.3805,311.3876],[27.5006,43.3893,305.2357],[27.5083,43.3876,311.8419],[27.5107,43.3831,288.9447],[27.502,43.3671,257.2256],[27.5028,43.3605,243.1996],[27.5058,43.3563,237.9964],[27.5139,43.3506,218.5749],[27.5213,43.3487,212.7218],[27.5277,43.354,216.9432],[27.5369,43.3732,229.8785],[27.5514,43.3805,253.0024],[27.5575,43.3893,263.3233],[27.5604,43.391,273.6072],[27.5675,43.392,269.36],[27.5786,43.3975,314.0786],[27.5988,43.3941,313.3347],[27.6139,43.394,276.5946],[27.6216,43.3963,252.1064],[27.6342,43.4032,305.1254],[27.6417,43.4098,265.7324],[27.6444,43.4178,309.2757],[27.6522,43.4292,258.2909],[27.6596,43.4322,315.1701],[27.6724,43.4434,306.0065],[27.6794,43.4538,249.9861],[27.6866,43.4771,288.3892],[27.678,43.4785,306.4297],[27.6669,43.4838,291.7596],[27.65,43.4846,256.1668],[27.6346,43.4823,252.5209],[27.6128,43.4928,197.0424],[27.6076,43.5013,201.0642],[27.6111,43.5237,219.5378],[27.6014,43.5349,205.2431],[27.5871,43.5443,201.0876],[27.5791,43.5449,181.0737],[27.5739,43.5422,171.1373],[27.5622,43.5231,232.7372],[27.5539,43.5152,248.4034],[27.5483,43.5132,245.4596],[27.5143,43.5128,287.5981],[27.5041,43.5147,293.5906],[27.499,43.5223,288.6508],[27.498,43.5291,283.8987],[27.499,43.5404,256.2617],[27.5032,43.5545,222.6616],[27.5032,43.5616,243.3954],[27.4991,43.5714,248.0049],[27.4907,43.5827,222.1277],[27.4729,43.5967,264.2477]]]]}
,"properties": {"GID_2": "BGR.24.10_1","GID_0": "BGR","country": "Bulgaria","GID_1": "BGR.24_1","state": "Varna","NL_NAME_1": "Варна","county": "ValchiDol","VARNAME_2": "NA","NL_NAME_2": "NA","TYPE_2": "Obshtina","ENGTYPE_2": "Municipality","CC_2": "NA","HASC_2": "BG.VN.VD","name": "ValchiDol.county","area_km2": 411.2713,"hist_schema_id": "Elevation0-9000","hist_area_km2": {"175": 6.5807,"200": 34.5491,"225": 66.4428,"250": 101.907,"275": 111.3766,"300": 78.3913,"325": 11.9776,"350": 0.0462}}}