{"type": "Feature","bbox": [24.8079,43.5041,25.1126,43.7296],"geometry": {"type": "MultiPolygon","coordinates": [[[[25.0478,43.6956,17.0],[25.038,43.7037,17.0],[25.017,43.7141,18.6542],[25.0183,43.7152,17.0],[25.0092,43.7249,17.0],[25.0,43.7276,17.0],[24.949,43.7296,25.0289],[24.9346,43.7236,25.3836],[24.9344,43.7163,17.5],[24.9196,43.7156,17.5],[24.8806,43.7071,17.5],[24.8653,43.7062,18.0],[24.8573,43.7071,18.0],[24.8378,43.7129,18.0],[24.8177,43.7127,18.0],[24.8248,43.6852,63.8223],[24.8142,43.6694,111.5719],[24.813,43.6623,116.1066],[24.8087,43.6551,137.662],[24.8079,43.6499,111.7522],[24.8185,43.6274,112.9039],[24.8191,43.6167,134.3427],[24.8155,43.5967,74.4067],[24.8163,43.5904,95.4407],[24.8269,43.5823,140.3488],[24.829,43.5753,158.8572],[24.8286,43.5697,147.7786],[24.8305,43.5674,147.5436],[24.8462,43.5595,136.3068],[24.8457,43.556399999999996,121.7067],[24.8329,43.5453,119.3109],[24.8328,43.536,117.898],[24.8353,43.5314,89.7393],[24.8438,43.5301,114.9521],[24.8502,43.5316,132.5177],[24.8638,43.5393,136.6443],[24.8669,43.5395,147.7723],[24.871,43.5372,137.4562],[24.8717,43.531,144.724],[24.8763,43.5239,161.8458],[24.8935,43.5141,168.1904],[24.9027,43.5109,167.6963],[24.9173,43.5104,152.6438],[24.9384,43.507,114.6778],[24.9916,43.5041,48.0111],[24.9993,43.5054,43.8794],[25.0068,43.5102,37.7505],[25.005,43.5185,43.3755],[25.0094,43.5219,41.6691],[25.0275,43.5243,87.1823],[25.0476,43.5316,158.6833],[25.0587,43.5336,179.6292],[25.0601,43.5394,218.1572],[25.071,43.5474,172.5966],[25.0795,43.5499,181.9904],[25.1053,43.5521,103.5399],[25.11,43.5544,90.4542],[25.1125,43.5571,125.3118],[25.1126,43.5615,168.6168],[25.0949,43.5705,185.9264],[25.0795,43.5755,201.5934],[25.0768,43.5774,188.633],[25.073,43.5868,178.4301],[25.0689,43.5906,133.8663],[25.0618,43.5902,92.0588],[25.0396,43.5746,225.8185],[25.0273,43.5716,228.5853],[24.9971,43.5769,193.761],[24.9882,43.5804,234.6311],[24.9829,43.5843,238.7238],[24.9826,43.5925,225.7982],[24.9875,43.5978,202.6619],[24.9948,43.6025,129.6151],[25.017,43.6111,92.2211],[25.027,43.6168,79.5814],[25.031,43.6242,99.8615],[25.0297,43.6299,83.5234],[25.0253,43.6353,43.0951],[25.0139,43.6394,119.3658],[24.985,43.6414,193.9556],[24.9733,43.6458,218.3713],[24.9644,43.6525,209.4958],[24.9601,43.6579,196.1104],[24.9585,43.6614,186.946],[24.9589,43.6724,91.2405],[24.9651,43.6781,95.9582],[24.9778,43.6815,160.2513],[24.9885,43.6889,21.5875],[25.0208,43.6862,21.9258],[25.0373,43.6888,23.1536],[25.0478,43.6956,17.0]]]]}
,"properties": {"GID_2": "BGR.13.9_1","GID_0": "BGR","country": "Bulgaria","GID_1": "BGR.13_1","state": "Pleven","NL_NAME_1": "Плевенска","county": "Nikopol","VARNAME_2": "NA","NL_NAME_2": "Никопол","TYPE_2": "Obshtina","ENGTYPE_2": "Municipality","CC_2": "NA","HASC_2": "BG.PV.NI","name": "Nikopol.county","area_km2": 360.6085,"hist_schema_id": "Elevation0-9000","hist_area_km2": {"25": 75.3884,"50": 31.0126,"75": 25.2292,"100": 36.4074,"125": 44.1479,"150": 35.2724,"175": 36.4177,"200": 38.461,"225": 29.3348,"250": 8.9371}}}