{"type":"Feature","properties":{"GID_2":"BGR.11.3_1","GID_0":"BGR","country":"Bulgaria","GID_1":"BGR.11_1","state":"Pazardzhik","NL_NAME_1":"Пазарджик","county":"Bratsigovo","VARNAME_2":"NA","NL_NAME_2":"Брацигово","TYPE_2":"Obshtina","ENGTYPE_2":"Municipality","CC_2":"NA","HASC_2":"BG.PZ.BR","name":"Bratsigovo.county"},
"geometry":{"type": "MultiPolygon","coordinates": [[[[24.4181,41.9069,797.6246],[24.4157,41.9108,925.7339],[24.4169,41.9176,749.1186],[24.4214,41.9247,740.6643],[24.4338,41.9357,530.5],[24.4429,41.9485,770.38],[24.4547,41.9703,516.4463],[24.4654,42.0009,841.9933],[24.4646,42.0153,774.3814],[24.461,42.0247,639.989],[24.4527,42.0327,639.4764],[24.4373,42.0438,463.3646],[24.434,42.0539,415.088],[24.4397,42.0653,229.3835],[24.4492,42.0764,218.7588],[24.4488,42.0798,219.3516],[24.4535,42.0964,320.5556],[24.4472,42.1116,236.4201],[24.433,42.1065,245.7994],[24.3963,42.1007,377.4496],[24.36,42.0872,460.0186],[24.3449,42.0773,416.1201],[24.3394,42.0713,377.6455],[24.3363,42.0619,361.8026],[24.3362,42.0538,340.8354],[24.3394,42.037,409.2403],[24.3375,42.0206,513.9984],[24.328,42.0057,788.7222],[24.3233,41.9921,1347.0145],[24.3185,41.9862,1369.9408],[24.3043,41.9785,1176.363],[24.2913,41.9633,1262.1965],[24.2846,41.9603,1376.6455],[24.293,41.9558,1254.1758],[24.2953,41.9526,1248.9459],[24.2962,41.938,1326.6261],[24.2999,41.93,1514.3733],[24.301,41.9236,1534.7177],[24.2949,41.9089,1523.7902],[24.3003,41.9037,1509.1957],[24.3607,41.8936,1123.5801],[24.3837,41.896,990.733],[24.4181,41.9069,797.6246]]]]}}