{"type": "Feature","bbox": [26.5689,42.2744,26.9639,42.7202],"geometry": {"type": "MultiPolygon","coordinates": [[[[26.7505,42.6669,351.5358],[26.743,42.6717,404.1956],[26.7327,42.6857,429.3967],[26.7115,42.7072,334.5504],[26.6886,42.7174,258.5027],[26.6743,42.7202,234.9358],[26.6662,42.7192,231.9513],[26.6636,42.7092,271.1222],[26.6698,42.694,325.2252],[26.6716,42.685,280.3429],[26.6705,42.6762,206.7809],[26.674,42.6595,265.5861],[26.6721,42.6558,184.4251],[26.6602,42.644,158.6361],[26.6578,42.6353,153.5059],[26.6556,42.6331,153.729],[26.6519,42.6313,152.2886],[26.6475,42.6317,150.8922],[26.6431,42.6334,150.0273],[26.638,42.6389,150.8597],[26.635,42.6401,151.2476],[26.6306,42.6389,152.1665],[26.6276,42.637,151.7498],[26.6189,42.6203,150.7538],[26.6102,42.6114,157.3827],[26.5984,42.6062,158.2849],[26.5794,42.5936,177.4692],[26.5689,42.5898,178.1924],[26.5804,42.5712,154.0626],[26.5809,42.5656,160.1799],[26.5755,42.5556,156.6162],[26.597,42.5451,133.0979],[26.606,42.5346,129.1713],[26.6122,42.5338,129.9851],[26.6346,42.5257,169.8903],[26.6708,42.5021,187.6342],[26.6821,42.4963,219.3903],[26.6982,42.4932,194.2998],[26.7048,42.4846,217.8893],[26.7078,42.474,218.2606],[26.7181,42.4612,262.417],[26.7207,42.4591,272.244],[26.7463,42.4511,232.8131],[26.7541,42.4456,235.7041],[26.7561,42.4415,250.5826],[26.7545,42.431399999999996,285.4808],[26.7523,42.4278,284.9564],[26.7402,42.4242,338.0948],[26.7318,42.4145,290.7534],[26.7228,42.4111,302.1089],[26.7182,42.4005,257.1398],[26.7101,42.3962,229.0045],[26.7027,42.3899,223.8658],[26.6995,42.3837,208.2013],[26.6991,42.3754,206.7878],[26.704,42.363,201.0964],[26.7288,42.344,200.2425],[26.7382,42.3389,185.2586],[26.7426,42.3343,206.4395],[26.7453,42.3185,236.1857],[26.7507,42.312,221.4574],[26.7522,42.3059,227.7738],[26.7599,42.2926,257.9383],[26.7629,42.2856,282.2377],[26.7629,42.2807,314.0038],[26.7999,42.2796,322.4517],[26.8357,42.2744,306.7283],[26.8488,42.2777,292.3271],[26.8563,42.2835,260.1288],[26.8611,42.2899,221.4874],[26.8653,42.291,227.4078],[26.8753,42.2923,201.3748],[26.8816,42.2896,226.3006],[26.9011,42.2939,177.7805],[26.9105,42.2924,172.311],[26.9163,42.2935,158.4759],[26.9232,42.2993,186.3828],[26.9177,42.3075,199.1402],[26.9156,42.3209,215.8044],[26.9126,42.3262,216.3073],[26.9007,42.3394,216.7016],[26.8888,42.3462,212.7234],[26.8685,42.3539,234.9847],[26.8648,42.3569,246.6517],[26.8604,42.3728,242.716],[26.8583,42.3903,238.1142],[26.8622,42.3966,229.6443],[26.8697,42.3998,210.5454],[26.9391,42.4084,176.1886],[26.9483,42.4122,177.5597],[26.9639,42.4221,93.7081],[26.9584,42.427,100.77],[26.9518,42.4399,126.4996],[26.9398,42.4513,156.7986],[26.9269,42.4529,157.6741],[26.8918,42.4501,148.0536],[26.8841,42.4516,149.975],[26.8796,42.4546,160.5641],[26.8744,42.4624,173.0084],[26.8737,42.4659,182.5133],[26.8723,42.4758,203.7478],[26.8726,42.4955,247.072],[26.8696,42.4985,242.0322],[26.852,42.505,233.1806],[26.846,42.5122,213.0195],[26.8356,42.5341,183.2427],[26.825,42.5438,166.5665],[26.8069,42.5688,147.0031],[26.8001,42.5806,152.9377],[26.7972,42.5946,152.227],[26.792,42.6057,142.9915],[26.7921,42.6179,138.6098],[26.7899,42.6237,138.2194],[26.7703,42.6422,158.3629],[26.7599,42.6552,224.5304],[26.7532,42.66,290.0258],[26.7503,42.6641,350.319],[26.7505,42.6669,351.5358]]]]}
,"properties": {"GID_2": "BGR.28.3_1","GID_0": "BGR","country": "Bulgaria","GID_1": "BGR.28_1","state": "Yambol","NL_NAME_1": "Ямбол","county": "Straldzha","VARNAME_2": "NA","NL_NAME_2": "Стралджа","TYPE_2": "Obshtina","ENGTYPE_2": "Municipality","CC_2": "NA","HASC_2": "BG.YA.ST","name": "Straldzha.county","area_km2": 648.6033,"hist_schema_id": "Elevation0-9000","hist_area_km2": {"75": 1.0017,"100": 6.0256,"125": 33.2617,"150": 206.5096,"175": 68.9278,"200": 63.1266,"225": 84.3851,"250": 87.914,"275": 45.0813,"300": 19.433,"325": 14.3972,"350": 8.1033,"375": 4.4469,"400": 2.9474,"425": 1.8404,"450": 1.1078,"475": 0.094}}}