{"type": "Feature","bbox": [25.0888,41.6965,25.4369,41.8921],"geometry": {"type": "MultiPolygon","coordinates": [[[[25.3901,41.8353,265.0352],[25.3796,41.8298,274.0974],[25.3677,41.8163,317.6487],[25.3643,41.8144,323.9434],[25.3443,41.8118,434.6149],[25.3405,41.8094,426.68],[25.3387,41.8075,438.2979],[25.3358,41.796,448.7837],[25.3319,41.7912,467.2075],[25.325,41.7887,535.6406],[25.3195,41.7903,526.1192],[25.3158,41.7978,455.1967],[25.3087,41.8046,424.6694],[25.2861,41.8109,537.0421],[25.2803,41.8142,463.6364],[25.2798,41.8405,364.0806],[25.2745,41.8517,361.9455],[25.2693,41.8697,624.7217],[25.2719,41.884,492.7995],[25.277,41.8921,584.431],[25.2635,41.8903,480.321],[25.2409,41.8797,670.5489],[25.2188,41.8722,559.1812],[25.2033,41.8602,648.7758],[25.1914,41.8457,749.1647],[25.1755,41.8338,847.0334],[25.1672,41.8304,910.3267],[25.1543,41.8218,993.119],[25.1492,41.8159,790.8555],[25.1416,41.7921,638.0876],[25.1388,41.7877,567.0359],[25.1322,41.7834,509.5363],[25.0984,41.772,793.6378],[25.0927,41.7667,925.4544],[25.0888,41.7564,1118.0828],[25.0891,41.7408,982.1057],[25.0957,41.7275,1145.2174],[25.0964,41.7225,1029.2434],[25.1006,41.7186,1149.0505],[25.1101,41.728,1062.7566],[25.1126,41.7286,1045.52],[25.1176,41.7288,974.7282],[25.1319,41.725,866.3024],[25.1424,41.7267,651.0236],[25.1469,41.7289,696.7134],[25.1605,41.7425,579.111],[25.1644,41.7441,641.7114],[25.1731,41.745,559.6798],[25.1888,41.7383,627.0545],[25.1932,41.7379,600.4452],[25.212,41.7403,429.7415],[25.217,41.7424,388.8852],[25.2373,41.7441,522.4482],[25.2401,41.7427,590.9211],[25.2433,41.7374,600.4744],[25.2453,41.7302,632.4921],[25.2444,41.7226,729.3928],[25.2502,41.7071,737.4573],[25.2544,41.7023,731.1127],[25.2594,41.7003,684.5245],[25.2661,41.7001,511.6915],[25.2734,41.704,466.8978],[25.2779,41.7098,542.827],[25.2797,41.718,696.6258],[25.2834,41.7248,648.501],[25.2884,41.7243,669.14],[25.2928,41.7217,743.9216],[25.2971,41.715,677.2902],[25.3006,41.7149,653.2273],[25.306,41.7162,757.1484],[25.3188,41.7254,714.9587],[25.3241,41.726,587.9325],[25.3282,41.7242,558.473],[25.3328,41.7068,589.9828],[25.3391,41.6996,582.9133],[25.3644,41.6965,529.2003],[25.391,41.6981,639.2763],[25.3947,41.6996,580.6521],[25.4049,41.7088,502.5347],[25.4085,41.7179,487.0796],[25.408,41.7279,351.1403],[25.4187,41.7479,490.6446],[25.4337,41.7675,487.7095],[25.4369,41.7811,484.8368],[25.4267,41.7821,491.6588],[25.4183,41.7897,424.8044],[25.412,41.7998,399.328],[25.4086,41.82,296.9418],[25.4046,41.8276,293.6611],[25.3961,41.8338,247.0],[25.3901,41.8353,265.0352]]]]}
,"properties": {"GID_2": "BGR.7.2_1","GID_0": "BGR","country": "Bulgaria","GID_1": "BGR.7_1","state": "Kardzhali","NL_NAME_1": "Кърджалийска","county": "Chernoochene","VARNAME_2": "Karagözler","NL_NAME_2": "NA","TYPE_2": "Obshtina","ENGTYPE_2": "Municipality","CC_2": "NA","HASC_2": "BG.KZ.CH","name": "Chernoochene.county","area_km2": 317.4417,"hist_schema_id": "Elevation0-9000","hist_area_km2": {"250": 0.3476,"275": 1.1217,"300": 2.6708,"325": 4.8373,"350": 6.9881,"375": 10.8777,"400": 15.6536,"425": 19.4798,"450": 22.7528,"475": 23.5437,"500": 23.0532,"525": 22.2787,"550": 20.524,"575": 19.0845,"600": 18.3557,"625": 16.7747,"650": 14.5934,"675": 12.1591,"700": 9.7713,"725": 8.855,"750": 7.5419,"775": 6.2766,"800": 5.0903,"825": 4.3317,"850": 3.3674,"875": 3.1936,"900": 2.8776,"925": 2.2295,"950": 1.9294,"975": 1.376,"1000": 1.1388,"1025": 0.9332,"1050": 0.9017,"1075": 0.6328,"1100": 0.6012,"1125": 0.3639,"1150": 0.3164,"1175": 0.3164,"1200": 0.1582,"1225": 0.0949,"1250": 0.0474}}}