{"type":"Feature","properties":{"GID_2":"BGR.25.3_1","GID_0":"BGR","country":"Bulgaria","GID_1":"BGR.25_1","state":"VelikoTarnovo","NL_NAME_1":"ВеликоТърново","county":"Lyaskovets","VARNAME_2":"Leskofça","NL_NAME_2":"Лясковец","TYPE_2":"Obshtina","ENGTYPE_2":"Municipality","CC_2":"NA","HASC_2":"BG.VT.LY","name":"Lyaskovets.county"},
"geometry":{"type": "MultiPolygon","coordinates": [[[[25.7255,43.1114,175.6155],[25.7329,43.0972,172.0717],[25.7546,43.072,244.9987],[25.7558,43.0511,248.8975],[25.7577,43.048,263.0753],[25.7617,43.0465,289.9245],[25.7786,43.049,250.3365],[25.7846,43.0483,290.0396],[25.7945,43.0423,257.541],[25.7995,43.0373,193.8841],[25.8171,43.033,131.7621],[25.8268,43.0326,125.886],[25.8337,43.0354,153.6922],[25.8397,43.0405,173.7705],[25.8499,43.0627,108.732],[25.8683,43.0754,128.1329],[25.8689,43.0806,145.6575],[25.8654,43.0866,163.9149],[25.8658,43.0905,211.9138],[25.8877,43.1005,233.0256],[25.894,43.1056,275.1077],[25.9157,43.13,135.6661],[25.9211,43.1337,245.9052],[25.9338,43.1365,325.2573],[25.9545,43.1378,357.2952],[25.972,43.1416,97.0649],[25.98,43.1405,190.3396],[25.9809,43.1462,168.0553],[25.9782,43.1519,101.5445],[25.9641,43.16,73.7716],[25.9587,43.1656,72.7938],[25.9576,43.1775,151.505],[25.9436,43.1912,85.9378],[25.9433,43.2042,76.7448],[25.9376,43.2048,106.8292],[25.9318,43.2031,128.9847],[25.9124,43.1915,131.5846],[25.9051,43.1903,126.991],[25.8987,43.1935,177.2271],[25.8828,43.1786,61.8565],[25.8606,43.1724,61.0725],[25.8502,43.1677,61.3881],[25.8341,43.1547,65.2779],[25.8297,43.1477,67.8131],[25.8185,43.1364,81.8834],[25.8117,43.1336,81.7131],[25.8035,43.1336,81.6378],[25.7839,43.1438,72.5051],[25.777,43.1449,74.3277],[25.7695,43.1439,75.155],[25.7507,43.1344,104.5066],[25.7353,43.118,147.1722],[25.7255,43.1114,175.6155]]]]}}