{"type": "Feature","bbox": [27.5317,43.0108,27.9237,43.2128],"geometry": {"type": "MultiPolygon","coordinates": [[[[27.8091,43.1427,171.3211],[27.8019,43.1377,145.2836],[27.7947,43.1375,174.9281],[27.773,43.147,133.7422],[27.7591,43.1487,112.9455],[27.7493,43.1537,129.3696],[27.7386,43.162,145.1256],[27.7319,43.161,126.9043],[27.7206,43.1543,129.9603],[27.7033,43.1552,182.927],[27.6794,43.1681,209.3384],[27.6619,43.1801,3.7602],[27.6493,43.1792,7.5839],[27.6307,43.1573,4.7263],[27.6228,43.154,8.583],[27.6171,43.1543,1.6428],[27.6138,43.157,0.7552],[27.6155,43.168,14.5529],[27.6145,43.1835,13.5219],[27.6161,43.1889,10.3328],[27.6185,43.1913,10.5622],[27.6183,43.198,10.9706],[27.6156,43.2036,12.8961],[27.5948,43.2099,8.9429],[27.5832,43.2084,57.652],[27.5796,43.2108,62.9767],[27.5595,43.2128,154.8588],[27.5493,43.2088,286.1385],[27.5522,43.2062,268.794],[27.5554,43.1948,180.99],[27.5343,43.1675,96.5604],[27.5349,43.164,103.4058],[27.5422,43.158,119.6403],[27.5574,43.1509,99.4686],[27.5653,43.1444,72.9379],[27.5696,43.1373,56.7257],[27.5696,43.1338,41.7315],[27.567,43.1297,38.7678],[27.5554,43.121,78.5444],[27.5374,43.1183,54.2763],[27.5319,43.1139,30.7555],[27.5317,43.1096,29.4158],[27.5368,43.1014,21.3284],[27.5489,43.0948,18.6757],[27.557,43.0864,11.2553],[27.5482,43.0817,12.4781],[27.5459,43.0767,43.7957],[27.5409,43.0721,72.7189],[27.5374,43.0719,81.9613],[27.5332,43.0669,122.4772],[27.5332,43.065,123.3146],[27.5374,43.0609,133.1586],[27.5495,43.0562,64.3268],[27.5637,43.0612,48.858],[27.568,43.0583,34.3752],[27.5725,43.0486,17.9903],[27.579,43.0407,16.3643],[27.5845,43.0379,16.3553],[27.5936,43.0375,16.0254],[27.5971,43.0401,15.419],[27.5974,43.0423,15.574],[27.5943,43.0513,18.0805],[27.5983,43.055,35.5393],[27.6078,43.0554,45.8315],[27.621,43.0506,65.8067],[27.6302,43.0509,52.3302],[27.6324,43.0524,64.2381],[27.6346,43.0554,72.8222],[27.6396,43.0766,77.6453],[27.6506,43.0904,63.5384],[27.6583,43.0924,84.2732],[27.6643,43.0899,84.797],[27.6995,43.0554,31.5405],[27.7015,43.0455,17.4279],[27.6974,43.0331,11.0908],[27.6999,43.0291,14.3622],[27.7043,43.0267,12.0264],[27.7166,43.0268,102.8026],[27.7259,43.0226,67.9363],[27.7414,43.0209,22.2851],[27.7722,43.0252,48.707],[27.7962,43.0323,83.6596],[27.8099,43.0334,56.1436],[27.8264,43.0282,42.4121],[27.836,43.0138,9.6705],[27.8385,43.0116,9.5613],[27.8428,43.0108,9.1202],[27.8464,43.0112,9.6588],[27.8543,43.0167,13.9116],[27.874,43.0258,46.843],[27.8881,43.0265,1.2778],[27.8879,43.0357,0.9071],[27.8907,43.0435,6.9807],[27.8924,43.0451,0.0],[27.8965,43.0454,0.0],[27.901,43.0543,26.0487],[27.9085,43.056,1.1353],[27.9137,43.0626,0.0],[27.9129,43.071,0.0],[27.9163,43.0768,1.557],[27.9154,43.0824,21.8573],[27.9207,43.0893,0.0],[27.9207,43.0954,0.0],[27.9237,43.1007,5.7535],[27.9089,43.1076,45.6731],[27.8909,43.1062,72.5797],[27.8668,43.1146,95.4488],[27.8596,43.1201,85.9896],[27.8269,43.1227,143.5058],[27.8248,43.1246,145.2437],[27.8299,43.1359,189.3015],[27.8278,43.1396,203.3142],[27.8091,43.1427,171.3211]]]]}
,"properties": {"GID_2": "BGR.24.2_1","GID_0": "BGR","country": "Bulgaria","GID_1": "BGR.24_1","state": "Varna","NL_NAME_1": "Варна","county": "Avren","VARNAME_2": "NA","NL_NAME_2": "NA","TYPE_2": "Obshtina","ENGTYPE_2": "Municipality","CC_2": "NA","HASC_2": "BG.VN.AV","name": "Avren.county","area_km2": 378.0396,"hist_schema_id": "Elevation0-9000","hist_area_km2": {"0": 25.091,"25": 45.0553,"50": 45.6007,"75": 52.4161,"100": 51.9792,"125": 49.3079,"150": 37.8904,"175": 27.4229,"200": 20.0222,"225": 8.5406,"250": 7.0548,"275": 4.6878,"300": 2.1507,"325": 0.82}}}