{"type":"Feature","properties":{"GID_2":"BGR.2.9_1","GID_0":"BGR","country":"Bulgaria","GID_1":"BGR.2_1","state":"Burgas","NL_NAME_1":"Бургас","county":"Ruen","VARNAME_2":"NA","NL_NAME_2":"NA","TYPE_2":"Obshtina","ENGTYPE_2":"Municipality","CC_2":"NA","HASC_2":"BG.BR.RU","name":"Ruen.county"},
"geometry":{"type": "MultiPolygon","coordinates": [[[[27.4225,42.7773,113.1249],[27.4233,42.7823,83.2801],[27.4267,42.7845,80.076],[27.4624,42.7934,74.0481],[27.4717,42.7987,87.9372],[27.4775,42.8031,144.4476],[27.4789,42.806,178.8746],[27.4799,42.8145,316.8051],[27.4735,42.8267,402.5649],[27.4721,42.8339,499.1064],[27.4731,42.8387,505.4193],[27.4664,42.8517,410.6872],[27.4681,42.8599,322.9352],[27.4739,42.8713,291.422],[27.4679,42.8793,353.4653],[27.4678,42.8913,268.6414],[27.4536,42.893,287.3648],[27.4344,42.9024,379.2841],[27.4177,42.9138,184.2535],[27.408,42.9241,242.5741],[27.4005,42.9263,260.6096],[27.3909,42.933,404.299],[27.371,42.9412,144.0524],[27.36,42.9562,348.2037],[27.3458,42.9663,178.7506],[27.3,42.9754,58.5],[27.2401,42.9801,320.7535],[27.22,42.9797,374.6058],[27.1977,42.9719,205.9212],[27.1874,42.9639,295.2417],[27.1597,42.9509,506.1656],[27.149,42.9476,430.6333],[27.1367,42.946,518.6265],[27.1232,42.9473,496.8685],[27.1013,42.9447,394.1003],[27.0454,42.9201,559.6399],[27.0346,42.9169,563.631],[27.0214,42.9166,630.4716],[27.023,42.9116,546.1693],[27.0314,42.9042,423.5134],[27.0491,42.8991,392.5527],[27.0625,42.8907,348.8229],[27.0664,42.8828,260.7403],[27.074,42.8741,225.0608],[27.1031,42.8523,126.5797],[27.102,42.8448,130.3002],[27.0992,42.8404,136.82],[27.0632,42.8376,139.7341],[27.0575,42.8342,226.1736],[27.0489,42.8211,296.1951],[27.0438,42.8173,326.3854],[27.0444,42.8093,298.693],[27.0465,42.8048,291.3212],[27.0532,42.7993,340.9787],[27.0653,42.7951,437.3392],[27.0642,42.7898,528.0516],[27.0654,42.788,595.5176],[27.0766,42.7881,562.2393],[27.0896,42.7979,312.4292],[27.1098,42.802,326.2826],[27.1319,42.798,244.2216],[27.1412,42.7932,339.6646],[27.1566,42.78,370.2003],[27.1645,42.7778,426.4254],[27.1793,42.7791,407.1595],[27.2039,42.7863,348.256],[27.218,42.7876,267.5345],[27.2598,42.7886,213.1753],[27.2973,42.7835,263.1947],[27.317,42.7859,222.2094],[27.3308,42.7887,177.0555],[27.3361,42.7914,159.856],[27.3552,42.7939,144.4907],[27.381,42.783,131.1173],[27.3905,42.7807,128.9227],[27.4225,42.7773,113.1249]]]]}}