{"type":"Feature","properties":{"GID_2":"BGR.1.5_1","GID_0":"BGR","country":"Bulgaria","GID_1":"BGR.1_1","state":"Blagoevgrad","NL_NAME_1":"Благоевград","county":"GotseDelchev","VARNAME_2":"GoceDelčev|GoceDelchev","NL_NAME_2":"ГоцеДелчев","TYPE_2":"Obshtina","ENGTYPE_2":"Municipality","CC_2":"NA","HASC_2":"BG.BL.GD","name":"GotseDelchev.county"},
"geometry":{"type": "MultiPolygon","coordinates": [[[[23.5085,41.6918,2381.6699],[23.5127,41.675,2264.7324],[23.5278,41.6556,2509.1548],[23.5566,41.6361,2032.749],[23.6004,41.5964,1521.051],[23.6087,41.5808,1650.8236],[23.6167,41.555,1832.0985],[23.6244,41.5424,1462.7759],[23.6365,41.5116,1867.5631],[23.6426,41.5012,1666.0439],[23.6529,41.5162,1795.8413],[23.6622,41.5236,1675.609],[23.6741,41.5285,1577.1311],[23.6905,41.5291,1390.348],[23.6998,41.5237,1365.2349],[23.7131,41.5224,1162.4143],[23.7208,41.5255,1047.172],[23.7298,41.5407,929.3596],[23.7355,41.5444,728.2979],[23.7423,41.5461,690.0764],[23.752,41.5438,691.4286],[23.7625,41.5438,533.1447],[23.7852,41.5463,485.1067],[23.7974,41.5437,481.705],[23.7991,41.545,481.1644],[23.7963,41.5524,484.2177],[23.7976,41.555,484.1022],[23.8171,41.5514,476.8618],[23.8214,41.5522,476.385],[23.8289,41.5567,489.3066],[23.8306,41.5607,500.7078],[23.8205,41.5659,495.7365],[23.7961,41.5744,490.6031],[23.7804,41.5859,505.7378],[23.7654,41.5907,497.2767],[23.759,41.5954,505.4447],[23.7556,41.6049,511.1606],[23.7538,41.6176,517.884],[23.7508,41.6217,518.2831],[23.7467,41.6362,533.527],[23.7515,41.643,603.1873],[23.7523,41.6468,652.1521],[23.7513,41.6543,728.0164],[23.7461,41.6667,764.6296],[23.744,41.68,844.306],[23.7442,41.6933,930.9948],[23.7266,41.7275,1123.3678],[23.7254,41.7394,1030.917],[23.7132,41.7351,963.6323],[23.6875,41.7322,646.0121],[23.6818,41.7298,717.1397],[23.68,41.7243,921.0895],[23.6866,41.7166,795.8761],[23.6883,41.7104,797.666],[23.6871,41.7096,830.5466],[23.6712,41.7094,801.6199],[23.6439,41.7129,955.0734],[23.6224,41.7132,1131.1438],[23.56,41.7017,2049.7866],[23.5383,41.6992,2239.9626],[23.5085,41.6918,2381.6699]]]]}}