{"type": "Feature","bbox": [26.4183,42.4101,26.5881,42.5516],"geometry": {"type": "MultiPolygon","coordinates": [[[[26.5081,42.547,140.3547],[26.4979,42.5235,140.7052],[26.4727,42.5346,161.7539],[26.4572,42.5295,171.8861],[26.4561,42.4892,175.2317],[26.4448,42.4879,204.5395],[26.442,42.4656,152.832],[26.4189,42.4628,153.9441],[26.4183,42.4448,153.1316],[26.448,42.4446,137.8163],[26.4609,42.4313,155.7605],[26.4546,42.4204,157.8427],[26.4635,42.4101,159.7609],[26.4906,42.4225,133.5727],[26.4959,42.439,120.9985],[26.5266,42.4392,121.2022],[26.5365,42.4666,142.4108],[26.5515,42.4683,153.3752],[26.5593,42.4872,196.2358],[26.5765,42.4904,196.733],[26.5771,42.5044,184.8149],[26.5881,42.5128,148.225],[26.558,42.5172,127.6761],[26.5548,42.5318,132.4851],[26.5286,42.5225,132.3736],[26.5276,42.5304,128.7321],[26.5383,42.5432,131.0012],[26.5332,42.5516,134.409],[26.5081,42.547,140.3547]]]]}
,"properties": {"GID_2": "BGR.28.5_1","GID_0": "BGR","country": "Bulgaria","GID_1": "BGR.28_1","state": "Yambol","NL_NAME_1": "Ямбол","county": "Yambol","VARNAME_2": "NA","NL_NAME_2": "Ямбол","TYPE_2": "City","ENGTYPE_2": "City","CC_2": "NA","HASC_2": "BG.YA.YA","name": "Yambol.county","area_km2": 103.5887,"hist_schema_id": "Elevation0-9000","hist_area_km2": {"125": 46.19118,"150": 39.90565,"175": 14.8815,"200": 2.54782,"225": 0.06254}}}