{"type":"Feature","properties":{"ISO3166-1-Alpha-3":"BGR","country":"Bulgaria","fill":"#F00","id":"2255","name":"Yambol"},
"geometry":{"type": "Polygon","coordinates": [[[27.0479,42.08292,495.3255],[27.04789,42.08309,495.3255],[27.04706,42.09348,441.7752],[27.05492,42.13032,333.8689],[27.03394,42.15743,236.1972],[27.01988,42.18445,313.4563],[27.02939,42.21357,327.4283],[27.03993,42.23409,277.2681],[27.03662,42.25135,260.1336],[27.03662,42.27453,161.762],[27.05006,42.29176,100.4648],[27.08334,42.30602,224.3948],[27.08954,42.33731,51.5587],[27.07032,42.36491,61.3843],[27.04014,42.37914,68.4669],[27.00903,42.37953,69.3652],[26.97968,42.38718,132.0263],[26.96872,42.40408,147.4889],[26.96056,42.42191,75.0475],[26.87002,42.47146,188.2176],[26.86919,42.49177,225.0095],[26.8478,42.50102,250.6188],[26.80852,42.53699,171.2836],[26.79995,42.54624,148.9328],[26.79798,42.559,142.9621],[26.79075,42.57223,150.2248],[26.77762,42.58099,150.8105],[26.76553,42.60639,138.5249],[26.75747,42.63422,139.7611],[26.71943,42.68918,399.0476],[26.66083,42.69584,298.9918],[26.66373,42.66287,222.4517],[26.6536,42.63321,153.154],[26.64337,42.62184,154.816],[26.63024,42.61618,155.533],[26.60347,42.61978,146.6989],[26.59386,42.61014,155.02],[26.5796,42.60303,165.3206],[26.56399,42.59221,184.4157],[26.5488,42.57756,157.5097],[26.49092,42.56402,131.7867],[26.43325,42.568,144.3947],[26.40452,42.56275,139.5447],[26.37816,42.54895,141.7092],[26.38839,42.53275,140.7284],[26.39904,42.51939,168.4194],[26.38002,42.51219,186.9762],[26.36318,42.50033,168.6077],[26.3424,42.46077,154.3951],[26.29589,42.4493,143.37],[26.24525,42.46302,156.3746],[26.22406,42.45343,180.5478],[26.23419,42.42248,177.0237],[26.20494,42.40749,230.0636],[26.16856,42.40537,257.4119],[26.17538,42.36858,193.6305],[26.2066,42.36747,181.6701],[26.22499,42.3576,185.7087],[26.17373,42.26574,147.748],[26.18086,42.21717,241.2921],[26.16639,42.18035,277.1243],[26.13012,42.15704,301.7216],[26.1296,42.10061,237.5767],[26.14335,42.07366,394.7277],[26.14283,42.0457,458.639],[26.22851,42.01351,442.0139],[26.32008,42.00459,665.0323],[26.35036,41.98757,740.3568],[26.35791,41.95646,472.5034],[26.36679,41.94075,498.651],[26.38157,41.9586,380.0602],[26.40297,41.97992,291.8737],[26.43728,41.97418,232.0716],[26.46157,41.94927,288.1342],[26.46002,41.91152,217.1699],[26.48028,41.89385,220.6844],[26.50549,41.88184,198.9693],[26.53071,41.87228,169.658],[26.55231,41.8814,173.9591],[26.55289,41.88164,173.9591],[26.5536,41.8877,173.7939],[26.55474,41.89295,174.5786],[26.55898,41.90173,166.8476],[26.5598,41.90734,171.2923],[26.55681,41.91075,182.7535],[26.54472,41.91643,190.8449],[26.54296,41.92036,232.0026],[26.54709,41.9269,201.8273],[26.55329,41.93158,138.3715],[26.56063,41.93568,156.9846],[26.58947,41.95876,297.3383],[26.60569,41.96741,347.6858],[26.62357,41.96904,392.4138],[26.71757,41.95731,449.8214],[26.73674,41.95896,484.0356],[26.74698,41.96449,488.2422],[26.76858,41.98077,445.3956],[26.78057,41.98343,483.2087],[26.78992,41.97995,438.3266],[26.80842,41.96788,411.1483],[26.81943,41.96566,430.7026],[26.8277,41.96878,476.9457],[26.8379,41.97522,500.2244],[26.85002,41.98286,493.9224],[26.86077,41.9879,491.4429],[26.87172,41.98814,459.1682],[26.88113,41.98553,437.5006],[26.89033,41.98542,454.7766],[26.90108,41.99348,439.654],[26.91146,41.99679,420.2663],[26.93022,41.99452,412.2564],[26.9389,41.99622,426.9425],[26.95007,42.00617,453.3391],[26.95823,42.01824,436.7584],[26.96717,42.0285,384.1921],[26.98107,42.03286,455.4342],[27.0004,42.04281,405.5967],[27.02262,42.07389,543.1082],[27.04655,42.08294,495.3255],[27.0479,42.08292,495.3255]]]}}