{"type": "Feature","bbox": [26.179,41.937,27.0462,42.7202],"geometry": {"type": "MultiPolygon","coordinates": [[[[26.5646,41.9402,184.0294],[26.5725,41.9438,222.4183],[26.5789,41.9415,242.2915],[26.5928,41.9513,299.4205],[26.6167,41.9618,334.988],[26.6195,41.9639,408.177],[26.6198,41.9703,436.2736],[26.6234,41.9769,444.9064],[26.6283,41.9771,424.2111],[26.6445,41.9697,400.1421],[26.6644,41.9656,473.6685],[26.6887,41.9647,456.6642],[26.7014,41.9608,430.9229],[26.7135,41.9611,444.9879],[26.7233,41.9566,459.5944],[26.7321,41.956,440.5527],[26.7389,41.9577,459.2357],[26.7511,41.9545,434.1967],[26.7601,41.9641,467.191],[26.7812,41.978,450.5284],[26.7957,41.9743,423.0437],[26.8385,41.9694,531.6858],[26.8483,41.9748,512.5764],[26.8511,41.9798,485.0314],[26.865,41.9874,498.5277],[26.9181,41.9929,436.5445],[26.9427,42.001,452.5299],[26.9681,42.0021,468.5751],[26.976,42.0082,411.719],[26.9831,42.0172,426.9065],[26.9831,42.0332,470.9839],[26.9878,42.0374,439.4796],[27.0026,42.0406,417.6764],[27.0145,42.0462,435.7673],[27.0258,42.0576,476.887],[27.0304,42.065,500.5773],[27.0281,42.0812,540.6984],[27.0385,42.0838,500.1762],[27.0426,42.0888,506.714],[27.0462,42.0976,408.6075],[27.0437,42.1025,383.1127],[27.0316,42.1098,352.4524],[26.9909,42.1152,340.3691],[26.9826,42.1177,356.3606],[26.9667,42.1241,342.3652],[26.9555,42.133,342.9891],[26.9442,42.1519,394.4188],[26.9434,42.1591,392.52],[26.9451,42.1692,303.6564],[26.9427,42.1755,288.2151],[26.9428,42.1812,277.3447],[26.9444,42.187,285.3656],[26.9483,42.191,300.381],[26.9589,42.1949,305.6831],[26.9688,42.2017,308.5612],[26.9697,42.2069,311.5537],[26.9675,42.2126,331.4849],[26.9638,42.2161,307.3866],[26.9489,42.2239,261.1506],[26.9386,42.2347,239.1409],[26.9358,42.2423,154.9491],[26.9429,42.2591,171.9822],[26.9589,42.271,115.5766],[26.9629,42.2843,133.122],[26.9606,42.2873,143.9558],[26.9516,42.2875,131.6128],[26.9334,42.2914,141.7781],[26.9266,42.295,176.2723],[26.9177,42.3075,199.1402],[26.9156,42.3209,215.8044],[26.9045,42.3364,232.2372],[26.8888,42.3462,212.7234],[26.8685,42.3539,234.9847],[26.8648,42.3569,246.6517],[26.8626,42.3617,250.78809999999999],[26.8583,42.3862,235.974],[26.8583,42.3903,238.1142],[26.8622,42.3966,229.6443],[26.8697,42.3998,210.5454],[26.8788,42.4012,215.9412],[26.9391,42.4084,176.1886],[26.9483,42.4122,177.5597],[26.9639,42.4221,93.7081],[26.9584,42.427,100.77],[26.9518,42.4399,126.4996],[26.9398,42.4513,156.7986],[26.9269,42.4529,157.6741],[26.8918,42.4501,148.0536],[26.8841,42.4516,149.975],[26.8796,42.4546,160.5641],[26.8744,42.4624,173.0084],[26.8737,42.4659,182.5133],[26.8723,42.4758,203.7478],[26.8726,42.4955,247.072],[26.8696,42.4985,242.0322],[26.852,42.505,233.1806],[26.846,42.5122,213.0195],[26.8356,42.5341,183.2427],[26.825,42.5438,166.5665],[26.8069,42.5688,147.0031],[26.8001,42.5806,152.9377],[26.7972,42.5946,152.227],[26.792,42.6057,142.9915],[26.7921,42.6179,138.6098],[26.7899,42.6237,138.2194],[26.7703,42.6422,158.3629],[26.7599,42.6552,224.5304],[26.7532,42.66,290.0258],[26.7503,42.6641,350.319],[26.7505,42.6669,351.5358],[26.743,42.6717,404.1956],[26.7327,42.6857,429.3967],[26.7166,42.7031,347.7065],[26.7115,42.7072,334.5504],[26.693,42.7159,261.8689],[26.6743,42.7202,234.9358],[26.6651,42.718,233.0983],[26.6636,42.7092,271.1222],[26.6698,42.694,325.2252],[26.6716,42.685,280.3429],[26.6705,42.6762,206.7809],[26.674,42.6595,265.5861],[26.6721,42.6558,184.4251],[26.6602,42.644,158.6361],[26.6578,42.6353,153.5059],[26.6556,42.6331,153.729],[26.6519,42.6313,152.2886],[26.6475,42.6317,150.8922],[26.6431,42.6334,150.0273],[26.638,42.6389,150.8597],[26.635,42.6401,151.2476],[26.6306,42.6389,152.1665],[26.6276,42.637,151.7498],[26.6189,42.6203,150.7538],[26.6102,42.6114,157.3827],[26.5984,42.6062,158.2849],[26.5794,42.5936,177.4692],[26.5604,42.5847,169.1888],[26.543,42.5839,153.5995],[26.5283,42.5865,144.0173],[26.5135,42.586,133.5392],[26.4827,42.5702,132.5864],[26.474,42.5636,133.0601],[26.4572,42.5596,134.3847],[26.4382,42.5594,136.2196],[26.4297,42.5614,136.9025],[26.4149,42.5678,139.9742],[26.4061,42.5683,144.5508],[26.3978,42.5659,140.8875],[26.3708,42.5447,141.8496],[26.3687,42.5411,142.0585],[26.3696,42.538,141.9744],[26.3791,42.5328,141.7873],[26.3863,42.5216,175.9618],[26.3877,42.5129,206.8329],[26.3858,42.5056,213.812],[26.3558,42.4934,156.2288],[26.3498,42.4889,159.1984],[26.341,42.4744,163.1362],[26.3339,42.4701,153.2178],[26.3186,42.4652,145.7623],[26.3147,42.4571,142.6125],[26.3051,42.4521,144.3327],[26.2966,42.4532,142.7001],[26.28,42.4597,149.5119],[26.2746,42.4587,152.4334],[26.2522,42.465,149.3864],[26.2379,42.4655,160.6344],[26.2295,42.4612,170.0694],[26.2245,42.4545,175.2641],[26.2297,42.4336,180.0409],[26.23,42.4253,176.4492],[26.2281,42.4201,178.7669],[26.2105,42.4191,202.9382],[26.193,42.4252,232.7836],[26.1874,42.4238,240.2009],[26.1836,42.4175,291.8755],[26.1874,42.405,225.3995],[26.2084,42.3761,184.5326],[26.2154,42.3755,187.4592],[26.2202,42.3777,199.3092],[26.2435,42.3923,211.3819],[26.2489,42.392,205.8506],[26.2511,42.3897,207.3389],[26.2513,42.3777,226.6357],[26.2351,42.3392,183.3133],[26.2268,42.3264,164.3147],[26.2053,42.2992,170.1292],[26.1861,42.267,146.1823],[26.1814,42.2551,136.096],[26.179,42.2396,175.7615],[26.1853,42.2368,186.1496],[26.1873,42.233,204.7039],[26.1926,42.2296,225.4217],[26.2081,42.2255,225.6857],[26.2134,42.2224,243.1131],[26.2273,42.2202,220.9992],[26.2366,42.2168,210.9229],[26.2531,42.2074,215.1708],[26.2899,42.2028,244.8505],[26.3042,42.198,197.4357],[26.3137,42.1896,206.5137],[26.3178,42.1892,206.0688],[26.3245,42.185,190.7551],[26.329,42.1794,187.7032],[26.3722,42.1739,168.4883],[26.3778,42.1667,154.7069],[26.3877,42.1621,165.4703],[26.3962,42.162,163.7656],[26.42,42.1703,164.0675],[26.4311,42.1676,164.4572],[26.4449,42.157,149.25],[26.4562,42.1551,183.106],[26.479,42.1628,110.2112],[26.491,42.164,102.4406],[26.4951,42.1617,100.2758],[26.495,42.1587,99.5325],[26.5012,42.1477,109.2086],[26.5079,42.1427,114.5873],[26.532,42.1427,100.3579],[26.5334,42.1416,103.1766],[26.5334,42.1381,103.69],[26.5229,42.1234,98.8933],[26.5203,42.1124,100.3667],[26.5081,42.0948,126.3039],[26.5064,42.0902,165.2452],[26.5105,42.0704,94.2597],[26.52,42.0534,189.8009],[26.5189,42.0369,231.3868],[26.5169,42.0343,225.9956],[26.4956,42.0309,131.6513],[26.4912,42.0265,77.8673],[26.4906,42.0198,78.1605],[26.4921,42.0172,79.4738],[26.5084,42.0087,81.8783],[26.5104,41.9931,103.0883],[26.5249,41.9816,79.2519],[26.5233,41.9718,89.9682],[26.5248,41.9684,104.5486],[26.5479,41.9534,126.2098],[26.5534,41.942,60.3918],[26.5591,41.937,77.7561],[26.5646,41.9402,184.0294]]]]}
,"properties": {"GID_1": "BGR.28_1","GID_0": "BGR","country": "Bulgaria","state": "Yambol","VARNAME_1": "Jambol|Jamboli","NL_NAME_1": "Ямбол","TYPE_1": "Oblast","ENGTYPE_1": "Province","CC_1": "NA","HASC_1": "BG.YA","ISO_1": "BG-28","name": "Yambol.state","area_km2": 3387.714,"hist_schema_id": "Elevation0-9000","hist_area_km2": {"75": 1.915,"100": 76.971,"125": 349.912,"150": 760.235,"175": 530.221,"200": 352.178,"225": 304.653,"250": 263.274,"275": 190.585,"300": 134.996,"325": 108.873,"350": 92.23,"375": 69.17,"400": 47.85,"425": 43.129,"450": 32.779,"475": 17.262,"500": 7.703,"525": 2.787,"550": 0.897,"575": 0.079}}}