{"type":"Feature","properties":{"ISO3166-1-Alpha-3":"BGR","country":"Bulgaria","fill":"#FF0","id":"2247","name":"Lovech"},
"geometry":{"type": "Polygon","coordinates": [[[25.11157,43.27989,184.3604],[25.07519,43.30594,68.5225],[25.04987,43.34361,96.8276],[25.02982,43.36381,106.9348],[25.02445,43.33764,106.8666],[25.00667,43.32498,118.7845],[24.98011,43.31074,129.7806],[24.95024,43.30141,137.7986],[24.92223,43.29547,170.9053],[24.89629,43.29452,183.2413],[24.87459,43.31333,186.7844],[24.83696,43.30986,190.2852],[24.81381,43.31126,241.6355],[24.75284,43.30873,300.5719],[24.69961,43.28038,348.479],[24.68555,43.2647,378.5805],[24.67429,43.25896,395.6193],[24.66354,43.27043,359.4929],[24.65217,43.25873,367.0523],[24.6439,43.24462,351.5952],[24.62519,43.22744,338.5732],[24.58985,43.2054,402.1248],[24.57445,43.20114,422.7029],[24.57093,43.20853,424.8909],[24.56422,43.21408,407.9586],[24.51533,43.21566,371.6362],[24.44309,43.231,256.1138],[24.42407,43.24462,246.0551],[24.41053,43.26387,142.9169],[24.39255,43.27798,121.1409],[24.37301,43.27821,207.9849],[24.35389,43.27379,234.5038],[24.33405,43.26046,254.2046],[24.317,43.24563,256.3064],[24.28888,43.24036,226.9177],[24.25953,43.23157,267.1443],[24.23524,43.22628,248.4406],[24.20982,43.22917,147.4768],[24.17902,43.24152,112.6462],[24.15649,43.23798,169.6263],[24.13282,43.25235,178.4189],[24.08022,43.23483,279.4597],[24.02678,43.21173,275.3089],[24.03495,43.17331,147.8203],[24.02678,43.13323,305.5674],[24.01634,43.11075,377.1564],[23.99102,43.11086,430.1987],[23.97376,43.12215,299.3323],[23.95836,43.1145,269.5431],[23.96374,43.08623,590.6284],[23.97748,43.05988,655.2467],[24.00621,43.06021,582.7725],[24.0243,43.04564,547.2178],[24.03195,43.03084,719.668],[24.04601,43.02042,645.4578],[24.05231,42.99978,411.3121],[24.04466,42.97877,364.1304],[24.06564,42.96043,411.5701],[24.09055,42.94234,463.6404],[24.12931,42.93578,585.3909],[24.15143,42.90872,806.7639],[24.15401,42.87635,819.8423],[24.15215,42.84385,1119.3381],[24.13861,42.80359,1251.9343],[24.15856,42.78085,1412.5192],[24.28516,42.77966,1856.2456],[24.30935,42.76979,1805.3865],[24.3325,42.75778,1831.8206],[24.36433,42.75248,1824.0533],[24.39668,42.75491,2166.0107],[24.43761,42.75171,1918.1539],[24.50003,42.79201,1508.9148],[24.53786,42.79248,1433.7499],[24.5853,42.78855,1619.7908],[24.63067,42.7753,1575.0807],[24.66437,42.74246,1513.6399],[24.70395,42.71667,1635.2],[24.75201,42.70943,1821.9415],[24.7671,42.71194,1853.9678],[24.77506,42.7191,1970.644],[24.82766,42.71899,1651.7694],[24.87872,42.71024,1923.3669],[24.92471,42.71403,2174.522],[24.96616,42.73209,2122.7896],[24.96957,42.74437,1633.9426],[24.98001,42.75318,1720.3636],[25.01122,42.75853,1545.7949],[25.00254,42.80741,718.1127],[24.97763,42.8532,605.5373],[24.93825,42.87353,1097.111],[24.89484,42.8888,613.7559],[24.88513,42.89978,660.5486],[24.87924,42.91268,535.9976],[24.88316,42.92792,577.4116],[24.87831,42.94229,606.5239],[24.86745,42.98683,343.4367],[24.92016,43.03363,508.5516],[24.91159,43.06626,428.7589],[24.9243,43.10693,503.2646],[24.96171,43.12693,389.5247],[24.96905,43.1647,502.9919],[24.98538,43.19586,428.0402],[25.03199,43.1909,432.7762],[25.07251,43.18109,438.5289],[25.11653,43.21524,359.1041],[25.11157,43.27989,184.3604]]]}}