{"type":"Feature","properties":{"GID_1":"BGR.9_1","GID_0":"BGR","country":"Bulgaria","state":"Lovech","VARNAME_1":"Loveč","NL_NAME_1":"Ловеч","TYPE_1":"Oblast","ENGTYPE_1":"Province","CC_1":"NA","HASC_1":"BG.LV","ISO_1":"BG-11","name":"Lovech.state"},
"geometry":{"type": "MultiPolygon","coordinates": [[[[24.5013,42.79,1426.1025],[24.5046,42.7924,1579.9346],[24.5205,42.7887,1556.4247],[24.551,42.7877,1590.2998],[24.5816,42.7816,1507.8279],[24.602,42.7794,1521.5181],[24.6239,42.7813,1461.7637],[24.6309,42.7805,1344.2335],[24.6573,42.7706,1470.1924],[24.6876,42.7527,1383.4573],[24.6912,42.7493,1242.9038],[24.6928,42.7451,1302.8137],[24.6941,42.7315,1420.8523],[24.6977,42.7301,1307.1311],[24.7276,42.7341,1672.2283],[24.7582,42.7321,1707.9414],[24.7786,42.7353,1582.0612],[24.7987,42.7416,1654.7823],[24.8113,42.7414,1267.1788],[24.833,42.739,1393.0533],[24.8465,42.7357,1364.21],[24.8615,42.7301,1792.9401],[24.8802,42.7203,2136.4585],[24.8928,42.7173,2058.4321],[24.9178,42.708,2129.6074],[24.9394,42.7063,1487.6365],[24.959,42.7115,1866.9515],[24.9738,42.7192,1894.959],[24.9879,42.7221,1788.9299],[25.0088,42.7361,1527.4209],[25.0365,42.7353,1699.8812],[25.0398,42.7476,1839.6184],[25.0395,42.7596,1727.8527],[25.0364,42.7722,1041.3052],[25.0268,42.7887,1039.613],[25.0046,42.815,586.4174],[24.9735,42.8438,569.7625],[24.9501,42.8705,971.4961],[24.937,42.8764,1057.4844],[24.9066,42.8862,750.3258],[24.8929,42.8964,633.0135],[24.8887,42.9058,591.3411],[24.8837,42.9287,586.8571],[24.8735,42.9546,445.7286],[24.8732,42.9701,298.438],[24.8777,43.0092,583.4047],[24.8852,43.0286,520.0669],[24.8916,43.0358,451.1183],[24.8966,43.0388,483.6963],[24.9124,43.0382,551.1105],[24.9184,43.0408,570.715],[24.9511,43.041,392.9888],[24.9513,43.0437,365.476],[24.9386,43.056,562.1784],[24.939,43.0594,445.3811],[24.948,43.0606,406.715],[24.9491,43.0634,395.9371],[24.941,43.0725,392.0698],[24.9342,43.085,404.7469],[24.9334,43.0915,397.9285],[24.9354,43.1055,479.9599],[24.9318,43.1161,447.8059],[24.9314,43.1267,435.5851],[24.9319,43.1304,449.5667],[24.9366,43.1371,491.1285],[24.9408,43.1394,493.4981],[24.9529,43.1395,468.8239],[24.9667,43.1433,491.1191],[24.974,43.1521,460.8838],[24.974,43.1642,467.7544],[24.9664,43.1801,420.8654],[24.9673,43.2,401.6441],[24.9618,43.2181,368.5237],[24.9641,43.2241,389.8172],[24.9836,43.2242,386.113],[25.0033,43.2097,420.9201],[25.028199999999998,43.1981,417.2698],[25.0617,43.1899,457.5291],[25.0773,43.1844,449.4183],[25.1038,43.1795,407.5091],[25.114,43.1802,419.8448],[25.1326,43.1845,415.579],[25.1387,43.1868,416.7185],[25.1413,43.1904,406.7901],[25.1409,43.1996,358.6527],[25.1378,43.2118,355.2692],[25.1387,43.2176,320.5179],[25.1605,43.2382,271.409],[25.171,43.256,201.0605],[25.1731,43.2627,152.5324],[25.1731,43.2697,154.4392],[25.1687,43.2818,157.0602],[25.158,43.2901,153.452],[25.1087,43.3123,66.9563],[25.0991,43.3253,73.4061],[25.0979,43.3359,79.833],[25.0918,43.3522,88.6062],[25.0794,43.3743,89.4725],[25.0697,43.3842,89.4103],[25.0622,43.3893,73.1739],[25.0346,43.3971,99.4717],[25.0293,43.395,89.7848],[25.0281,43.3924,91.9508],[25.0262,43.3711,99.5489],[25.0199,43.3622,111.3329],[25.0171,43.3522,100.0602],[25.0143,43.3496,104.8645],[24.9929,43.3367,118.5293],[24.986,43.336,121.078],[24.9751,43.3276,129.7678],[24.9554,43.3208,129.1314],[24.9388,43.3114,150.9545],[24.9256,43.2983,163.9408],[24.9216,43.2968,170.9053],[24.9141,43.2969,181.1808],[24.9009,43.3066,162.7975],[24.869,43.3128,187.5773],[24.838,43.3279,197.5163],[24.8091,43.3266,249.2255],[24.7554,43.3091,300.1988],[24.7174,43.2914,322.6844],[24.6985,43.2778,352.2366],[24.689,43.2598,397.7947],[24.6867,43.2584,396.6204],[24.6812,43.2583,404.1277],[24.6757,43.2627,387.2951],[24.6708,43.2687,376.4489],[24.67,43.2736,352.8122],[24.6659,43.2811,326.2673],[24.6628,43.2817,325.416],[24.6593,43.2799,330.3807],[24.6523,43.2738,326.4383],[24.6483,43.262,347.6143],[24.6471,43.2406,389.76],[24.6425,43.2348,409.1339],[24.6351,43.2313,378.2437],[24.6105,43.2301,298.4662],[24.5929,43.2263,365.3029],[24.5597,43.2268,365.2457],[24.5409,43.2288,340.8368],[24.5128,43.2375,296.2389],[24.4717,43.2385,294.6666],[24.4606,43.244,266.0204],[24.4551,43.2548,259.0169],[24.4492,43.2608,175.0107],[24.4156,43.2764,260.2739],[24.4129,43.2793,263.9882],[24.4125,43.284,226.5356],[24.401,43.2915,237.8452],[24.3975,43.2932,225.7799],[24.3795,43.2943,190.3792],[24.371,43.294,113.9776],[24.3299,43.2845,194.1224],[24.32,43.2727,242.038],[24.3131,43.2708,200.1549],[24.3006,43.2737,198.8139],[24.283,43.2614,241.187],[24.2622,43.2542,280.7798],[24.2492,43.2522,264.1136],[24.229,43.2501,174.692],[24.2148,43.2517,176.9129],[24.1962,43.2503,144.233],[24.1815,43.2513,118.8529],[24.1566,43.2583,133.6301],[24.1453,43.2594,142.5606],[24.1285,43.2575,147.6309],[24.1158,43.2533,205.0759],[24.101,43.2436,214.8271],[24.0867,43.2244,320.9847],[24.0634,43.2208,115.4353],[24.0486,43.2163,196.0555],[24.0525,43.2101,184.012],[24.0541,43.2024,225.6962],[24.0473,43.1802,184.9622],[24.0494,43.1667,296.7018],[24.0519,43.1604,366.6503],[24.0475,43.1433,294.686],[24.0484,43.1396,258.2263],[24.0524,43.1349,303.8016],[24.0566,43.1205,339.0314],[24.0515,43.118,394.7576],[24.0332,43.1154,380.6649],[24.0136,43.1139,313.3613],[23.9809,43.1149,336.3853],[23.9737,43.1118,356.9844],[23.9732,43.1054,272.5922],[23.9813,43.085,564.6733],[23.9832,43.0744,462.373],[23.9781,43.0579,690.8442],[24.0023,43.0568,559.5502],[24.0459,43.0682,419.0963],[24.0611,43.0693,347.9879],[24.0644,43.0661,379.5425],[24.0653,43.0618,441.1838],[24.062,43.0454,809.0401],[24.0661,43.0338,662.1083],[24.0783,43.0217,499.2768],[24.0864,43.0088,448.957],[24.0863,42.9905,508.3096],[24.0906,42.9714,506.0176],[24.0991,42.9666,442.9458],[24.1036,42.9606,438.925],[24.1135,42.9529,487.0356],[24.1217,42.9483,505.8847],[24.1377,42.9448,713.1295],[24.1619,42.9425,599.3169],[24.167,42.9386,603.0699],[24.1655,42.9355,598.5366],[24.1498,42.9309,595.0609],[24.1427,42.927,704.4183],[24.1404,42.9217,789.9998],[24.1405,42.9161,816.4935],[24.1428,42.9082,731.8201],[24.1481,42.9021,767.5003],[24.1557,42.8978,713.952],[24.1701,42.894,711.1185],[24.1743,42.8896,821.4728],[24.1731,42.8791,779.7227],[24.1639,42.8697,627.3632],[24.1635,42.8613,677.5031],[24.1654,42.8519,832.5974],[24.17,42.8466,785.7896],[24.1852,42.8399,719.9198],[24.1864,42.8345,738.4779],[24.1853,42.8292,605.4195],[24.1757,42.8206,836.9535],[24.1788,42.8104,1002.0518],[24.1776,42.8039,852.2326],[24.1742,42.801,936.4664],[24.162,42.7991,997.1537],[24.1536,42.795,1132.0432],[24.1467,42.7879,1290.1671],[24.1463,42.7846,1374.6862],[24.1479,42.7825,1375.4899],[24.1559,42.7783,1452.8735],[24.2131,42.7693,1615.728],[24.2414,42.7729,2008.8776],[24.2807,42.7736,2027.818],[24.3202,42.7579,1949.2106],[24.3619,42.7564,1700.5811],[24.382,42.7471,1926.4272],[24.3894,42.7471,1933.536],[24.4193,42.7547,1978.1992],[24.4592,42.7492,1761.7262],[24.467,42.7509,1668.1917],[24.4832,42.7677,1707.2974],[24.4939,42.7848,1308.0156],[24.5013,42.79,1426.1025]]]]}}