{"type":"Feature","properties":{"GID_2":"BGR.1.11_1","GID_0":"BGR","country":"Bulgaria","GID_1":"BGR.1_1","state":"Blagoevgrad","NL_NAME_1":"Благоевград","county":"Satovcha","VARNAME_2":"Satovitsa|Svatovitsa","NL_NAME_2":"Сатовча","TYPE_2":"Obshtina","ENGTYPE_2":"Municipality","CC_2":"NA","HASC_2":"BG.BL.SV","name":"Satovcha.county"},
"geometry":{"type": "MultiPolygon","coordinates": [[[[23.9191,41.5689,723.4816],[23.9457,41.5567,756.7878],[23.9549,41.5411,616.682],[23.9583,41.5248,556.4252],[23.9515,41.5095,488.8822],[23.9552,41.4967,506.2102],[23.9712,41.4863,460.0942],[24.018,41.4704,446.5099],[24.0147,41.4628,530.1411],[24.0142,41.4571,538.6999],[24.0169,41.4534,560.2676],[24.0204,41.4526,500.9068],[24.029,41.4543,443.2635],[24.0309,41.4492,546.8478],[24.0398,41.4501,461.4264],[24.049,41.4583,581.0464],[24.0612,41.4623,647.7463],[24.0654,41.4622,766.9299],[24.0667,41.4651,798.2136],[24.0638,41.4789,850.7065],[24.0565,41.4822,880.2803],[24.0566,41.4843,860.4401],[24.0594,41.4861,871.8328],[24.0604,41.4929,877.0569],[24.0626,41.4966,819.823],[24.056,41.5063,882.4011],[24.0573,41.5099,677.038],[24.0561,41.5153,640.9128],[24.0606,41.5209,597.9618],[24.0667,41.5225,650.0562],[24.0716,41.5266,783.2878],[24.0721,41.5305,865.6832],[24.0705,41.5292,885.2035],[24.0679,41.5361,682.2209],[24.0681,41.5496,656.1161],[24.0787,41.5711,982.5656],[24.0861,41.5807,805.9131],[24.0874,41.5846,780.8737],[24.0859,41.5908,886.3615],[24.0798,41.6026,974.696],[24.0798,41.6104,1000.194],[24.1081,41.6336,1277.5687],[24.1098,41.6407,1450.6749],[24.1091,41.6497,1455.8529],[24.1076,41.6525,1473.3231],[24.0965,41.6593,1613.4495],[24.0731,41.6672,1626.5673],[24.0645,41.6722,1605.5884],[24.0388,41.6932,1541.1458],[23.9917,41.7244,1600.2422],[23.9665,41.7223,1620.3665],[23.9611,41.7204,1549.1355],[23.9389,41.7061,1671.5387],[23.9243,41.7011,1610.2693],[23.9168,41.6953,1562.4993],[23.9194,41.6711,1441.859],[23.9225,41.6579,1399.7919],[23.9213,41.6471,1344.9774],[23.9159,41.6347,1212.042],[23.8993,41.6178,1157.105],[23.8938,41.6071,1076.5914],[23.895,41.6045,1002.6014],[23.9015,41.6008,960.8601],[23.9216,41.5988,850.8152],[23.9264,41.595,865.0521],[23.9213,41.5883,759.8359],[23.92,41.5822,691.8259],[23.9134,41.5779,693.6096],[23.9147,41.573,708.592],[23.9191,41.5689,723.4816]]]]}}