{"type": "Feature","id": "2235","bbox": [24.3602,41.79334,25.32954,42.79248],"geometry": {"type": "Polygon","coordinates": [[[24.75201,42.70943,1821.9415],[24.70395,42.71667,1635.2],[24.66437,42.74246,1513.6399],[24.63067,42.7753,1575.0807],[24.5853,42.78855,1619.7908],[24.53786,42.79248,1433.7499],[24.50003,42.79201,1508.9148],[24.43761,42.75171,1918.1539],[24.39668,42.75491,2166.0107],[24.3602,42.70742,1018.7024],[24.37312,42.66169,1328.8867],[24.41632,42.64499,1335.1677],[24.44722,42.61262,1325.0564],[24.47296,42.59929,1430.876],[24.46831,42.57714,1285.3929],[24.44185,42.56319,1160.6448],[24.40815,42.56208,1122.8519],[24.39668,42.51441,640.3206],[24.39441,42.4641,424.5104],[24.41611,42.46079,389.193],[24.42841,42.43539,466.3883],[24.42655,42.42547,407.3823],[24.42758,42.4032,526.2887],[24.4373,42.38098,430.6399],[24.43709,42.36163,322.0761],[24.45518,42.3561,313.9156],[24.47833,42.32651,247.49],[24.46355,42.30036,241.9708],[24.46489,42.28564,227.6447],[24.48112,42.26814,213.6182],[24.48877,42.24088,208.3559],[24.48381,42.21236,202.4675],[24.48308,42.19236,197.3054],[24.49983,42.18288,194.2215],[24.51574,42.1688,188.6459],[24.50096,42.15371,185.934],[24.47337,42.14856,185.5524],[24.45032,42.1349,186.8461],[24.45353,42.0934,258.3322],[24.44143,42.07087,222.1591],[24.44701,42.04327,484.5117],[24.46262,41.99596,651.5795],[24.45115,41.94943,617.8703],[24.56256,41.88525,1668.8073],[24.61031,41.90184,1490.0752],[24.65909,41.92535,1561.4775],[24.71098,41.93651,1250.171],[24.76017,41.94114,1196.6998],[24.80875,41.93098,933.0286],[24.84523,41.89582,1180.4951],[24.88978,41.87494,776.934],[24.91438,41.85807,1018.2443],[24.93381,41.8314,1299.9569],[24.96688,41.83238,1001.4521],[24.99375,41.83895,1105.7437],[25.03127,41.80094,782.0668],[25.05018,41.80076,814.6898],[25.06713,41.79497,864.7405],[25.09111,41.79334,896.5764],[25.097,41.80902,803.775],[25.10207,41.83101,918.8607],[25.12429,41.84453,1021.5285],[25.13348,41.86639,695.0203],[25.1494,41.88178,498.4115],[25.16397,41.88576,516.0872],[25.17297,41.89749,613.8356],[25.19591,41.90858,610.8226],[25.22257,41.9037,678.5865],[25.27373,41.92917,441.5894],[25.30753,41.97201,327.4652],[25.31042,41.98788,277.2617],[25.29906,41.99687,274.6187],[25.2943,42.00576,219.7145],[25.29999,42.01702,156.8024],[25.29223,42.05294,161.6243],[25.28231,42.0871,133.403],[25.28397,42.13324,118.6566],[25.29337,42.13345,116.708],[25.30846,42.13136,118.3633],[25.32954,42.12451,136.247],[25.30453,42.15159,149.3705],[25.26722,42.17073,177.1793],[25.2356,42.17683,170.0358],[25.20056,42.16978,149.8113],[25.18216,42.16825,140.6343],[25.16738,42.14399,124.3942],[25.1494,42.14647,124.7673],[25.15291,42.16045,126.347],[25.14196,42.16704,127.6165],[25.12615,42.172,128.8037],[25.11529,42.18125,136.297],[25.10723,42.17763,133.5463],[25.08801,42.18805,136.28],[25.07313,42.22897,178.7305],[25.08584,42.26321,176.5902],[25.11974,42.27341,178.8343],[25.14909,42.28615,192.1893],[25.12656,42.31907,225.3133],[25.11581,42.34129,286.1677],[25.11426,42.36573,273.2928],[25.10837,42.40111,451.7932],[25.13638,42.41591,519.145],[25.17359,42.40423,454.3389],[25.19105,42.40253,337.6256],[25.19736,42.41687,362.9798],[25.19229,42.42976,437.5185],[25.17927,42.43452,554.4783],[25.15633,42.45405,690.2816],[25.17586,42.48947,1036.6394],[25.15953,42.50971,1083.62],[25.12656,42.50172,1018.1088],[25.0816,42.50255,915.7728],[25.04274,42.52428,947.4706],[25.026,42.54133,876.8656],[25.01825,42.56329,688.394],[25.01866,42.57668,567.353],[24.99437,42.61699,716.3519],[25.01349,42.6221,792.7012],[25.0229,42.64156,934.5887],[25.00636,42.71305,1642.6335],[25.01153,42.74827,1486.0186],[25.01122,42.75853,1545.7949],[24.98001,42.75318,1720.3636],[24.96957,42.74437,1633.9426],[24.96616,42.73209,2122.7896],[24.92471,42.71403,2174.522],[24.87872,42.71024,1923.3669],[24.82766,42.71899,1651.7694],[24.77506,42.7191,1970.644],[24.7671,42.71194,1853.9678],[24.75201,42.70943,1821.9415]]]}
,"properties": {"ISO3166-1-Alpha-3": "BGR","country": "Bulgaria","fill": "#00F","name": "Plovdiv","area_km2": 5557.233,"hist_schema_id": "Elevation0-9000","hist_area_km2": {"100": 0.126,"125": 122.144,"150": 406.186,"175": 726.364,"200": 551.773,"225": 345.571,"250": 238.354,"275": 210.337,"300": 202.851,"325": 174.972,"350": 171.561,"375": 146.618,"400": 127.119,"425": 111.485,"450": 101.092,"475": 92.129,"500": 84.437,"525": 78.284,"550": 71.182,"575": 66.028,"600": 60.271,"625": 61.142,"650": 57.714,"675": 53.627,"700": 50.474,"725": 49.153,"750": 48.007,"775": 47.649,"800": 45.882,"825": 45.093,"850": 42.003,"875": 39.989,"900": 38.42,"925": 37.108,"950": 37.34,"975": 36.815,"1000": 36.318,"1025": 33.566,"1050": 33.726,"1075": 34.017,"1100": 33.619,"1125": 31.663,"1150": 32.788,"1175": 32.483,"1200": 32.282,"1225": 32.117,"1250": 30.168,"1275": 30.642,"1300": 30.615,"1325": 29.574,"1350": 28.723,"1375": 28.15,"1400": 25.132,"1425": 24.131,"1450": 24.287,"1475": 21.975,"1500": 21.603,"1525": 19.345,"1550": 18.3,"1575": 14.586,"1600": 12.328,"1625": 9.713,"1650": 8.063,"1675": 6.038,"1700": 5.252,"1725": 5.456,"1750": 5.22,"1775": 5.002,"1800": 5.188,"1825": 5.266,"1850": 4.907,"1875": 4.285,"1900": 3.895,"1925": 3.397,"1950": 3.303,"1975": 2.696,"2000": 2.337,"2025": 1.262,"2050": 1.059,"2075": 1.059,"2100": 0.67,"2125": 0.639,"2150": 0.483,"2175": 0.389,"2200": 0.093,"2225": 0.062,"2250": 0.047}}}