{"type": "Feature","bbox": [24.352,41.6706,25.3763,42.7924],"geometry": {"type": "MultiPolygon","coordinates": [[[[24.9756,41.7984,1162.4197],[24.9766,41.8018,1302.8943],[24.9805,41.8058,1178.2656],[25.001,41.8132,880.3988],[25.0195,41.823,1021.4373],[25.029,41.8234,886.7172],[25.04,41.8193,956.7654],[25.0592,41.8075,884.6812],[25.0617,41.8038,701.9683],[25.0637,41.7941,916.1536],[25.0707,41.7867,885.5999],[25.0895,41.7843,620.3874],[25.1019,41.7795,542.0989],[25.114,41.7775,550.3644],[25.1322,41.7834,509.5363],[25.1408,41.7901,660.988],[25.1512,41.819,898.2166],[25.1672,41.8304,910.3267],[25.1755,41.8338,847.0334],[25.1914,41.8457,749.1647],[25.2033,41.8602,648.7758],[25.2146,41.869,438.9069],[25.2233,41.8748,607.4384],[25.2409,41.8797,670.5489],[25.2635,41.8903,480.321],[25.2749,41.8919,501.204],[25.2926,41.9013,757.14],[25.3286,41.9284,414.699],[25.346,41.948,303.3209],[25.3497,41.9659,249.6746],[25.3444,42.0001,262.102],[25.3409,42.0088,262.1664],[25.3329,42.0166,222.8586],[25.3326,42.0229,183.0102],[25.3464,42.05,133.0563],[25.3596,42.0664,121.9148],[25.3763,42.0936,113.7621],[25.3727,42.0984,110.9292],[25.3602,42.1047,110.2706],[25.3535,42.1205,127.867],[25.3495,42.1242,130.5755],[25.3223,42.1406,129.4463],[25.3048,42.1637,145.3511],[25.2899,42.1613,157.6797],[25.2648,42.1494,167.3359],[25.2532,42.1491,139.9465],[25.2337,42.1517,154.8957],[25.2222,42.1498,133.1467],[25.2064,42.1499,131.6412],[25.1787,42.1425,126.3379],[25.1585,42.1431,124.7547],[25.1339,42.1511,133.0783],[25.1123,42.1504,128.8736],[25.1007,42.1671,130.3992],[25.0973,42.1862,137.877],[25.0978,42.2159,147.4305],[25.0999,42.2225,166.7939],[25.1143,42.2381,162.4178],[25.1392,42.245,165.3195],[25.2083,42.2488,189.0654],[25.2163,42.2539,193.9796],[25.2148,42.2619,211.7665],[25.204,42.2699,243.2182],[25.1824,42.2743,238.0597],[25.1696,42.2803,245.7294],[25.1563,42.28,236.0508],[25.1505,42.2828,201.8471],[25.147,42.2906,186.8009],[25.1449,42.3018,212.9789],[25.1494,42.3548,293.1113],[25.1432,42.3855,383.7746],[25.1451,42.3893,406.171],[25.1518,42.3926,410.8295],[25.1601,42.3933,385.8245],[25.171,42.3919,381.3796],[25.2106,42.3779,298.7182],[25.2259,42.3765,290.6458],[25.2374,42.379,327.9761],[25.2432,42.3884,320.503],[25.2401,42.4027,339.0633],[25.2033,42.4177,369.36],[25.1918,42.4238,426.3384],[25.1887,42.4285,441.1223],[25.1895,42.4328,479.8633],[25.1918,42.4345,455.0773],[25.2116,42.4424,503.4973],[25.219,42.4483,497.818],[25.2262,42.4696,707.1161],[25.2145,42.4852,912.4799],[25.2074,42.4897,862.5335],[25.1972,42.4916,827.1947],[25.1869,42.4898,921.233],[25.172,42.4831,951.3055],[25.1511,42.4817,676.6753],[25.1365,42.4785,702.1707],[25.1275,42.4789,675.4829],[25.1066,42.4876,772.2412],[25.0833,42.491,1018.5121],[25.0755,42.4947,1069.1594],[25.0567,42.5142,1034.7072],[25.0467,42.554,750.4972],[25.0295,42.5786,571.0577],[25.0247,42.5906,518.2671],[25.0259,42.5975,509.3646],[25.0496,42.6258,597.1305],[25.0495,42.637,652.0048],[25.0458,42.6541,609.3826],[25.0389,42.6739,891.3455],[25.0452,42.7022,1373.069],[25.0406,42.7139,1463.9138],[25.0349,42.7233,1441.2833],[25.0365,42.7353,1699.8812],[25.0088,42.7361,1527.4209],[24.9879,42.7221,1788.9299],[24.9738,42.7192,1894.959],[24.959,42.7115,1866.9515],[24.9394,42.7063,1487.6365],[24.9178,42.708,2129.6074],[24.8928,42.7173,2058.4321],[24.8802,42.7203,2136.4585],[24.8615,42.7301,1792.9401],[24.8465,42.7357,1364.21],[24.833,42.739,1393.0533],[24.8113,42.7414,1267.1788],[24.7987,42.7416,1654.7823],[24.7786,42.7353,1582.0612],[24.7582,42.7321,1707.9414],[24.7276,42.7341,1672.2283],[24.6977,42.7301,1307.1311],[24.6941,42.7315,1420.8523],[24.6928,42.7451,1302.8137],[24.6912,42.7493,1242.9038],[24.6876,42.7527,1383.4573],[24.6573,42.7706,1470.1924],[24.6345,42.7793,1337.7798],[24.6266,42.7813,1403.3324],[24.6075,42.7794,1531.3497],[24.5918,42.7802,1439.713],[24.5533,42.7874,1570.644],[24.5205,42.7887,1556.4247],[24.5046,42.7924,1579.9346],[24.4939,42.7848,1308.0156],[24.4832,42.7677,1707.2974],[24.467,42.7509,1668.1917],[24.4592,42.7492,1761.7262],[24.4193,42.7547,1978.1992],[24.3894,42.7471,1933.536],[24.382,42.7471,1926.4272],[24.3782,42.7396,1673.4014],[24.364,42.7228,1210.3373],[24.352,42.7013,1066.9779],[24.3534,42.685,1036.6005],[24.3563,42.6726,1230.8906],[24.3625,42.6624,1254.5996],[24.3686,42.6548,1224.3309],[24.3809,42.6466,1231.7673],[24.4285,42.6309,1281.5767],[24.4527,42.6101,1471.7181],[24.4646,42.6036,1503.6439],[24.4932,42.5923,1396.4916],[24.4887,42.5824,1306.5177],[24.4837,42.5772,1162.1979],[24.4599,42.5635,1186.9177],[24.4549,42.5514,1186.5898],[24.4499,42.5473,1209.4275],[24.4408,42.5441,1193.8712],[24.4316,42.5448,1113.8044],[24.4141,42.5425,1094.3619],[24.4125,42.5275,800.7777],[24.4086,42.5199,725.6734],[24.3947,42.5044,685.4191],[24.3803,42.4931,597.9411],[24.373,42.4838,501.0466],[24.3694,42.4766,485.4474],[24.3707,42.4703,457.6964],[24.3798,42.4536,528.6154],[24.4016,42.4412,557.8898],[24.4107,42.4276,453.0789],[24.4233,42.4213,475.761],[24.427,42.4171,497.3448],[24.424,42.4129,522.2893],[24.4083,42.401,533.3386],[24.406,42.3975,490.2213],[24.405,42.3915,441.4061],[24.4087,42.3823,399.2365],[24.4211,42.3725,359.0136],[24.4272,42.3653,327.4479],[24.4277,42.3471,286.7834],[24.4367,42.3413,265.1297],[24.4604,42.3338,258.1301],[24.465699999999998,42.3292,250.7492],[24.4668,42.3196,253.3799],[24.4743,42.3115,236.7665],[24.4736,42.3065,240.4415],[24.4665,42.299,239.6803],[24.4628,42.2924,237.1515],[24.4466,42.2852,237.1047],[24.4453,42.2828,234.8509],[24.4504,42.2755,228.3869],[24.4569,42.271,224.2864],[24.4619,42.265,219.4571],[24.4643,42.2566,217.7777],[24.4779,42.2349,209.0015],[24.4827,42.2243,205.1866],[24.4843,42.2239,204.726],[24.4762,42.2009,200.7582],[24.4755,42.1911,198.1836],[24.4827,42.1867,195.5901],[24.4982,42.1868,194.9337],[24.5187,42.1829,190.9689],[24.5307,42.1685,186.579],[24.52,42.1584,185.4566],[24.5128,42.1555,183.2024],[24.4993,42.1541,186.2531],[24.4849,42.1503,184.5722],[24.4671,42.1417,185.7569],[24.4473,42.1269,286.1316],[24.4441,42.122,327.7581],[24.4438,42.1142,237.7268],[24.4484,42.1099,248.926],[24.4535,42.0964,320.5556],[24.4488,42.0798,219.3516],[24.4492,42.0764,218.7588],[24.4397,42.0653,229.3835],[24.434,42.0539,415.088],[24.4373,42.0438,463.3646],[24.4527,42.0327,639.4764],[24.461,42.0247,639.989],[24.4646,42.0153,774.3814],[24.4654,42.0009,841.9933],[24.4547,41.9703,516.4463],[24.4429,41.9485,770.38],[24.4306,41.933,530.5],[24.4461,41.9225,789.578],[24.4623,41.9179,921.6984],[24.476,41.9179,1177.0034],[24.4929,41.9233,1500.7516],[24.5034,41.9223,1534.2727],[24.5139,41.9128,1555.834],[24.5235,41.8977,1801.2975],[24.532,41.8901,1787.7986],[24.5584,41.8808,1732.6321],[24.579,41.8812,1455.6351],[24.6181,41.8867,1152.6392],[24.634,41.8868,1147.2285],[24.6557,41.8903,1176.3693],[24.6818,41.8971,1030.09],[24.6845,41.8936,1049.4078],[24.6909,41.8897,851.8882],[24.7103,41.886,838.6277],[24.7233,41.8856,974.1233],[24.7357,41.8786,1134.3669],[24.7639,41.8788,911.3364],[24.7747,41.8744,1341.817],[24.782,41.8684,1219.4402],[24.7882,41.8676,1155.4301],[24.7955,41.8407,1333.0349],[24.8012,41.8316,1032.9803],[24.8003,41.8268,868.4991],[24.7873,41.8201,1077.4131],[24.7831,41.8072,1282.8059],[24.7775,41.8012,1220.3394],[24.7639,41.7976,1553.363],[24.7623,41.7891,1569.3226],[24.775,41.7697,1685.8049],[24.7804,41.7689,1526.7806],[24.7861,41.777,1320.4182],[24.7933,41.7791,1398.8508],[24.7952,41.7768,1475.829],[24.7939,41.7639,1262.4785],[24.7953,41.7603,1400.3113],[24.8092,41.7625,1124.2095],[24.8185,41.7616,1439.3717],[24.8182,41.753,1532.3789],[24.8083,41.7413,1359.4668],[24.8023,41.7271,1704.0181],[24.8046,41.7128,1726.7094],[24.8118,41.7067,1743.6506],[24.8296,41.6981,1592.4224],[24.8375,41.6866,1734.7947],[24.8425,41.6748,1807.7802],[24.8488,41.6706,1696.9564],[24.854,41.6706,1687.8015],[24.8616,41.6741,1537.0776],[24.8757,41.6964,1689.2646],[24.8833,41.7021,1532.921],[24.899,41.7099,1842.2025],[24.8991,41.7313,1444.3162],[24.9037,41.7379,1530.1685],[24.9128,41.7399,1824.3002],[24.9277,41.7392,1690.5524],[24.9452,41.733,1701.8789],[24.9612,41.7293,1496.4579],[24.9739,41.7289,1358.3109],[24.9812,41.7316,1270.1572],[24.9946,41.7422,1224.5223],[24.997,41.7473,1184.521],[24.9968,41.7519,1228.0146],[24.9834,41.7594,1243.3716],[24.9787,41.7651,1050.4026],[24.9755,41.7877,1066.6062],[24.9756,41.7984,1162.4197]]]]}
,"properties": {"GID_1": "BGR.14_1","GID_0": "BGR","country": "Bulgaria","state": "Plovdiv","VARNAME_1": "Philippopolis","NL_NAME_1": "Пловдив","TYPE_1": "Oblast","ENGTYPE_1": "Province","CC_1": "NA","HASC_1": "BG.PD","ISO_1": "BG-16","name": "Plovdiv.state","area_km2": 6319.864,"hist_schema_id": "Elevation0-9000","hist_area_km2": {"100": 5.836,"125": 148.653,"150": 422.813,"175": 748.093,"200": 565.246,"225": 363.23,"250": 246.997,"275": 225.193,"300": 220.892,"325": 190.129,"350": 182.383,"375": 156.9,"400": 136.779,"425": 122.15,"450": 111.929,"475": 103.37,"500": 95.913,"525": 93.194,"550": 82.224,"575": 77.266,"600": 71.514,"625": 73.007,"650": 70.358,"675": 66.367,"700": 63.99,"725": 63.521,"750": 62.329,"775": 60.85,"800": 59.32,"825": 57.322,"850": 54.489,"875": 51.681,"900": 49.543,"925": 48.473,"950": 48.014,"975": 47.255,"1000": 45.94,"1025": 43.063,"1050": 43.309,"1075": 44.447,"1100": 44.334,"1125": 43.371,"1150": 43.053,"1175": 43.835,"1200": 43.303,"1225": 42.884,"1250": 42.085,"1275": 42.082,"1300": 43.023,"1325": 41.448,"1350": 40.05,"1375": 38.465,"1400": 35.256,"1425": 33.929,"1450": 33.311,"1475": 31.112,"1500": 29.713,"1525": 26.763,"1550": 25.845,"1575": 22.146,"1600": 19.298,"1625": 16.476,"1650": 14.604,"1675": 12.407,"1700": 10.958,"1725": 10.152,"1750": 9.334,"1775": 8.388,"1800": 7.648,"1825": 6.989,"1850": 5.701,"1875": 4.758,"1900": 4.523,"1925": 3.587,"1950": 3.477,"1975": 3.086,"2000": 2.478,"2025": 1.449,"2050": 1.293,"2075": 1.215,"2100": 0.623,"2125": 0.545,"2150": 0.436,"2175": 0.202,"2200": 0.156,"2225": 0.078}}}