{"type":"Feature","properties":{"GID_2":"BGR.26.1_1","GID_0":"BGR","country":"Bulgaria","GID_1":"BGR.26_1","state":"Vidin","NL_NAME_1":"Видин","county":"Belogradchik","VARNAME_2":"NA","NL_NAME_2":"Белоградчик","TYPE_2":"Obshtina","ENGTYPE_2":"Municipality","CC_2":"NA","HASC_2":"BG.VD.BE","name":"Belogradchik.county"},
"geometry":{"type": "MultiPolygon","coordinates": [[[[22.7607,43.5911,268.5185],[22.7463,43.5938,381.8431],[22.7363,43.5977,441.9393],[22.7263,43.6046,570.0899],[22.7189,43.6063,500.3019],[22.7138,43.6109,473.9507],[22.7109,43.6193,543.8182],[22.6942,43.6292,591.1343],[22.6897,43.6334,520.6107],[22.6851,43.6438,544.2009],[22.6783,43.6511,535.1571],[22.678,43.654,550.5562],[22.6797,43.656,555.5533],[22.692,43.6601,648.0758],[22.6996,43.6697,509.2698],[22.7008,43.6848,358.2995],[22.6942,43.6937,384.7903],[22.6692,43.7056,291.1897],[22.6664,43.714,184.7513],[22.6527,43.7128,186.4698],[22.6426,43.7045,289.1649],[22.6385,43.7038,276.5535],[22.6227,43.7113,275.0582],[22.6197,43.7134,240.0424],[22.6188,43.7194,219.7699],[22.6207,43.7245,252.9187],[22.6197,43.7345,310.2366],[22.6213,43.7378,301.5533],[22.6262,43.7407,279.8992],[22.6202,43.7479,296.2676],[22.6098,43.7472,278.481],[22.6061,43.7532,263.049],[22.5989,43.753,264.0818],[22.5853,43.7479,286.8613],[22.5779,43.7469,286.4859],[22.5541,43.7348,320.2601],[22.5521,43.7354,321.0548],[22.552,43.7379,305.9887],[22.5578,43.7449,282.0652],[22.5588,43.747,287.489],[22.557,43.7489,283.1047],[22.5506,43.7478,291.6457],[22.5399,43.7422,306.0229],[22.5391,43.7443,294.8521],[22.5437,43.7491,277.9314],[22.5439,43.7516,287.1811],[22.532,43.7527,310.6402],[22.5208,43.7506,324.0335],[22.4956,43.7318,420.2374],[22.4646,43.7179,640.4299],[22.4572,43.7096,729.3071],[22.4521,43.7001,515.5806],[22.445,43.6918,682.2114],[22.4371,43.686,825.9131],[22.4191,43.6787,855.3116],[22.4025,43.6743,770.9093],[22.409,43.6695,737.5665],[22.4224,43.6657,706.4001],[22.4281,43.6591,532.633],[22.4413,43.6519,645.9974],[22.4595,43.6496,627.6392],[22.4653,43.6456,571.3309],[22.4672,43.6384,573.7228],[22.4724,43.6352,542.3911],[22.4747,43.6308,595.585],[22.4736,43.627,595.7504],[22.4634,43.6174,581.9068],[22.4703,43.6099,745.4052],[22.4724,43.5998,1115.9491],[22.4752,43.5945,991.7387],[22.4683,43.5844,937.902],[22.4704,43.5803,877.5311],[22.4764,43.5766,932.027],[22.477,43.5745,978.0138],[22.4693,43.5602,895.4349],[22.47,43.5478,832.3182],[22.4733,43.5457,869.5987],[22.4749,43.5413,927.7626],[22.4822,43.5317,868.827],[22.4808,43.5203,930.8031],[22.4842,43.5136,935.2405],[22.4851,43.5077,814.7493],[22.4925,43.5009,994.0085],[22.4924,43.497,875.0385],[22.4953,43.4933,1012.9215],[22.5025,43.4879,917.071],[22.5039,43.4767,951.6643],[22.5112,43.4691,1076.7843],[22.5126,43.4617,913.0334],[22.5314,43.4529,1206.6638],[22.5396,43.4551,1375.1638],[22.5517,43.4554,1468.9004],[22.5617,43.4454,947.6444],[22.5693,43.4651,1634.7987],[22.5673,43.4845,1148.5439],[22.565,43.4899,956.507],[22.5652,43.5004,953.2093],[22.5692,43.5103,828.433],[22.5832,43.5252,749.3239],[22.588,43.5352,809.7476],[22.587,43.541,615.5209],[22.5722,43.5585,581.4153],[22.5719,43.5627,585.564],[22.5747,43.5694,510.7617],[22.5785,43.5729,528.6971],[22.5833,43.5756,533.1437],[22.5908,43.5763,636.3721],[22.601,43.5731,588.0913],[22.6128,43.5734,625.9902],[22.6249,43.5671,800.6614],[22.637,43.5661,950.5124],[22.6448,43.5708,689.9276],[22.6561,43.5728,578.0181],[22.6617,43.5926,410.9981],[22.6704,43.5971,314.0447],[22.678,43.6061,407.5363],[22.683,43.6081,426.3853],[22.6962,43.6079,461.7614],[22.6995,43.6052,402.9025],[22.7004,43.5953,416.4932],[22.6976,43.5751,365.1458],[22.6989,43.5698,354.2789],[22.7032,43.5664,382.6327],[22.715699999999998,43.5672,338.5614],[22.7431,43.5766,309.1999],[22.758,43.5873,250.177],[22.7607,43.5911,268.5185]]]]}}