{"type": "Feature","bbox": [23.5775,42.8001,23.8897,43.0576],"geometry": {"type": "MultiPolygon","coordinates": [[[[23.8154,42.8013,624.173],[23.8487,42.8213,1327.8853],[23.8633,42.8265,1249.3431],[23.866,42.8333,1078.8096],[23.8669,42.8503,1266.1082],[23.8684,42.8539,1388.3895],[23.8897,42.8847,684.6323],[23.8879,42.8947,534.6691],[23.8732,42.9059,422.2282],[23.8731,42.9114,402.5366],[23.8763,42.9175,422.9395],[23.8769,42.9283,557.1448],[23.8635,42.9443,578.0409],[23.8603,42.9465,584.501],[23.8545,42.947,626.5839],[23.8334,42.9454,450.8697],[23.8305,42.9465,479.422],[23.8285,42.9496,529.5912],[23.8306,42.953,526.168],[23.8524,42.9686,698.1874],[23.8602,42.978,511.0096],[23.8664,42.9905,410.7081],[23.8671,42.9943,441.6125],[23.8563,43.0295,391.3221],[23.855,43.0396,411.4935],[23.8201,43.0418,457.2787],[23.7991,43.0576,469.3861],[23.7803,43.0568,407.8265],[23.7496,43.0479,491.5316],[23.716,43.0254,735.2972],[23.7046,43.0209,729.0865],[23.6949,43.0198,649.4751],[23.6808,43.0245,583.8939],[23.6617,43.0384,622.3795],[23.6517,43.0403,547.7662],[23.6358,43.0272,582.5917],[23.6224,43.0213,676.7225],[23.615,43.0159,680.4244],[23.5933,42.9918,1187.447],[23.5775,42.9851,1333.5865],[23.5808,42.9705,1294.0217],[23.5854,42.9639,1308.2794],[23.6047,42.9548,1212.7357],[23.6056,42.9532,1106.6125],[23.6039,42.9478,1045.92],[23.6005,42.9453,870.0615],[23.585,42.9386,1267.7395],[23.5838,42.9363,1260.3679],[23.5865,42.9288,1061.2753],[23.6258,42.8943,1036.8575],[23.6394,42.8875,881.7899],[23.6654,42.8787,1057.0574],[23.6817,42.8657,891.9677],[23.6862,42.8612,791.2543],[23.6916,42.8485,888.8326],[23.6901,42.8344,1485.4248],[23.6878,42.8275,1463.9392],[23.7131,42.8262,1259.3203],[23.7334,42.8192,1088.9292],[23.7476,42.8114,1227.9275],[23.7836,42.8009,1253.7035],[23.8045,42.8001,957.4351],[23.8154,42.8013,624.173]]]]}
,"properties": {"GID_2": "BGR.21.2_1","GID_0": "BGR","country": "Bulgaria","GID_1": "BGR.21_1","state": "Sofia","NL_NAME_1": "Sofija","county": "Botevgrad","VARNAME_2": "Orhanie|Samundzhievo","NL_NAME_2": "Ботевград","TYPE_2": "Obshtina","ENGTYPE_2": "Municipality","CC_2": "NA","HASC_2": "BG.SF.BG","name": "Botevgrad.county","area_km2": 485.5954,"hist_schema_id": "Elevation0-9000","hist_area_km2": {"225": 0.0775,"250": 0.4651,"275": 1.3024,"300": 7.74,"325": 38.8758,"350": 42.4489,"375": 30.1203,"400": 27.6645,"425": 23.1804,"450": 21.0545,"475": 19.922,"500": 20.3705,"525": 19.271,"550": 19.0395,"575": 18.7774,"600": 17.3213,"625": 16.5008,"650": 14.6396,"675": 13.4625,"700": 12.0661,"725": 11.1991,"750": 10.7495,"775": 8.792,"800": 7.9541,"825": 7.6127,"850": 6.8983,"875": 6.9759,"900": 5.997,"925": 5.2825,"950": 4.7233,"975": 4.8319,"1000": 4.1638,"1025": 4.0399,"1050": 3.8222,"1075": 3.3874,"1100": 3.0452,"1125": 2.8593,"1150": 2.4084,"1175": 2.3775,"1200": 2.0205,"1225": 1.5231,"1250": 1.2745,"1275": 1.4297,"1300": 1.5853,"1325": 1.5385,"1350": 1.3988,"1375": 0.8239,"1400": 0.6064,"1425": 0.653,"1450": 0.5131,"1475": 0.5131,"1500": 0.171,"1525": 0.0933,"1550": 0.0311}}}