{"type":"Feature","properties":{"GID_2":"BGR.17.4_1","GID_0":"BGR","country":"Bulgaria","GID_1":"BGR.17_1","state":"Shumen","NL_NAME_1":"Шумен","county":"NikolaKozlevo","VARNAME_2":"NA","NL_NAME_2":"NA","TYPE_2":"Obshtina","ENGTYPE_2":"Municipality","CC_2":"NA","HASC_2":"BG.SH.NK","name":"NikolaKozlevo.county"},
"geometry":{"type": "MultiPolygon","coordinates": [[[[27.2595,43.663,258.1021],[27.256,43.6571,260.3401],[27.2498,43.6531,251.69],[27.2276,43.6492,268.7022],[27.2243,43.6456,268.2124],[27.2204,43.6399,279.0724],[27.2187,43.6282,274.3171],[27.2108,43.618,280.1875],[27.2106,43.6096,297.5991],[27.2069,43.6061,281.5566],[27.2019,43.6036,296.9299],[27.1913,43.6069,256.5419],[27.1811,43.6075,264.828],[27.1733,43.6038,271.2831],[27.17,43.5991,285.3093],[27.1691,43.5856,312.927],[27.1624,43.5696,362.0897],[27.1673,43.5606,326.1355],[27.1741,43.5535,333.839],[27.1738,43.5487,353.2459],[27.1495,43.5438,380.1046],[27.1423,43.536,402.9804],[27.1433,43.5239,390.0618],[27.1477,43.518,390.1467],[27.1573,43.5113,390.0367],[27.172,43.5042,328.3777],[27.1794,43.4915,318.4493],[27.1842,43.4868,276.1528],[27.191,43.4857,304.5863],[27.2164,43.4878,392.2658],[27.2239,43.4914,354.6334],[27.2458,43.5112,293.8218],[27.2553,43.5152,291.6366],[27.2664,43.5141,287.7628],[27.2714,43.5087,314.5046],[27.2758,43.4966,363.6626],[27.2791,43.4943,369.1524],[27.2864,43.4942,358.9324],[27.2987,43.5046,340.3423],[27.3117,43.5217,337.6174],[27.3269,43.5373,313.5136],[27.3291,43.5436,311.513],[27.3419,43.5548,307.0045],[27.4115,43.5766,262.6774],[27.4279,43.586,244.3708],[27.44,43.5986,206.4959],[27.4226,43.6209,256.3657],[27.4093,43.6303,247.9673],[27.4015,43.6312,254.38],[27.3891,43.6283,250.3998],[27.3571,43.6171,237.7415],[27.3403,43.6136,262.6951],[27.3262,43.6137,250.2197],[27.3213,43.6152,249.2124],[27.3162,43.6215,248.1977],[27.3022,43.6496,211.3045],[27.2967,43.6561,228.3902],[27.285,43.6602,233.8802],[27.2595,43.663,258.1021]]]]}}