{"type":"Feature","properties":{"GID_2":"BGR.14.12_1","GID_0":"BGR","country":"Bulgaria","GID_1":"BGR.14_1","state":"Plovdiv","NL_NAME_1":"Пловдив","county":"Rakovski","VARNAME_2":"NA","NL_NAME_2":"Раковски","TYPE_2":"Obshtina","ENGTYPE_2":"Municipality","CC_2":"NA","HASC_2":"BG.PD.RA","name":"Rakovski.county"},
"geometry":{"type": "MultiPolygon","coordinates": [[[[24.9113,42.3226,190.7517],[24.9066,42.3168,187.8249],[24.8965,42.309,182.9031],[24.8942,42.3052,181.0267],[24.8916,42.2941,178.3245],[24.8862,42.2884,172.6967],[24.8737,42.2855,176.5472],[24.8627,42.2806,175.6924],[24.8586,42.2814,176.4339],[24.8547,42.2863,177.9501],[24.8474,42.2866,179.3613],[24.8384,42.276,177.1581],[24.8349,42.2745,177.3478],[24.8385,42.2712,175.711],[24.8433,42.2571,172.0343],[24.8559,42.2492,169.0716],[24.8622,42.2404,166.406],[24.8714,42.2315,163.5792],[24.8733,42.2209,162.35],[24.8752,42.2187,161.6941],[24.8817,42.2158,160.5094],[24.9084,42.2157,157.9977],[24.9246,42.2134,155.3327],[24.9278,42.2141,155.7498],[24.9288,42.216,156.1358],[24.9276,42.2259,155.9575],[24.9326,42.232,156.8713],[24.9437,42.2334,157.9785],[24.9796,42.229,154.8516],[24.9848,42.2225,152.8406],[24.9935,42.2041,147.8872],[25.0035,42.1918,143.4095],[25.0059,42.1838,142.5691],[25.0059,42.1805,141.8519],[25.0032,42.177,137.7349],[24.9913,42.1703,143.0363],[24.9871,42.1644,140.0582],[24.9861,42.1581,139.6548],[24.9954,42.1492,138.854],[25.0112,42.1406,137.6426],[25.0152,42.1356,140.6478],[25.0345,42.1348,159.1231],[25.051,42.1276,154.2899],[25.0614,42.1258,198.2895],[25.0697,42.1278,167.8968],[25.1026,42.1478,132.9569],[25.1123,42.1504,128.8736],[25.1007,42.1671,130.3992],[25.0973,42.1862,137.877],[25.0978,42.2159,147.4305],[25.0999,42.2225,166.7939],[25.1099,42.2348,161.3713],[25.1066,42.2368,162.1963],[25.1085,42.2478,166.6663],[25.1055,42.2503,166.4123],[25.0945,42.2524,169.2946],[25.0823,42.2614,174.6566],[25.0604,42.2909,198.3771],[25.0439,42.3058,210.4006],[25.0339,42.3108,216.1106],[25.0071,42.3147,210.6928],[24.9896,42.3219,211.2157],[24.9802,42.3214,208.9007],[24.9712,42.315,201.6377],[24.96,42.3128,197.2193],[24.9495,42.3134,196.0963],[24.938,42.3227,197.6221],[24.9113,42.3226,190.7517]]]]}}