{"type": "Feature","bbox": [24.8773,42.0316,25.2064,42.1511],"geometry": {"type": "MultiPolygon","coordinates": [[[[25.1228,42.0824,189.8084],[25.1309,42.089,188.295],[25.14,42.0913,186.6573],[25.147,42.0962,180.1041],[25.1712,42.1307,131.0424],[25.1817,42.1373,123.8655],[25.1975,42.1423,125.4191],[25.2064,42.1499,131.6412],[25.1787,42.1425,126.3379],[25.1585,42.1431,124.7547],[25.1339,42.1511,133.0783],[25.1091,42.15,129.6524],[25.1003,42.1466,131.796],[25.0697,42.1278,167.8968],[25.0614,42.1258,198.2895],[25.0553,42.1263,164.9153],[25.0315,42.1353,156.1389],[25.0193,42.136,145.7108],[25.0016,42.1344,147.8058],[24.994,42.1354,147.3236],[24.9835,42.1423,139.3362],[24.957,42.1419,141.1955],[24.9406,42.1433,146.2492],[24.9211,42.1411,143.4425],[24.9013,42.1293,147.1373],[24.8924,42.1174,152.9722],[24.8935,42.0979,162.5217],[24.8776,42.0691,178.6934],[24.8773,42.064,181.8004],[24.884,42.0485,194.2232],[24.8841,42.0395,200.8417],[24.9061,42.0332,211.8263],[24.9118,42.0328,205.487],[24.9291,42.0361,189.4072],[24.9519,42.0316,183.7506],[24.9824,42.037,194.9728],[24.9967,42.0464,188.6915],[25.0121,42.0604,178.0346],[25.0198,42.0593,177.2865],[25.0212,42.0495,181.8526],[25.0259,42.0492,180.9499],[25.0315,42.0528,179.1536],[25.0436,42.0691,182.9921],[25.0565,42.0747,195.7303],[25.0695,42.0777,206.3371],[25.0914,42.0764,200.9233],[25.1034,42.0824,207.9167],[25.1102,42.0839,185.0952],[25.1228,42.0824,189.8084]]]]}
,"properties": {"GID_2": "BGR.14.14_1","GID_0": "BGR","country": "Bulgaria","GID_1": "BGR.14_1","state": "Plovdiv","NL_NAME_1": "Пловдив","county": "Sadovo","VARNAME_2": "NA","NL_NAME_2": "Садово","TYPE_2": "Obshtina","ENGTYPE_2": "Municipality","CC_2": "NA","HASC_2": "BG.PD.SV","name": "Sadovo.county","area_km2": 203.0585,"hist_schema_id": "Elevation0-9000","hist_area_km2": {"125": 15.6593,"150": 39.1426,"175": 96.1728,"200": 40.7574,"225": 9.9106,"250": 1.4158}}}