{"type":"Feature","properties":{"GID_2":"BGR.11.7_1","GID_0":"BGR","country":"Bulgaria","GID_1":"BGR.11_1","state":"Pazardzhik","NL_NAME_1":"Пазарджик","county":"Peshtera","VARNAME_2":"NA","NL_NAME_2":"Пещера","TYPE_2":"Obshtina","ENGTYPE_2":"Municipality","CC_2":"NA","HASC_2":"BG.PZ.PE","name":"Peshtera.county"},
"geometry":{"type": "MultiPolygon","coordinates": [[[[24.2846,41.9603,1376.6455],[24.2913,41.9633,1262.1965],[24.3043,41.9785,1176.363],[24.3185,41.9862,1369.9408],[24.3233,41.9921,1347.0145],[24.328,42.0057,788.7222],[24.3356,42.0165,625.6553],[24.3375,42.0206,513.9984],[24.3394,42.037,409.2403],[24.336,42.0579,348.0941],[24.3394,42.0713,377.6455],[24.3541,42.084,427.5052],[24.3822,42.0952,342.249],[24.3658,42.1046,439.7282],[24.3561,42.1131,324.8005],[24.3503,42.1203,274.8678],[24.3401,42.1388,283.8079],[24.3354,42.1415,284.2895],[24.3305,42.1419,368.9461],[24.324,42.1394,263.6594],[24.3103,42.1281,241.5376],[24.2831,42.1097,466.2686],[24.2785,42.1006,509.3109],[24.2737,42.0776,571.4901],[24.2684,42.0669,618.7238],[24.2616,42.0587,856.1873],[24.2455,42.0498,1030.929],[24.2309,42.0464,1121.5662],[24.221,42.041,1323.2822],[24.2109,42.0299,1235.2915],[24.2019,42.0124,1103.0],[24.2217,41.9911,1349.8501],[24.237,41.9797,1140.353],[24.2486,41.9739,1137.0327],[24.2578,41.9655,1395.8425],[24.2846,41.9603,1376.6455]]]]}}