{"type":"Feature","properties":{"GID_2":"BGR.14.4_1","GID_0":"BGR","country":"Bulgaria","GID_1":"BGR.14_1","state":"Plovdiv","NL_NAME_1":"Пловдив","county":"Kaloyanovo","VARNAME_2":"NA","NL_NAME_2":"Калояново","TYPE_2":"Obshtina","ENGTYPE_2":"Municipality","CC_2":"NA","HASC_2":"BG.PD.KY","name":"Kaloyanovo.county"},
"geometry":{"type": "MultiPolygon","coordinates": [[[[24.9505,42.4672,635.6385],[24.9114,42.4747,527.1226],[24.8848,42.491,519.7999],[24.8797,42.4921,514.0259],[24.8715,42.4906,461.0406],[24.8655,42.4858,420.1596],[24.8559,42.485,335.1862],[24.8429,42.49,265.0794],[24.8352,42.4964,271.3328],[24.8311,42.495,321.638],[24.8188,42.4816,254.0144],[24.7916,42.487,487.4164],[24.7857,42.486,483.6507],[24.7818,42.4838,415.8055],[24.7752,42.4679,329.7217],[24.7679,42.4604,304.4216],[24.7671,42.4485,274.858],[24.7576,42.4343,257.6376],[24.7573,42.4221,243.5237],[24.7544,42.4111,241.8591],[24.7495,42.4116,245.97],[24.7372,42.421,248.1335],[24.7285,42.4236,259.5993],[24.7206,42.4237,263.3572],[24.704,42.4206,272.3201],[24.6847,42.4138,272.7839],[24.6769,42.4097,258.8911],[24.6656,42.4001,278.4266],[24.6782,42.3918,256.7234],[24.686,42.3811,248.2564],[24.708,42.3683,230.2928],[24.7478,42.3112,193.3932],[24.7596,42.3121,193.8399],[24.7692,42.3097,192.8118],[24.7727,42.3076,191.0079],[24.7841,42.294,187.0205],[24.8224,42.2761,177.9298],[24.8367,42.2752,177.0959],[24.8474,42.2866,179.3613],[24.8502,42.2872,179.6788],[24.8547,42.2863,177.9501],[24.8586,42.2814,176.4339],[24.8627,42.2806,175.6924],[24.8737,42.2855,176.5472],[24.8862,42.2884,172.6967],[24.8916,42.2941,178.3245],[24.8942,42.3052,181.0267],[24.8965,42.309,182.9031],[24.9066,42.3168,187.8249],[24.9113,42.3226,190.7517],[24.9111,42.3276,191.7837],[24.9024,42.3424,201.3031],[24.9012,42.3494,206.4485],[24.9068,42.3633,219.5301],[24.9088,42.3806,238.792],[24.9122,42.3882,245.779],[24.9161,42.3923,252.4663],[24.9217,42.395,254.7615],[24.9504,42.4019,286.4898],[24.9558,42.4073,297.8315],[24.9558,42.4108,299.0],[24.9536,42.4146,317.8257],[24.9388,42.4227,332.9902],[24.9347,42.4267,323.731],[24.934,42.4313,333.0807],[24.9344,42.4375,338.6292],[24.9376,42.4447,381.0764],[24.9505,42.4672,635.6385]]]]}}