{"type": "Feature","bbox": [27.4629,42.1435,27.7951,42.3423],"geometry": {"type": "MultiPolygon","coordinates": [[[[27.6501,42.1525,175.2461],[27.7893,42.2174,0.0],[27.7865,42.2196,7.0333],[27.7868,42.2224,0.0],[27.7832,42.2232,5.4813],[27.7829,42.226,0.0],[27.7787,42.226,1.8105],[27.7765,42.2282,0.8784],[27.7765,42.2318,0.0],[27.7787,42.2346,3.3121],[27.7824,42.2335,0.0],[27.7857,42.2349,1.1578],[27.7849,42.2382,0.0],[27.7812,42.2368,13.4591],[27.7785,42.2382,20.3301],[27.7779,42.2426,0.9774],[27.7751,42.2432,5.0838],[27.774,42.2451,4.0242],[27.7707,42.2449,4.4272],[27.7715,42.241,4.6497],[27.7676,42.2404,8.1308],[27.7651,42.2435,5.3977],[27.7554,42.2457,1.6578],[27.7485,42.2535,3.5304],[27.7485,42.2576,2.4343],[27.754,42.2649,0.2298],[27.7596,42.2632,0.0],[27.766,42.2651,0.8914],[27.7601,42.2685,10.0505],[27.7571,42.2732,1.8163],[27.7543,42.2729,11.1304],[27.7521,42.2788,3.0767],[27.7524,42.286,7.1481],[27.7576,42.2893,5.9361],[27.7593,42.2882,0.0],[27.7657,42.2893,1.1608],[27.7693,42.2935,0.6151],[27.7732,42.2946,0.0],[27.7738,42.2968,0.0],[27.7696,42.2993,10.3895],[27.7699,42.3007,16.9052],[27.7787,42.3018,0.0],[27.7821,42.3057,7.9465],[27.7857,42.3071,12.3404],[27.7951,42.3068,0.0],[27.7938,42.309,0.0],[27.7913,42.309,0.322],[27.7868,42.3124,0.0],[27.7801,42.3135,32.5643],[27.7821,42.319,0.0],[27.7726,42.3201,19.413],[27.7824,42.3237,0.0],[27.7826,42.3251,0.8673],[27.7804,42.3262,16.5565],[27.7838,42.3282,0.0],[27.7829,42.3304,0.0],[27.7862,42.334,3.6925],[27.7849,42.3363,0.0],[27.7804,42.336,0.0],[27.7799,42.3346,19.6929],[27.7757,42.336,0.0],[27.7746,42.3329,22.197],[27.7726,42.3376,0.0],[27.7638,42.3329,10.8593],[27.7588,42.3343,0.0],[27.7565,42.3329,7.4196],[27.7557,42.3274,1.9943],[27.7524,42.3249,4.4336],[27.7435,42.329,0.0],[27.7407,42.325,7.1169],[27.7356,42.325,27.766],[27.7246,42.3284,2.3566],[27.7253,42.3229,19.9485],[27.7189,42.3167,87.3893],[27.7082,42.3158,144.3568],[27.6989,42.3095,86.1763],[27.6943,42.3036,23.3865],[27.6786,42.3017,59.9106],[27.671,42.2985,49.5331],[27.6606,42.2902,17.3022],[27.6554,42.2891,13.2865],[27.646,42.2938,15.203],[27.6377,42.3031,35.7947],[27.6289,42.3087,22.1697],[27.5985,42.312,65.107],[27.5897,42.3149,74.6083],[27.5855,42.3233,80.192],[27.5853,42.332,98.751],[27.5829,42.3363,89.5383],[27.5747,42.339,87.2218],[27.5365,42.3423,104.459],[27.5322,42.3422,93.9087],[27.5244,42.3372,113.9521],[27.5106,42.2949,156.3887],[27.5021,42.283,163.6985],[27.4944,42.2756,173.2986],[27.4903,42.2637,178.4929],[27.4906,42.2606,165.9122],[27.4826,42.2451,147.2843],[27.4651,42.223,205.4787],[27.4629,42.2163,251.0735],[27.4633,42.2121,232.2034],[27.4714,42.1983,272.8969],[27.4722,42.1874,358.3831],[27.486,42.1838,366.3397],[27.5064,42.1811,418.7203],[27.5212,42.176,418.5119],[27.5285,42.1675,384.0102],[27.5347,42.1547,352.3832],[27.5561,42.1437,376.3392],[27.5639,42.1435,374.0426],[27.572,42.1482,375.1044],[27.5743,42.1612,402.8612],[27.5863,42.1716,281.897],[27.5892,42.1724,361.7438],[27.5928,42.1767,302.9017],[27.5903,42.1876,216.3502],[27.5903,42.1896,230.6067],[27.5924,42.1899,241.1632],[27.6026,42.1877,309.3804],[27.6095,42.1839,317.9172],[27.6148,42.1787,291.708],[27.6219,42.1642,291.5267],[27.6279,42.1606,301.6453],[27.6497,42.1563,226.6698],[27.6501,42.1525,175.2461]]]]}
,"properties": {"GID_2": "BGR.2.8_1","GID_0": "BGR","country": "Bulgaria","GID_1": "BGR.2_1","state": "Burgas","NL_NAME_1": "Бургас","county": "Primorsko","VARNAME_2": "NA","NL_NAME_2": "NA","TYPE_2": "Obshtina","ENGTYPE_2": "Municipality","CC_2": "NA","HASC_2": "BG.BR.PR","name": "Primorsko.county","area_km2": 379.195,"hist_schema_id": "Elevation0-9000","hist_area_km2": {"0": 22.8472,"25": 39.3033,"50": 38.4718,"75": 33.8132,"100": 37.9241,"125": 39.3204,"150": 33.5515,"175": 23.107,"200": 18.3711,"225": 15.4063,"250": 14.3393,"275": 14.1831,"300": 11.8742,"325": 11.2464,"350": 10.7135,"375": 7.7142,"400": 4.1795,"425": 2.0743,"450": 0.7387,"475": 0.0157}}}