{"type":"Feature","properties":{"GID_2":"BGR.8.7_1","GID_0":"BGR","country":"Bulgaria","GID_1":"BGR.8_1","state":"Kyustendil","NL_NAME_1":"Кюстендил","county":"Rila","VARNAME_2":"NA","NL_NAME_2":"NA","TYPE_2":"Obshtina","ENGTYPE_2":"Municipality","CC_2":"NA","HASC_2":"BG.KY.RI","name":"Rila.county"},
"geometry":{"type": "MultiPolygon","coordinates": [[[[23.4942,42.0965,2632.7114],[23.5065,42.107,2400.1611],[23.5121,42.1145,2498.71],[23.513,42.118899999999996,2438.1182],[23.5101,42.1264,2329.2607],[23.5002,42.1327,2161.5098],[23.4752,42.1404,2099.1709],[23.4639,42.1458,2381.2686],[23.4551,42.1559,2552.3916],[23.4529,42.1629,2357.1157],[23.4514,42.183,2324.7798],[23.443,42.1903,2269.9263],[23.4347,42.1922,2451.7524],[23.4146,42.1895,2155.9375],[23.3756,42.1812,2268.9624],[23.3658,42.1808,2357.2441],[23.3416,42.1818,2064.937],[23.3298,42.1863,2363.4424],[23.3229,42.1935,2515.4502],[23.314,42.19,2539.7974],[23.2745,42.1807,2325.395],[23.2677,42.1798,2470.9229],[23.2429,42.1834,2545.5657],[23.222,42.176,2285.5649],[23.2001,42.1726,1832.4703],[23.1818,42.1765,1757.1848],[23.164,42.1847,1662.6283],[23.1528,42.1705,1222.52],[23.1411,42.1635,917.5307],[23.1148,42.1563,815.4281],[23.0847,42.1522,652.7239],[23.0778,42.1497,597.767],[23.0719,42.1424,600.5521],[23.07,42.1311,567.756],[23.0661,42.1223,547.9469],[23.0662,42.1176,523.386],[23.0714,42.1115,490.544],[23.0878,42.1081,515.7999],[23.123,42.1041,550.4257],[23.1353,42.0986,786.9304],[23.161,42.1006,1144.3762],[23.1721,42.097,1236.6929],[23.1888,42.1006,1459.5389],[23.2426,42.0997,1661.6774],[23.2658,42.0977,1878.2655],[23.2827,42.0917,1890.7515],[23.296,42.0917,1936.3376],[23.3096,42.0897,2123.354],[23.319,42.0866,1999.4272],[23.340699999999998,42.0754,2089.8889],[23.3612,42.0732,2318.6934],[23.3833,42.0598,2244.4204],[23.3968,42.0545,2229.136],[23.4024,42.0539,2268.1414],[23.4236,42.0548,2358.2136],[23.4485,42.0612,2509.9707],[23.4836,42.0908,2606.2256],[23.4942,42.0965,2632.7114]]]]}}