{"type": "Feature","bbox": [24.0311,42.6817,24.0961,42.7555],"geometry": {"type": "MultiPolygon","coordinates": [[[[24.0758,42.682,635.0282],[24.0904,42.6895,671.3732],[24.0961,42.6953,674.6998],[24.0956,42.7061,717.423],[24.0886,42.7242,1032.7894],[24.0868,42.7338,1239.9364],[24.087,42.7555,1432.9639],[24.0673,42.7501,1208.0762],[24.0509,42.7496,1259.2747],[24.0347,42.7516,1023.6834],[24.0311,42.7343,1578.2925],[24.0315,42.7244,1301.3639],[24.0369,42.7083,1033.4397],[24.0326,42.6957,811.2058],[24.0344,42.6899,775.0317],[24.0409,42.6841,701.2776],[24.051,42.6817,662.6245],[24.0758,42.682,635.0282]]]]}
,"properties": {"GID_2": "BGR.21.5_1","GID_0": "BGR","country": "Bulgaria","GID_1": "BGR.21_1","state": "Sofia","NL_NAME_1": "Sofija","county": "Chelopech","VARNAME_2": "NA","NL_NAME_2": "Челопеч","TYPE_2": "Obshtina","ENGTYPE_2": "Municipality","CC_2": "NA","HASC_2": "BG.SF.CL","name": "Chelopech.county","area_km2": 34.95611,"hist_schema_id": "Elevation0-9000","hist_area_km2": {"625": 0.01559,"650": 0.77929,"675": 2.10391,"700": 2.01026,"725": 1.72966,"750": 1.02842,"775": 0.85701,"800": 0.62328,"825": 0.52975,"850": 0.52975,"875": 0.7946,"900": 0.60763,"925": 0.90364,"950": 0.81014,"975": 0.9815,"1000": 0.96589,"1025": 1.02821,"1050": 0.90358,"1075": 0.90355,"1100": 0.8412,"1125": 0.85674,"1150": 0.74764,"1175": 0.88779,"1200": 0.95004,"1225": 0.90329,"1250": 1.04337,"1275": 1.07452,"1300": 0.91878,"1325": 1.07451,"1350": 1.02776,"1375": 1.09004,"1400": 1.05887,"1425": 0.87205,"1450": 0.88764,"1475": 0.65405,"1500": 0.56062,"1525": 0.37376,"1550": 0.31146,"1575": 0.28032,"1600": 0.28032,"1625": 0.14016,"1650": 0.01557}}}