{"type": "Feature","id": "2246","bbox": [24.86745,42.73579,25.62761,43.19586],"geometry": {"type": "Polygon","coordinates": [[[25.07251,43.18109,438.5289],[25.03199,43.1909,432.7762],[24.98538,43.19586,428.0402],[24.96905,43.1647,502.9919],[24.96171,43.12693,389.5247],[24.9243,43.10693,503.2646],[24.91159,43.06626,428.7589],[24.92016,43.03363,508.5516],[24.86745,42.98683,343.4367],[24.87831,42.94229,606.5239],[24.88316,42.92792,577.4116],[24.87924,42.91268,535.9976],[24.88513,42.89978,660.5486],[24.89484,42.8888,613.7559],[24.93825,42.87353,1097.111],[24.97763,42.8532,605.5373],[25.00254,42.80741,718.1127],[25.01122,42.75853,1545.7949],[25.01153,42.74827,1486.0186],[25.06289,42.74509,1904.1887],[25.11457,42.75253,1314.302],[25.16614,42.7707,1421.1399],[25.21627,42.77263,1264.6926],[25.23074,42.75556,1290.9812],[25.24717,42.74277,1391.3413],[25.28769,42.76044,1213.9609],[25.34184,42.75258,1185.4331],[25.39404,42.73579,1408.9333],[25.42628,42.73786,1378.6493],[25.45047,42.75155,1289.7803],[25.46731,42.74946,1217.8069],[25.48385,42.7454,1190.236],[25.50194,42.75134,1248.0803],[25.51703,42.75853,1054.1907],[25.53573,42.75297,1077.3821],[25.5594,42.77274,954.9211],[25.57573,42.76723,899.2161],[25.59278,42.75003,920.4269],[25.61273,42.73793,799.837],[25.6272,42.7485,943.2668],[25.62007,42.76695,781.5394],[25.59723,42.80783,695.4725],[25.61852,42.83909,522.6319],[25.6272,42.86235,470.9059],[25.62761,42.88852,519.7169],[25.61583,42.90338,612.9662],[25.5962,42.90764,714.8329],[25.5533,42.93908,510.215],[25.57645,42.99428,328.724],[25.5594,43.03321,164.8264],[25.49863,43.04071,455.1851],[25.46762,43.04781,355.8691],[25.39776,43.04574,257.4462],[25.33285,43.05122,332.1634],[25.30681,43.06011,462.1925],[25.29347,43.08665,399.4213],[25.27911,43.10796,387.503],[25.14372,43.10964,181.0],[25.11746,43.12473,364.4106],[25.10062,43.15013,452.9077],[25.0786,43.16186,465.8018],[25.07251,43.18109,438.5289]]]}
,"properties": {"ISO3166-1-Alpha-3": "BGR","country": "Bulgaria","fill": "#F0F","name": "Gabrovo","area_km2": 2068.864,"hist_schema_id": "Elevation0-9000","hist_area_km2": {"175": 11.444,"200": 28.426,"225": 46.576,"250": 66.744,"275": 81.443,"300": 84.159,"325": 90.323,"350": 100.68,"375": 116.476,"400": 124.75,"425": 122.777,"450": 116.281,"475": 107.012,"500": 95.194,"525": 86.34,"550": 78.964,"575": 76.588,"600": 69.435,"625": 64.55,"650": 55.234,"675": 47.328,"700": 40.464,"725": 33.506,"750": 28.924,"775": 25.863,"800": 26.037,"825": 23.752,"850": 20.657,"875": 17.625,"900": 15.992,"925": 14.235,"950": 12.462,"975": 11.342,"1000": 10.689,"1025": 9.943,"1050": 9.15,"1075": 8.419,"1100": 7.283,"1125": 7.019,"1150": 6.77,"1175": 7.471,"1200": 7.004,"1225": 6.88,"1250": 6.646,"1275": 4.701,"1300": 4.312,"1325": 3.876,"1350": 3.036,"1375": 3.082,"1400": 2.615,"1425": 2.366,"1450": 1.961,"1475": 1.572,"1500": 1.323,"1525": 1.09,"1550": 1.199,"1575": 1.245,"1600": 1.09,"1625": 1.152,"1650": 0.965,"1675": 0.638,"1700": 0.498,"1725": 0.358,"1750": 0.405,"1775": 0.498,"1800": 0.374,"1825": 0.405,"1850": 0.576,"1875": 0.311,"1900": 0.109,"1925": 0.14,"1950": 0.078,"1975": 0.031}}}