{"type": "Feature","bbox": [24.8729,42.7224,25.6774,43.2248],"geometry": {"type": "MultiPolygon","coordinates": [[[[25.5958,42.9114,612.8186],[25.5905,42.9142,616.3795],[25.5751,42.9291,336.0346],[25.5754,42.9317,355.4141],[25.5824,42.9402,465.7307],[25.5807,42.9486,430.7372],[25.5765,42.9552,535.2544],[25.5767,42.9584,545.0878],[25.5778,42.9613,489.0146],[25.589,42.9652,421.8316],[25.6165,42.9823,191.1229],[25.6213,42.9936,191.7912],[25.622,42.9995,243.9724],[25.619,43.007,270.8477],[25.6104,43.0153,227.4025],[25.5688,43.0182,353.6625],[25.5612,43.0224,460.4764],[25.5523,43.0323,164.7262],[25.5446,43.0373,302.3234],[25.5364,43.0375,267.2606],[25.517,43.0341,289.3649],[25.5087,43.0368,354.8164],[25.4975,43.0462,429.6551],[25.4748,43.0458,411.0659],[25.4477,43.0394,343.4833],[25.4359,43.0388,331.847],[25.4277,43.0439,283.898],[25.4192,43.054,377.5177],[25.4142,43.0554,397.8247],[25.3895,43.056,434.7212],[25.3768,43.0524,372.5873],[25.3437,43.0528,347.1663],[25.3378,43.056,442.5175],[25.333,43.0629,384.9914],[25.3326,43.0672,380.4674],[25.3348,43.0742,344.955],[25.3461,43.0953,372.6042],[25.3416,43.1135,327.5388],[25.3272,43.1148,325.0847],[25.2997,43.1122,348.5328],[25.2869,43.1022,356.9162],[25.2697,43.0941,353.3885],[25.2614,43.0926,439.9626],[25.231,43.0931,455.9328],[25.2156,43.0984,402.9044],[25.2079,43.0986,395.4334],[25.1834,43.1042,206.0906],[25.1637,43.1137,194.8906],[25.1498,43.134,219.1892],[25.1296,43.1418,374.8943],[25.1183,43.1516,421.051],[25.1091,43.1709,469.963],[25.1071,43.1796,403.3622],[25.0773,43.1844,449.4183],[25.0617,43.1899,457.5291],[25.028199999999998,43.1981,417.2698],[25.0033,43.2097,420.9201],[24.9889,43.2214,414.6852],[24.9812,43.2248,389.6611],[24.9659,43.2247,388.6248],[24.9626,43.222,365.0391],[24.9618,43.2181,368.5237],[24.9673,43.2,401.6441],[24.9664,43.1801,420.8654],[24.9747,43.1605,462.9305],[24.9728,43.1496,476.2914],[24.9667,43.1433,491.1191],[24.9529,43.1395,468.8239],[24.9408,43.1394,493.4981],[24.9352,43.136,478.5991],[24.9319,43.1304,449.5667],[24.9318,43.1161,447.8059],[24.9354,43.1055,479.9599],[24.9334,43.0915,397.9285],[24.9342,43.085,404.7469],[24.941,43.0725,392.0698],[24.9491,43.0634,395.9371],[24.948,43.0606,406.715],[24.939,43.0594,445.3811],[24.9386,43.056,562.1784],[24.9513,43.0437,365.476],[24.9511,43.041,392.9888],[24.9184,43.0408,570.715],[24.9124,43.0382,551.1105],[24.8966,43.0388,483.6963],[24.8933,43.0369,451.1183],[24.8868,43.0309,513.202],[24.8814,43.0198,594.9732],[24.8777,43.0092,583.4047],[24.8751,42.9921,358.5967],[24.8729,42.9663,305.8345],[24.8735,42.9546,445.7286],[24.8837,42.9287,586.8571],[24.8887,42.9058,591.3411],[24.8929,42.8964,633.0135],[24.9066,42.8862,750.3258],[24.937,42.8764,1057.4844],[24.9501,42.8705,971.4961],[24.9735,42.8438,569.7625],[25.0046,42.815,586.4174],[25.0268,42.7887,1039.613],[25.0364,42.7722,1041.3052],[25.0395,42.7596,1727.8527],[25.0398,42.7476,1839.6184],[25.0365,42.7353,1699.8812],[25.0735,42.7342,1918.7241],[25.0885,42.7291,1694.703],[25.1101,42.7289,1554.541],[25.1386,42.7434,960.4526],[25.1553,42.7495,1167.5708],[25.1695,42.7524,1474.4553],[25.1845,42.7523,1224.673],[25.193,42.7541,1156.8136],[25.2263,42.7725,1148.7402],[25.2359,42.7689,1260.431],[25.2513,42.7584,1308.7756],[25.2669,42.7534,1178.616],[25.285,42.7431,1180.1045],[25.2913,42.7417,1038.219],[25.32,42.7455,1225.3123],[25.3377,42.7445,1141.9227],[25.38,42.7354,1048.6919],[25.4154,42.7322,1414.698],[25.431,42.7269,1262.5156],[25.4555,42.7224,1312.0511],[25.4637,42.7239,1197.8191],[25.4661,42.7269,1214.7974],[25.467,42.7321,1177.7384],[25.4562,42.7591,1221.7773],[25.457,42.7617,1260.2563],[25.4624,42.763,1275.0414],[25.4869,42.7633,1238.3271],[25.501,42.7603,1117.3899],[25.5101,42.7549,1208.8201],[25.5181,42.7475,1183.3191],[25.5275,42.7425,998.9521],[25.5482,42.7368,1077.1067],[25.5772,42.7406,853.5583],[25.5944,42.7512,983.1255],[25.606,42.7537,863.4539],[25.616,42.7538,735.0544],[25.623,42.7522,809.2352],[25.6304,42.7462,841.8303],[25.6348,42.7393,776.5399],[25.6414,42.7337,717.6301],[25.6551,42.7312,724.5583],[25.6655,42.7343,594.3152],[25.6745,42.7416,606.3354],[25.6774,42.7502,753.5081],[25.6638,42.7621,625.0839],[25.6523,42.7646,777.4],[25.6431,42.7685,796.6176],[25.641,42.7901,868.1591],[25.637,42.7967,810.6438],[25.6241,42.8093,698.7506],[25.6226,42.8154,589.3555],[25.623,42.8206,489.9528],[25.6268,42.8273,435.6771],[25.6604,42.8444,515.0085],[25.6683,42.8523,497.9505],[25.669,42.8584,410.273],[25.6635,42.8638,469.4893],[25.646,42.8677,406.5056],[25.6472,42.883,388.5968],[25.6465,42.8975,414.3672],[25.645,42.8992,399.5739],[25.6371,42.902,492.9218],[25.6116,42.9006,617.5803],[25.6086,42.9014,657.334],[25.5958,42.9114,612.8186]]]]}
,"properties": {"GID_1": "BGR.4_1","GID_0": "BGR","country": "Bulgaria","state": "Gabrovo","VARNAME_1": "NA","NL_NAME_1": "Габрово","TYPE_1": "Oblast","ENGTYPE_1": "Province","CC_1": "NA","HASC_1": "BG.GB","ISO_1": "BG-07","name": "Gabrovo.state","area_km2": 2222.493,"hist_schema_id": "Elevation0-9000","hist_area_km2": {"175": 12.435,"200": 29.898,"225": 49.319,"250": 70.727,"275": 86.975,"300": 90.172,"325": 97.232,"350": 108.924,"375": 123.388,"400": 131.95,"425": 134.555,"450": 127.957,"475": 114.64,"500": 98.581,"525": 90.054,"550": 82.103,"575": 78.858,"600": 71.876,"625": 66.851,"650": 57.084,"675": 50.174,"700": 42.922,"725": 35.824,"750": 30.916,"775": 27.887,"800": 28.185,"825": 25.729,"850": 22.805,"875": 18.792,"900": 16.77,"925": 14.874,"950": 13.459,"975": 12.822,"1000": 11.966,"1025": 10.784,"1050": 10.52,"1075": 10.677,"1100": 9.276,"1125": 9.448,"1150": 8.841,"1175": 9.807,"1200": 9.246,"1225": 8.702,"1250": 7.768,"1275": 5.698,"1300": 5.682,"1325": 5.324,"1350": 4.11,"1375": 4.515,"1400": 3.954,"1425": 3.083,"1450": 2.273,"1475": 1.744,"1500": 1.37,"1525": 1.012,"1550": 0.919,"1575": 0.965,"1600": 0.825,"1625": 0.763,"1650": 0.763,"1675": 0.452,"1700": 0.545,"1725": 0.561,"1750": 0.623,"1775": 0.67,"1800": 0.654,"1825": 0.794,"1850": 1.043,"1875": 0.732,"1900": 0.498,"1925": 0.467,"1950": 0.311,"1975": 0.202,"2000": 0.093,"2025": 0.047}}}