{"type":"Feature","properties":{"GID_2":"BGR.7.8_1","GID_0":"BGR","country":"Bulgaria","GID_1":"BGR.7_1","state":"Kardzhali","NL_NAME_1":"Кърджалийска","county":"SkalnaGlava","VARNAME_2":"NA","NL_NAME_2":"NA","TYPE_2":"Obshtina","ENGTYPE_2":"Municipality","CC_2":"NA","HASC_2":"BG.KZ.KA","name":"SkalnaGlava.county"},
"geometry":{"type": "MultiPolygon","coordinates": [[[[25.2451,41.6962,415.1338],[25.2514,41.7051,650.8561],[25.2444,41.7226,729.3928],[25.2453,41.7302,632.4921],[25.2433,41.7374,600.4744],[25.2401,41.7427,590.9211],[25.2373,41.7441,522.4482],[25.217,41.7424,388.8852],[25.212,41.7403,429.7415],[25.1932,41.7379,600.4452],[25.1888,41.7383,627.0545],[25.1731,41.745,559.6798],[25.1697,41.745,592.5391],[25.1605,41.7425,579.111],[25.1469,41.7289,696.7134],[25.1665,41.7174,860.679],[25.1767,41.7151,914.3156],[25.2186,41.717,513.3954],[25.2253,41.7152,323.0953],[25.2352,41.7087,531.2945],[25.2451,41.6962,415.1338]]]]}}