{"type": "Feature","bbox": [24.0679,41.5153,24.269,41.7352],"geometry": {"type": "MultiPolygon","coordinates": [[[[24.0721,41.5305,865.6832],[24.0727,41.5345,903.9146],[24.0752,41.5355,948.2311],[24.0762,41.5393,970.1047],[24.0998,41.5487,1326.0582],[24.1028,41.5469,1289.2214],[24.1055,41.5409,1356.5842],[24.1112,41.5406,1357.1606],[24.1182,41.5373,1372.5581],[24.1247,41.5393,1390.3446],[24.1302,41.5384,1407.0656],[24.1322,41.5315,1382.9519],[24.1388,41.5325,1343.9784],[24.1485,41.5365,1363.3779],[24.158,41.5347,1461.098],[24.1592,41.5338,1485.5786],[24.1598,41.5266,1442.6416],[24.1642,41.526,1480.5891],[24.1666,41.5227,1474.7139],[24.1735,41.5204,1503.1855],[24.1706,41.5153,1517.3588],[24.1786,41.5159,1476.5037],[24.1854,41.5205,1454.6418],[24.1822,41.5293,1394.1002],[24.1875,41.5306,1512.9133],[24.1896,41.5354,1539.9207],[24.1933,41.5355,1535.5721],[24.1963,41.5388,1569.2003],[24.2023,41.5409,1550.6696],[24.2009,41.5444,1493.5728],[24.205,41.5474,1552.0159],[24.2069,41.5466,1541.1064],[24.2117,41.5501,1511.26],[24.215699999999998,41.5475,1506.5372],[24.2228,41.5465,1487.9624],[24.2318,41.5529,1491.7299],[24.2326,41.5578,1371.2471],[24.2367,41.5584,1384.2383],[24.2411,41.5629,1448.053],[24.244,41.5622,1459.136],[24.2456,41.5653,1476.3888],[24.2508,41.5655,1496.8459],[24.2517,41.5677,1490.4398],[24.2543,41.568,1495.3672],[24.2574,41.5751,1482.8853],[24.2656,41.611,1459.8802],[24.265,41.6193,1393.6947],[24.2571,41.6361,1271.647],[24.2561,41.6421,1274.4463],[24.2585,41.6481,1308.0022],[24.2685,41.6591,1243.9917],[24.269,41.6614,1199.9989],[24.2642,41.6661,1238.8857],[24.2365,41.6719,1381.9855],[24.2301,41.6756,1460.5234],[24.2284,41.6798,1490.8225],[24.2291,41.6882,1479.7329],[24.2224,41.7003,1544.009],[24.2224,41.7132,1490.6428],[24.2178,41.7291,1515.1343],[24.2183,41.7318,1466.7339],[24.2096,41.7348,1521.7601],[24.2014,41.7352,1471.1188],[24.18,41.7283,1629.4412],[24.1123,41.7229,1547.4596],[24.1137,41.7055,1529.7626],[24.1082,41.6975,1355.6993],[24.0951,41.6842,1194.5],[24.090699999999998,41.6711,1568.9172],[24.0861,41.6637,1550.3149],[24.1076,41.6525,1473.3231],[24.1096,41.6463,1488.4437],[24.1095,41.6381,1339.8867],[24.1063,41.6314,1265.5864],[24.0798,41.6104,1000.194],[24.0798,41.6026,974.696],[24.0859,41.5908,886.3615],[24.0874,41.5846,780.8737],[24.0861,41.5807,805.9131],[24.0787,41.5711,982.5656],[24.0681,41.5496,656.1161],[24.0679,41.5361,682.2209],[24.0705,41.5292,885.2035],[24.0721,41.5305,865.6832]]]]}
,"properties": {"GID_2": "BGR.20.5_1","GID_0": "BGR","country": "Bulgaria","GID_1": "BGR.20_1","state": "Smolyan","NL_NAME_1": "Смолян","county": "Dospat","VARNAME_2": "NA","NL_NAME_2": "Доспат","TYPE_2": "Obshtina","ENGTYPE_2": "Municipality","CC_2": "NA","HASC_2": "BG.SM.DO","name": "Dospat.county","area_km2": 270.696,"hist_schema_id": "Elevation0-9000","hist_area_km2": {"650": 0.0317,"675": 0.0635,"700": 0.1111,"725": 0.1269,"750": 0.1111,"775": 0.3649,"800": 0.5076,"825": 0.6186,"850": 1.0309,"875": 1.2213,"900": 1.3639,"925": 1.8238,"950": 1.5858,"975": 2.3154,"1000": 2.1251,"1025": 2.6485,"1050": 3.267,"1075": 4.9161,"1100": 6.8182,"1125": 7.3734,"1150": 7.5635,"1175": 7.2145,"1200": 18.2704,"1225": 12.7125,"1250": 15.723,"1275": 15.422,"1300": 14.9456,"1325": 16.167,"1350": 15.8024,"1375": 14.3914,"1400": 12.8548,"1425": 12.442,"1450": 12.3298,"1475": 12.7397,"1500": 12.277,"1525": 11.6246,"1550": 9.6746,"1575": 6.3958,"1600": 2.9448,"1625": 0.6966,"1650": 0.0792}}}