{"type": "Feature","bbox": [22.9818,41.667,23.3932,41.8194],"geometry": {"type": "MultiPolygon","coordinates": [[[[23.3873,41.7873,2786.2556],[23.3774,41.793,2741.7573],[23.3578,41.7984,2544.1899],[23.3513,41.8042,2331.6338],[23.3477,41.8103,2457.6621],[23.331,41.8194,2367.9253],[23.2889,41.8127,1328.3596],[23.2537,41.8147,1024.4619],[23.2122,41.8053,795.7722],[23.1724,41.8077,355.1488],[23.1484,41.799,721.9496],[23.128,41.7888,748.2896],[23.1192,41.79,706.8658],[23.0994,41.8031,1166.1636],[23.0832,41.8056,1111.104],[23.0748,41.8046,1014.7999],[23.06,41.7979,954.567],[23.0515,41.7903,1111.7567],[23.0393,41.7755,1299.8734],[23.0272,41.7674,1337.4506],[23.0169,41.764,1592.9485],[22.9818,41.7612,1469.1123],[22.9842,41.755,1489.5471],[22.9889,41.7509,1430.8208],[22.9885,41.744,1505.0631],[22.994,41.7423,1552.7563],[22.9968,41.7335,1397.0121],[23.0033,41.725,1455.5083],[23.0033,41.7214,1486.2592],[23.0057,41.7182,1486.8962],[23.0032,41.7127,1420.6628],[23.0061,41.7051,1439.6907],[23.0013,41.7023,1410.0657],[22.999,41.6978,1479.8278],[22.9948,41.6978,1443.4917],[22.9918,41.6933,1517.92],[23.0044,41.6872,1501.0244],[23.09,41.679,914.595],[23.101,41.6788,902.7229],[23.114,41.684,670.703],[23.1399,41.6849,407.5452],[23.1582,41.6792,286.3651],[23.1605,41.68,260.6779],[23.1848,41.6682,149.4495],[23.1977,41.667,233.5118],[23.2199,41.6793,361.2152],[23.2499,41.7081,746.9427],[23.2651,41.7202,917.7329],[23.2841,41.733,817.0543],[23.3013,41.7416,1074.5991],[23.3144,41.7431,1320.9513],[23.3333,41.7387,1803.7432],[23.3493,41.7376,1902.7067],[23.3741,41.744,2214.4058],[23.3813,41.7482,2314.3938],[23.3905,41.758,2367.9526],[23.3926,41.7637,2500.7266],[23.3932,41.7696,2500.0852],[23.3893,41.7849,2784.552],[23.3873,41.7873,2786.2556]]]]}
,"properties": {"GID_2": "BGR.1.7_1","GID_0": "BGR","country": "Bulgaria","GID_1": "BGR.1_1","state": "Blagoevgrad","NL_NAME_1": "Благоевград","county": "Kresna","VARNAME_2": "NA","NL_NAME_2": "Кресна","TYPE_2": "Obshtina","ENGTYPE_2": "Municipality","CC_2": "NA","HASC_2": "BG.BL.KR","name": "Kresna.county","area_km2": 360.0761,"hist_schema_id": "Elevation0-9000","hist_area_km2": {"125": 1.1244,"150": 6.5225,"175": 4.5741,"200": 4.0516,"225": 4.5894,"250": 4.7633,"275": 4.3202,"300": 4.6524,"325": 5.222,"350": 5.4272,"375": 4.6835,"400": 5.3005,"425": 5.0471,"450": 5.5219,"475": 5.9329,"500": 6.2965,"525": 6.8024,"550": 7.0709,"575": 7.7032,"600": 8.2249,"625": 8.5885,"650": 9.458,"675": 7.9558,"700": 7.64,"725": 7.8297,"750": 7.3237,"775": 6.2005,"800": 5.5836,"825": 5.4255,"850": 4.6821,"875": 3.9073,"900": 4.4927,"925": 3.3538,"950": 3.6383,"975": 3.5277,"1000": 3.6225,"1025": 4.0654,"1050": 4.2073,"1075": 4.318,"1100": 3.8752,"1125": 3.7802,"1150": 4.2231,"1175": 3.891,"1200": 4.144,"1225": 4.0808,"1250": 4.3973,"1275": 4.2075,"1300": 4.3342,"1325": 3.923,"1350": 3.5116,"1375": 3.6543,"1400": 3.5906,"1425": 3.7488,"1450": 3.9706,"1475": 5.2049,"1500": 5.9169,"1525": 6.1229,"1550": 6.1701,"1575": 4.8721,"1600": 4.4921,"1625": 3.9856,"1650": 3.859,"1675": 3.5741,"1700": 2.8781,"1725": 2.3561,"1750": 1.8025,"1775": 1.7551,"1800": 1.9132,"1825": 1.5969,"1850": 1.4389,"1875": 1.6918,"1900": 1.5179,"1925": 1.3123,"1950": 1.5178,"1975": 1.2965,"2000": 1.0752,"2025": 1.0909,"2050": 1.1384,"2075": 0.9802,"2100": 1.0277,"2125": 0.917,"2150": 0.8063,"2175": 1.0594,"2200": 0.9012,"2225": 0.9012,"2250": 1.0594,"2275": 0.9961,"2300": 0.9487,"2325": 0.996,"2350": 0.9961,"2375": 0.9802,"2400": 0.8537,"2425": 0.743,"2450": 0.6323,"2475": 0.6798,"2500": 0.6166,"2525": 0.5533,"2550": 0.411,"2575": 0.3004,"2600": 0.3162,"2625": 0.1265,"2650": 0.2213,"2675": 0.0949,"2700": 0.0632,"2725": 0.1265,"2750": 0.079,"2775": 0.0632,"2800": 0.0474,"2825": 0.0158}}}