{"type": "Feature","bbox": [22.9115,41.7531,23.3611,42.0217],"geometry": {"type": "MultiPolygon","coordinates": [[[[22.9122,41.8345,1011.9621],[22.9115,41.8294,1015.3845],[22.9198,41.8155,1150.5615],[22.9207,41.8014,1229.6978],[22.9251,41.7978,1388.1475],[22.9286,41.7896,1400.5369],[22.9342,41.7863,1593.9305],[22.938,41.7785,1683.9148],[22.9433,41.7741,1446.4861],[22.9455,41.7748,1409.5803],[22.9506,41.7616,1542.7743],[22.9486,41.7582,1460.8824],[22.9506,41.7553,1397.8643],[22.9559,41.7531,1368.2271],[22.9569,41.7561,1366.0105],[22.962,41.7567,1529.8474],[22.965699999999998,41.7614,1601.8468],[22.9689,41.7574,1501.3186],[22.9741,41.762,1543.6311],[22.9818,41.7612,1469.1123],[23.0169,41.764,1592.9485],[23.0272,41.7674,1337.4506],[23.0393,41.7755,1299.8734],[23.0515,41.7903,1111.7567],[23.06,41.7979,954.567],[23.0748,41.8046,1014.7999],[23.0832,41.8056,1111.104],[23.0994,41.8031,1166.1636],[23.1192,41.79,706.8658],[23.128,41.7888,748.2896],[23.1484,41.799,721.9496],[23.1724,41.8077,355.1488],[23.2122,41.8053,795.7722],[23.2537,41.8147,1024.4619],[23.2889,41.8127,1328.3596],[23.331,41.8194,2367.9253],[23.306,41.8306,1949.6024],[23.296,41.8377,2141.2168],[23.2883,41.8469,2375.7236],[23.2876,41.8535,2245.6006],[23.2897,41.8598,2309.7],[23.2956,41.8687,1800.6896],[23.307,41.8812,1258.314],[23.3159,41.8942,1042.3469],[23.3187,41.9153,1157.3398],[23.3222,41.9258,1318.9238],[23.3396,41.9351,1651.4851],[23.3513,41.9448,2037.0157],[23.3516,41.967,1947.7062],[23.3557,41.9745,2243.0176],[23.3611,41.9792,2318.5601],[23.3325,41.9791,1950.98],[23.3103,41.9831,1547.5419],[23.2883,42.0095,1433.4615],[23.2694,42.0199,1306.8762],[23.2528,42.0217,1304.4309],[23.2487,42.0193,1257.9985],[23.2432,42.006,974.7166],[23.2325,41.9929,1148.3674],[23.2213,41.9882,1114.7456],[23.2007,41.9762,1115.7571],[23.1948,41.9656,1008.2739],[23.1866,41.9564,868.5944],[23.1753,41.9506,983.0905],[23.158,41.9479,856.0901],[23.1384,41.9366,688.6383],[23.1167,41.9348,473.5965],[23.0958,41.936,305.6629],[23.087,41.9395,559.1388],[23.0849,41.9454,526.9877],[23.087,41.9523,518.1928],[23.0839,41.9553,599.3122],[23.0785,41.9563,643.7673],[23.0705,41.955,579.453],[23.046,41.9423,696.1187],[23.0251,41.9422,653.0768],[23.0225,41.9358,747.7202],[23.0231,41.9311,851.576],[23.0267,41.9248,759.5763],[23.0256,41.9221,750.8372],[23.0176,41.9211,710.8585],[23.0148,41.9184,652.1744],[23.0203,41.9095,605.3157],[23.0186,41.902,636.8226],[23.0073,41.8809,803.3134],[22.9984,41.8679,946.898],[22.9918,41.8639,940.2808],[22.9737,41.8591,959.5104],[22.951,41.85,1086.6914],[22.9462,41.8453,1125.7401],[22.9429,41.8365,1226.2433],[22.9382,41.8346,1250.6194],[22.9122,41.8345,1011.9621]]]]}
,"properties": {"GID_2": "BGR.1.12_1","GID_0": "BGR","country": "Bulgaria","GID_1": "BGR.1_1","state": "Blagoevgrad","NL_NAME_1": "Благоевград","county": "Simitli","VARNAME_2": "NA","NL_NAME_2": "Симитли","TYPE_2": "Obshtina","ENGTYPE_2": "Municipality","CC_2": "NA","HASC_2": "BG.BL.SM","name": "Simitli.county","area_km2": 539.581,"hist_schema_id": "Elevation0-9000","hist_area_km2": {"250": 0.3002,"275": 6.3318,"300": 7.8613,"325": 6.378,"350": 6.2361,"375": 6.7729,"400": 6.631,"425": 6.8515,"450": 7.6879,"475": 7.9087,"500": 8.382,"525": 8.7124,"550": 9.3594,"575": 10.3225,"600": 11.933,"625": 13.7634,"650": 13.7638,"675": 15.6262,"700": 16.4783,"725": 15.61,"750": 15.6103,"775": 15.042,"800": 15.6111,"825": 13.4483,"850": 14.0803,"875": 12.6904,"900": 13.0547,"925": 12.0437,"950": 12.2333,"975": 12.0593,"1000": 11.7757,"1025": 11.9799,"1050": 11.8859,"1075": 12.0907,"1100": 11.0021,"1125": 9.9605,"1150": 8.3818,"1175": 7.719,"1200": 7.1506,"1225": 6.1247,"1250": 5.7932,"1275": 5.3357,"1300": 5.8096,"1325": 5.4939,"1350": 5.4943,"1375": 4.7683,"1400": 5.3689,"1425": 4.9109,"1450": 4.801,"1475": 4.8962,"1500": 4.6748,"1525": 4.8965,"1550": 4.8342,"1575": 3.9649,"1600": 4.7393,"1625": 4.4711,"1650": 4.8665,"1675": 3.8869,"1700": 3.7761,"1725": 3.4125,"1750": 2.7488,"1775": 2.606,"1800": 1.832,"1825": 1.9422,"1850": 1.4053,"1875": 1.6891,"1900": 1.2628,"1925": 1.2312,"1950": 0.9156,"1975": 1.0892,"2000": 0.6157,"2025": 0.6631,"2050": 0.6315,"2075": 0.5525,"2100": 0.4577,"2125": 0.4262,"2150": 0.3946,"2175": 0.3314,"2200": 0.3156,"2225": 0.3472,"2250": 0.2525,"2275": 0.2842,"2300": 0.2368,"2325": 0.1263,"2350": 0.0946,"2375": 0.0158,"2400": 0.0474,"2425": 0.0158}}}