{"type": "Feature","bbox": [22.3591,43.7988,22.702,44.0146],"geometry": {"type": "MultiPolygon","coordinates": [[[[22.3827,43.9164,343.4031],[22.3782,43.9114,347.7038],[22.3823,43.9027,360.3634],[22.381,43.8993,367.5732],[22.3828,43.894,380.7698],[22.378,43.8822,345.3306],[22.3761,43.8645,343.6144],[22.3666,43.8342,648.3427],[22.3667,43.8303,567.077],[22.3591,43.8191,472.3273],[22.383,43.8243,414.943],[22.4022,43.8257,361.9819],[22.4168,43.8198,323.9012],[22.4252,43.8138,330.4569],[22.4448,43.8124,282.1035],[22.4704,43.8003,311.9955],[22.4784,43.7988,282.5689],[22.4904,43.8007,302.8448],[22.5002,43.8081,294.463],[22.5074,43.8233,247.7743],[22.5183,43.8274,240.56],[22.5224,43.8321,258.2339],[22.5236,43.8352,261.0359],[22.5223,43.8371,281.696],[22.5166,43.8409,308.1317],[22.5193,43.8456,311.2808],[22.5396,43.8485,297.2809],[22.5453,43.8478,281.3428],[22.5629,43.8406,193.2604],[22.5776,43.8405,227.6713],[22.596,43.8506,172.9356],[22.6008,43.8564,169.8927],[22.6017,43.8637,150.9985],[22.6095,43.8759,245.1615],[22.6088,43.8804,245.2839],[22.6021,43.886,266.375],[22.6015,43.8892,258.302],[22.6255,43.9009,156.253],[22.6409,43.9035,220.1665],[22.6546,43.9101,115.5608],[22.6596,43.9256,220.1752],[22.6632,43.9318,222.13],[22.6676,43.9359,227.6707],[22.6776,43.9408,209.987],[22.6826,43.9465,219.6482],[22.6938,43.953,233.4975],[22.6968,43.9601,220.4704],[22.702,43.9668,224.6108],[22.701,43.9688,223.3214],[22.688,43.9675,192.9453],[22.6857,43.9685,188.8465],[22.6803,43.9752,203.9731],[22.6726,43.9797,192.8857],[22.6688,43.9839,217.279],[22.6717,43.9895,195.772],[22.6933,43.9979,146.7162],[22.6968,44.0042,163.6655],[22.6758,44.0146,108.527],[22.6683,44.0138,156.8961],[22.6399,44.0025,149.0639],[22.6232,43.9929,171.3105],[22.6105,43.9936,132.5524],[22.6064,43.9905,108.6039],[22.6031,43.9828,116.2445],[22.5999,43.9806,118.5112],[22.5922,43.978,199.426],[22.5815,43.9791,253.5126],[22.5754,43.9698,245.2721],[22.5721,43.9525,172.4085],[22.5661,43.9417,153.7159],[22.5564,43.9344,156.9928],[22.5375,43.9273,200.2395],[22.5294,43.9175,183.6651],[22.5236,43.9143,195.5],[22.5086,43.916,278.8382],[22.4886,43.9121,302.1923],[22.4815,43.9143,303.9449],[22.4745,43.9205,310.3492],[22.464,43.9243,269.8901],[22.3827,43.9164,343.4031]]]]}
,"properties": {"GID_2": "BGR.26.7_1","GID_0": "BGR","country": "Bulgaria","GID_1": "BGR.26_1","state": "Vidin","NL_NAME_1": "Видин","county": "Kula","VARNAME_2": "NA","NL_NAME_2": "NA","TYPE_2": "Obshtina","ENGTYPE_2": "Municipality","CC_2": "NA","HASC_2": "BG.VD.KU","name": "Kula.county","area_km2": 277.4528,"hist_schema_id": "Elevation0-9000","hist_area_km2": {"100": 0.1679,"125": 2.1677,"150": 5.664,"175": 10.2467,"200": 24.8914,"225": 39.8113,"250": 49.9642,"275": 45.4602,"300": 38.0906,"325": 29.194,"350": 17.7151,"375": 9.0339,"400": 2.4761,"425": 0.4283,"450": 0.5201,"475": 0.4436,"500": 0.2906,"525": 0.1835,"550": 0.1529,"575": 0.1529,"600": 0.1224,"625": 0.0306,"650": 0.1071,"675": 0.1377}}}