{"type":"Feature","properties":{"GID_2":"BGR.12.5_1","GID_0":"BGR","country":"Bulgaria","GID_1":"BGR.12_1","state":"Pernik","NL_NAME_1":"Перник","county":"Tran","VARNAME_2":"NA","NL_NAME_2":"Трън","TYPE_2":"Obshtina","ENGTYPE_2":"Municipality","CC_2":"NA","HASC_2":"BG.PN.TR","name":"Tran.county"},
"geometry":{"type": "MultiPolygon","coordinates": [[[[22.635,42.5579,910.6791],[22.6382,42.5592,886.7974],[22.6419,42.5636,781.4385],[22.6535,42.5812,888.209],[22.6546,42.5861,908.7105],[22.6538,42.5897,869.6213],[22.6467,42.5972,908.735],[22.6432,42.609,969.6625],[22.6249,42.6254,910.7639],[22.6206,42.6369,1016.6001],[22.6235,42.6457,1010.6441],[22.634,42.6566,1012.2509],[22.6398,42.668,1299.0538],[22.6402,42.6767,1353.377],[22.6344,42.687,1319.5183],[22.637,42.6931,1324.1475],[22.6455,42.7016,1189.9844],[22.6404,42.717,1046.1022],[22.6419,42.7218,1091.7529],[22.6512,42.7242,1154.2468],[22.6642,42.7202,1135.4014],[22.667,42.7209,1160.6718],[22.6752,42.7252,1257.2273],[22.6781,42.7302,1134.2252],[22.6828,42.7332,1164.2825],[22.7063,42.738,1262.0206],[22.7123,42.7448,1095.0374],[22.715,42.745,1030.8029],[22.7222,42.7511,995.3261],[22.7332,42.7565,1085.1489],[22.7427,42.7557,1117.1658],[22.764,42.7482,937.3659],[22.7786,42.7526,879.4583],[22.8012,42.7688,879.5598],[22.8102,42.7882,913.5492],[22.8105,42.7949,915.1242],[22.808,42.8009,900.5441],[22.7912,42.8124,1067.4553],[22.7765,42.8283,1070.4485],[22.7739,42.8376,1100.746],[22.7749,42.8473,892.3666],[22.7696,42.8667,827.2094],[22.7542,42.8764,867.1774],[22.7444,42.8799,935.3208],[22.7388,42.8802,986.5787],[22.7333,42.8728,941.8565],[22.725,42.8686,936.8691],[22.7189,42.8666,955.7024],[22.7033,42.8658,917.001],[22.6966,42.8613,828.6653],[22.6881,42.8682,749.9858],[22.6856,42.8681,754.8105],[22.6828,42.8667,754.055],[22.6778,42.8579,671.0466],[22.6668,42.8525,930.7123],[22.6668,42.848,894.5875],[22.6627,42.8448,896.2092],[22.6586,42.8482,927.4493],[22.6563,42.8542,918.1346],[22.6432,42.8616,726.3924],[22.639,42.8624,797.7226],[22.6199,42.8599,1215.6919],[22.6162,42.8621,1144.7504],[22.6049,42.8749,1042.6814],[22.6012,42.8756,1115.2526],[22.5879,42.8707,1390.9185],[22.5824,42.8743,1344.9631],[22.5761,42.871,1565.1863],[22.569,42.8715,1543.4922],[22.5568,42.855,1119.2559],[22.5589,42.8427,859.7728],[22.5486,42.8498,1143.1638],[22.5339,42.854,1205.7573],[22.5245,42.8592,1224.3645],[22.5231,42.8617,1222.3345],[22.5239,42.8664,1193.4911],[22.5226,42.8667,1181.7587],[22.5128,42.8608,1191.4084],[22.5062,42.8537,1311.0654],[22.503,42.847,1215.5637],[22.504,42.8392,1153.4973],[22.4923,42.8306,1006.7249],[22.4809,42.8286,1143.5724],[22.4585,42.8118,988.9822],[22.4527,42.8111,1046.6815],[22.4493,42.8137,1098.1049],[22.4314,42.8056,1055.2512],[22.4242,42.8049,1059.9534],[22.4221,42.8024,968.0924],[22.4237,42.7856,924.7704],[22.4313,42.7817,845.5652],[22.4328,42.7777,870.1062],[22.4385,42.7741,820.4417],[22.4425,42.7641,846.1282],[22.4424,42.7607,902.9624],[22.4512,42.7527,868.6251],[22.4578,42.7494,954.6085],[22.457,42.7467,955.6259],[22.4668,42.7332,1148.515],[22.4789,42.7277,1214.9447],[22.4825,42.7248,1283.448],[22.4836,42.7215,1283.446],[22.4777,42.7149,1348.594],[22.4783,42.7054,1390.328],[22.4684,42.7048,1401.7699],[22.4644,42.6981,1582.9031],[22.4567,42.6937,1636.913],[22.4552,42.6876,1669.1641],[22.4524,42.684,1559.7107],[22.4541,42.6803,1652.3928],[22.4488,42.676,1690.5132],[22.439,42.6747,1647.0731],[22.4412,42.6691,1667.7701],[22.4508,42.6661,1580.6088],[22.4562,42.6603,1542.464],[22.4526,42.6519,1559.8406],[22.4463,42.6452,1522.093],[22.4385,42.6418,1373.0979],[22.4406,42.6384,1447.5391],[22.4396,42.6351,1441.8995],[22.4334,42.6344,1356.6359],[22.4467,42.627,1513.4126],[22.4636,42.6285,1592.3242],[22.514,42.6146,1188.4893],[22.5299,42.6141,1030.309],[22.5799,42.6233,1066.0166],[22.5925,42.6232,1094.0155],[22.5976,42.6207,1149.7559],[22.6022,42.6159,1139.09],[22.6053,42.6054,997.6091],[22.6065,42.5876,1034.7],[22.605,42.5757,928.5235],[22.6079,42.5681,1004.4886],[22.6155,42.5633,1031.3981],[22.635,42.5579,910.6791]]]]}}