{"type":"Feature","properties":{"GID_2":"BGR.25.2_1","GID_0":"BGR","country":"Bulgaria","GID_1":"BGR.25_1","state":"VelikoTarnovo","NL_NAME_1":"ВеликоТърново","county":"GornaOrhyahovitsa","VARNAME_2":"NA","NL_NAME_2":"ГорнаОряховица","TYPE_2":"Obshtina","ENGTYPE_2":"Municipality","CC_2":"NA","HASC_2":"BG.VT.GO","name":"GornaOrhyahovitsa.county"},
"geometry":{"type": "MultiPolygon","coordinates": [[[[25.8987,43.1935,177.2271],[25.8946,43.2053,235.6797],[25.8917,43.2086,291.0652],[25.8909,43.2145,284.121],[25.8932,43.2211,257.2353],[25.9045,43.234,236.6744],[25.9063,43.241,218.1521],[25.9049,43.2444,216.9058],[25.8854,43.2473,240.0981],[25.8723,43.2546,273.0562],[25.8643,43.2558,284.8524],[25.8367,43.2446,346.4618],[25.8299,43.2433,362.831],[25.8203,43.2444,354.8633],[25.8117,43.2495,334.7048],[25.8019,43.2623,294.5299],[25.8009,43.2684,245.5716],[25.8065,43.2802,261.7064],[25.806,43.2828,275.8463],[25.7953,43.2835,270.5073],[25.7951,43.2871,292.0367],[25.8012,43.291,293.0467],[25.8103,43.2936,258.0235],[25.8214,43.3008,244.8021],[25.825,43.3082,229.3836],[25.8203,43.3184,313.4551],[25.7998,43.334,311.717],[25.7974,43.3318,342.063],[25.7812,43.3255,331.8713],[25.7756,43.3207,271.1953],[25.7659,43.3184,346.2711],[25.7567,43.3125,362.6149],[25.7526,43.3054,238.4043],[25.7512,43.2895,342.2626],[25.7482,43.2796,231.6302],[25.7404,43.2743,264.0987],[25.733,43.2726,278.7827],[25.712,43.2718,303.4486],[25.6915,43.2654,49.0254],[25.6707,43.2616,46.381],[25.6609,43.2628,47.3835],[25.6563,43.2666,46.5288],[25.6572,43.2562,48.1391],[25.6534,43.2393,95.4438],[25.6499,43.2335,106.1121],[25.633,43.2189,70.0101],[25.6232,43.2004,56.1555],[25.6247,43.1897,72.5539],[25.6385,43.1721,95.5261],[25.6459,43.153,105.1664],[25.6475,43.1474,95.9003],[25.6455,43.1346,152.9291],[25.6487,43.1299,259.7727],[25.6589,43.1247,372.7554],[25.6871,43.1199,161.3569],[25.7124,43.1111,193.5289],[25.7255,43.1114,175.6155],[25.7353,43.118,147.1722],[25.7507,43.1344,104.5066],[25.7695,43.1439,75.155],[25.777,43.1449,74.3277],[25.7839,43.1438,72.5051],[25.8035,43.1336,81.6378],[25.8117,43.1336,81.7131],[25.8185,43.1364,81.8834],[25.8297,43.1477,67.8131],[25.8341,43.1547,65.2779],[25.847,43.1656,59.4662],[25.8606,43.1724,61.0725],[25.8828,43.1786,61.8565],[25.8987,43.1935,177.2271]]]]}}