{"type": "Feature","bbox": [24.2888,42.8807,24.6903,43.246],"geometry": {"type": "MultiPolygon","coordinates": [[[[24.2888,43.065,338.3481],[24.3108,43.052,446.9628],[24.3265,43.037,315.2378],[24.3326,43.0246,328.4314],[24.3317,43.0179,379.1274],[24.3348,43.0049,480.0182],[24.3423,42.99,591.0269],[24.3419,42.9866,555.0483],[24.3341,42.9761,617.9165],[24.3232,42.9694,819.2042],[24.307,42.9645,756.5881],[24.3044,42.9612,858.7826],[24.3044,42.9491,1176.1012],[24.3115,42.9399,1034.4519],[24.3212,42.9337,726.4374],[24.3495,42.9245,1005.4852],[24.3603,42.917,956.7013],[24.3692,42.9082,1195.2198],[24.3826,42.902,966.4902],[24.3906,42.9001,940.757],[24.4217,42.8982,1238.859],[24.4479,42.8928,1436.5718],[24.4822,42.8807,1332.3624],[24.4897,42.8897,1380.1897],[24.4895,42.9087,1147.7026],[24.484,42.9192,1120.9817],[24.4773,42.9267,1024.7598],[24.4736,42.9392,801.6506],[24.443,42.9715,598.5973],[24.4379,42.9889,407.8378],[24.4382,42.9984,365.2754],[24.4473,43.0129,501.3773],[24.4636,43.0225,482.1695],[24.5029,43.0282,419.0105],[24.561,43.0197,683.049],[24.5984,43.0201,748.4152],[24.637,43.0231,769.5712],[24.6655,43.0211,760.2283],[24.6848,43.0426,274.6021],[24.6861,43.0457,281.7703],[24.6844,43.054,400.7965],[24.6851,43.0594,402.1866],[24.6903,43.0686,473.8178],[24.6903,43.0703,465.9261],[24.6868,43.0723,434.2252],[24.6658,43.0616,423.2983],[24.6606,43.0609,411.3184],[24.6547,43.0638,410.7769],[24.6478,43.0645,434.7357],[24.6267,43.0558,437.595],[24.6097,43.0562,418.7068],[24.6054,43.0582,435.228],[24.5981,43.0654,518.2234],[24.5799,43.0663,613.6458],[24.5785,43.0679,608.025],[24.5789,43.0706,586.9316],[24.5868,43.0791,640.9814],[24.585,43.0844,588.4617],[24.5787,43.0892,499.1622],[24.5777,43.0929,558.0814],[24.5825,43.1007,532.7488],[24.5816,43.1027,523.8362],[24.57,43.1046,426.1115],[24.5584,43.1026,420.5885],[24.5495,43.1092,444.5947],[24.5334,43.1098,397.7846],[24.5249,43.1123,352.9568],[24.5173,43.1185,318.3652],[24.5168,43.1241,316.2263],[24.5198,43.1287,400.3113],[24.5385,43.1395,303.6212],[24.5495,43.1505,259.7587],[24.549,43.1664,244.3986],[24.5563,43.1684,245.3742],[24.5637,43.1673,250.6664],[24.5694,43.1683,276.6463],[24.5693,43.1762,316.4195],[24.5642,43.188,350.2051],[24.5674,43.1993,416.5439],[24.582,43.2153,387.5235],[24.597,43.2237,356.6609],[24.6013,43.2289,329.7156],[24.5929,43.2263,365.3029],[24.5804,43.226,367.1873],[24.5448,43.2279,353.873],[24.5128,43.2375,296.2389],[24.4717,43.2385,294.6666],[24.4641,43.2415,290.1167],[24.4594,43.246,258.4212],[24.4544,43.2398,290.219],[24.4534,43.2215,239.1384],[24.4505,43.2182,220.712],[24.4382,43.2159,242.227],[24.406,43.222,258.5109],[24.3971,43.2223,210.0465],[24.3693,43.2112,279.0923],[24.3628,43.2071,262.2232],[24.3557,43.1969,268.3986],[24.3546,43.1835,281.5843],[24.3495,43.1763,316.7574],[24.3417,43.1695,261.4346],[24.3306,43.1394,265.961],[24.3172,43.1276,265.966],[24.3146,43.1225,260.8626],[24.3159,43.1154,263.7757],[24.3274,43.104,302.2493],[24.325,43.0982,306.7188],[24.3354,43.0841,343.2863],[24.3347,43.0821,354.1763],[24.328,43.0802,335.8028],[24.3122,43.0835,328.3293],[24.3052,43.0828,326.1448],[24.2985,43.0789,278.5443],[24.2888,43.065,338.3481]]]]}
,"properties": {"GID_2": "BGR.9.7_1","GID_0": "BGR","country": "Bulgaria","GID_1": "BGR.9_1","state": "Lovech","NL_NAME_1": "Ловеч","county": "Ugarchin","VARNAME_2": "Ougarchin","NL_NAME_2": "Угърчин","TYPE_2": "Obshtina","ENGTYPE_2": "Municipality","CC_2": "NA","HASC_2": "BG.LV.UG","name": "Ugarchin.county","area_km2": 614.2744,"hist_schema_id": "Elevation0-9000","hist_area_km2": {"175": 0.479,"200": 4.5592,"225": 11.7011,"250": 24.7544,"275": 49.4452,"300": 60.9363,"325": 58.5324,"350": 64.9129,"375": 60.5554,"400": 49.3126,"425": 41.9919,"450": 27.669,"475": 20.0207,"500": 14.8943,"525": 10.479,"550": 8.651,"575": 6.6216,"600": 6.4056,"625": 5.6618,"650": 5.3213,"675": 5.0731,"700": 5.3832,"725": 4.4837,"750": 4.189,"775": 3.9878,"800": 3.399,"825": 3.3372,"850": 2.9337,"875": 3.6478,"900": 3.1202,"925": 3.2289,"950": 3.2134,"975": 3.4308,"1000": 3.105,"1025": 2.748,"1050": 2.8257,"1075": 2.655,"1100": 2.329,"1125": 2.2205,"1150": 2.0187,"1175": 2.143,"1200": 1.6771,"1225": 1.6307,"1250": 1.3822,"1275": 1.4755,"1300": 1.1338,"1325": 1.0406,"1350": 0.994,"1375": 0.8232,"1400": 0.699,"1425": 0.4815,"1450": 0.3262,"1475": 0.233}}}