{"type": "Feature","bbox": [27.9324,43.3007,28.2821,43.6429],"geometry": {"type": "MultiPolygon","coordinates": [[[[28.2354,43.4043,0.9134],[28.2357,43.4275,164.2635],[28.2439,43.4454,167.2043],[28.2584,43.4622,161.791],[28.2768,43.4755,156.5212],[28.2794,43.4789,158.1342],[28.2821,43.4874,147.56],[28.2561,43.5119,152.6007],[28.2503,43.5152,158.2224],[28.2409,43.5171,169.5975],[28.2301,43.5234,173.6058],[28.2247,43.5327,164.355],[28.2174,43.554,179.5842],[28.2058,43.5587,186.5798],[28.2007,43.5626,193.4033],[28.1935,43.5742,190.7612],[28.1868,43.5792,191.2739],[28.1806,43.5784,192.1869],[28.1759,43.5639,199.3814],[28.1726,43.5604,204.2743],[28.1681,43.5596,206.0869],[28.1549,43.5656,210.0954],[28.1471,43.5642,196.2572],[28.1349,43.5732,194.7898],[28.1198,43.5924,211.7848],[28.1133,43.5966,213.4988],[28.101,43.5998,216.0527],[28.084,43.5953,222.3907],[28.0679,43.5975,232.7729],[28.0609,43.6041,232.6563],[28.0458,43.6289,229.7758],[28.034,43.6375,232.4418],[28.0079,43.6429,234.9595],[27.9866,43.6402,233.8463],[27.9937,43.6331,238.9417],[28.0022,43.6203,238.9626],[28.0042,43.6118,240.8439],[28.0031,43.6046,242.0888],[27.9994,43.6016,243.8326],[27.9829,43.5961,244.3483],[27.981,43.5917,248.2096],[27.9823,43.5868,248.0797],[27.9808,43.583,243.5402],[27.9718,43.5773,240.1214],[27.9713,43.5751,245.572],[27.9737,43.5698,248.8695],[27.9772,43.5665,252.2063],[27.9777,43.5602,257.4969],[27.9407,43.5465,241.8234],[27.9351,43.5425,258.0802],[27.9324,43.5362,245.5192],[27.9329,43.5316,228.7014],[27.9364,43.5199,243.7472],[27.9424,43.5095,267.8509],[27.9445,43.4926,268.803],[27.9466,43.4883,270.3636],[27.9536,43.4819,272.1542],[27.9753,43.4726,262.13],[27.979,43.4657,268.0031],[27.9799,43.446,265.5213],[27.982,43.4376,262.3719],[27.9907,43.4232,144.9118],[27.9931,43.4124,111.268],[27.9929,43.4099,74.05],[27.9873,43.403,102.8469],[27.9764,43.3951,148.3855],[27.9739,43.395,164.3029],[27.9769,43.3901,267.4974],[27.9894,43.3801,268.0636],[27.9984,43.3669,220.7367],[28.0139,43.3512,100.3003],[28.0185,43.3402,177.3594],[28.0228,43.3215,63.0825],[28.0326,43.3007,265.5352],[28.0422,43.3023,121.7211],[28.0518,43.3015,2.0706],[28.0576,43.3101,0.0],[28.0588,43.3143,4.3876],[28.0699,43.3279,0.0],[28.0674,43.3343,3.2012],[28.0693,43.3413,0.0],[28.0724,43.3454,0.0],[28.0729,43.3501,0.7243],[28.0765,43.3537,3.9123],[28.0843,43.3679,1.8294],[28.0932,43.3768,19.3326],[28.1035,43.3787,0.0],[28.106,43.3812,4.3129],[28.1099,43.381,0.0],[28.119,43.3868,0.0],[28.1199,43.3887,9.4195],[28.134,43.3949,0.0],[28.1338,43.3968,0.198],[28.1521,43.4046,3.1795],[28.1601,43.4054,0.3317],[28.1604,43.4038,0.3317],[28.1626,43.4032,0.0],[28.1618,43.4049,0.0],[28.1649,43.4049,0.0],[28.1671,43.4032,0.6071],[28.1654,43.4015,0.0],[28.1699,43.4035,0.0],[28.1737,43.4004,6.7182],[28.1724,43.3982,0.0],[28.1749,43.399,6.7182],[28.1765,43.3971,0.0],[28.2257,43.3988,0.0],[28.2313,43.4035,0.0],[28.2346,43.4024,0.0],[28.2335,43.4035,0.0],[28.2354,43.4043,0.9134]]]]}
,"properties": {"GID_2": "BGR.3.1_1","GID_0": "BGR","country": "Bulgaria","GID_1": "BGR.3_1","state": "Dobrich","NL_NAME_1": "Добрич","county": "Balchik","VARNAME_2": "Κρουνοι|Dionysopolis|Balcic","NL_NAME_2": "Балчик","TYPE_2": "Obshtina","ENGTYPE_2": "Municipality","CC_2": "NA","HASC_2": "BG.DO.BA","name": "Balchik.county","area_km2": 547.6974,"hist_schema_id": "Elevation0-9000","hist_area_km2": {"0": 6.0572,"25": 16.0282,"50": 11.4968,"75": 11.5109,"100": 10.4162,"125": 9.0134,"150": 18.3009,"175": 65.5866,"200": 78.2141,"225": 124.6732,"250": 154.8381,"275": 41.5618}}}