{"type":"Feature","properties":{"GID_2":"BGR.14.7_1","GID_0":"BGR","country":"Bulgaria","GID_1":"BGR.14_1","state":"Plovdiv","NL_NAME_1":"Пловдив","county":"Laki","VARNAME_2":"NA","NL_NAME_2":"Лъки","TYPE_2":"Obshtina","ENGTYPE_2":"Municipality","CC_2":"NA","HASC_2":"BG.PD.LA","name":"Laki.county"},
"geometry":{"type": "MultiPolygon","coordinates": [[[[24.7882,41.8676,1155.4301],[24.7955,41.8407,1333.0349],[24.8012,41.8316,1032.9803],[24.8003,41.8268,868.4991],[24.7873,41.8201,1077.4131],[24.7831,41.8072,1282.8059],[24.7775,41.8012,1220.3394],[24.7639,41.7976,1553.363],[24.7623,41.7891,1569.3226],[24.775,41.7697,1685.8049],[24.7804,41.7689,1526.7806],[24.7861,41.777,1320.4182],[24.7933,41.7791,1398.8508],[24.7952,41.7768,1475.829],[24.7939,41.7639,1262.4785],[24.7953,41.7603,1400.3113],[24.8092,41.7625,1124.2095],[24.8185,41.7616,1439.3717],[24.8182,41.753,1532.3789],[24.8083,41.7413,1359.4668],[24.8023,41.7271,1704.0181],[24.8046,41.7128,1726.7094],[24.8118,41.7067,1743.6506],[24.8296,41.6981,1592.4224],[24.8375,41.6866,1734.7947],[24.8425,41.6748,1807.7802],[24.8454,41.6722,1792.6228],[24.8517,41.6703,1656.1289],[24.8616,41.6741,1537.0776],[24.8757,41.6964,1689.2646],[24.8833,41.7021,1532.921],[24.899,41.7099,1842.2025],[24.8991,41.7313,1444.3162],[24.9037,41.7379,1530.1685],[24.9128,41.7399,1824.3002],[24.9277,41.7392,1690.5524],[24.9452,41.733,1701.8789],[24.9612,41.7293,1496.4579],[24.9739,41.7289,1358.3109],[24.9812,41.7316,1270.1572],[24.9946,41.7422,1224.5223],[24.997,41.7473,1184.521],[24.9968,41.7519,1228.0146],[24.9834,41.7594,1243.3716],[24.9777,41.7685,984.4379],[24.9756,41.7984,1162.4197],[24.9787,41.8046,1232.9381],[24.9844,41.8065,1285.7717],[24.9699,41.8113,1475.1731],[24.9565,41.8199,1176.936],[24.9265,41.8463,1127.5886],[24.91,41.8546,1133.0181],[24.8712,41.8684,1023.7177],[24.8663,41.8738,680.751],[24.8603,41.8877,1015.1637],[24.8468,41.8986,1172.601],[24.8334,41.9035,1240.9515],[24.8176,41.9009,864.6904],[24.8127,41.8974,754.3912],[24.8092,41.8916,616.1912],[24.7925,41.8811,846.017],[24.7882,41.8676,1155.4301]]]]}}