{"type": "Feature","bbox": [26.5761,42.6577,27.1031,42.95],"geometry": {"type": "MultiPolygon","coordinates": [[[[27.0438,42.8173,326.3854],[27.0489,42.8211,296.1951],[27.0575,42.8342,226.1736],[27.0632,42.8376,139.7341],[27.0992,42.8404,136.82],[27.102,42.8448,130.3002],[27.1031,42.8523,126.5797],[27.074,42.8741,225.0608],[27.0664,42.8828,260.7403],[27.0625,42.8907,348.8229],[27.0491,42.8991,392.5527],[27.0354,42.9021,411.1156],[27.0263,42.9084,563.6241],[27.0154,42.924,613.1564],[27.0058,42.9271,575.1626],[26.9996,42.9325,588.3342],[26.9889,42.9466,608.3182],[26.9733,42.9457,383.2726],[26.9607,42.9413,521.3123],[26.9468,42.9433,476.4504],[26.9243,42.9363,458.3427],[26.9104,42.9377,454.1389],[26.8929,42.9456,642.4463],[26.8744,42.95,664.867],[26.8549,42.9482,520.0615],[26.8497,42.9429,663.7673],[26.8311,42.9428,779.5126],[26.8075,42.9473,727.7505],[26.7884,42.9454,594.7668],[26.778,42.9407,484.3798],[26.7537,42.9232,661.9917],[26.728,42.9101,602.2062],[26.7183,42.9088,578.6178],[26.6831,42.9115,655.3214],[26.6521,42.9071,817.0404],[26.6455,42.9074,815.4393],[26.6411,42.9115,612.1739],[26.6404,42.9163,781.1179],[26.6489,42.9352,643.7676],[26.643,42.9396,534.5822],[26.6202,42.9422,449.4679],[26.5997,42.9424,655.9854],[26.5858,42.9398,799.6239],[26.5803,42.9361,638.9891],[26.5796,42.9339,630.4968],[26.58,42.9288,729.2474],[26.5851,42.9279,782.16],[26.5863,42.9222,1007.17],[26.5768,42.9076,824.5923],[26.5761,42.8948,727.0875],[26.5963,42.8661,447.215],[26.5989,42.8547,488.7721],[26.5966,42.8464,436.2989],[26.5867,42.8357,403.113],[26.5819,42.8275,430.3273],[26.5811,42.8213,484.996],[26.5841,42.8107,495.6288],[26.5914,42.8006,406.3054],[26.598,42.7962,436.9592],[26.6054,42.7944,425.4989],[26.6403,42.7937,364.7656],[26.6451,42.7908,422.7121],[26.6516,42.7827,424.1365],[26.6619,42.78,455.8917],[26.6692,42.7674,475.774],[26.6743,42.7619,357.643],[26.7051,42.7415,209.7119],[26.7094,42.7354,221.9887],[26.7091,42.7277,249.1943],[26.7051,42.7189,286.0299],[26.6988,42.713,262.333],[26.7115,42.7072,334.5504],[26.7166,42.7031,347.7065],[26.7327,42.6857,429.3967],[26.743,42.6717,404.1956],[26.7505,42.6669,351.5358],[26.7639,42.6717,397.5557],[26.7736,42.6716,378.0252],[26.7868,42.6781,341.1577],[26.7927,42.677,311.0989],[26.8123,42.6599,252.583],[26.8176,42.6577,242.9823],[26.8295,42.6577,258.8157],[26.8362,42.6599,260.9301],[26.8393,42.6627,255.1424],[26.8415,42.6692,252.9862],[26.8388,42.6935,240.4222],[26.8395,42.7058,231.5223],[26.8424,42.7142,242.8034],[26.8468,42.7188,207.0223],[26.8575,42.7249,176.6346],[26.8906,42.7324,214.8589],[26.8976,42.7364,236.2598],[26.904,42.7434,271.8596],[26.9061,42.7496,279.7993],[26.9116,42.7577,315.5925],[26.9148,42.7676,420.5404],[26.923,42.7784,273.5311],[26.9257,42.7796,265.6937],[26.9284,42.7733,322.903],[26.9353,42.774,290.1443],[26.9406,42.7831,295.6231],[26.9465,42.7855,387.9774],[26.9517,42.7824,312.4867],[26.9557,42.7771,285.9854],[26.9645,42.7776,279.7432],[26.9713,42.7835,354.5277],[26.9734,42.7881,418.0208],[26.9758,42.8042,631.5608],[26.9781,42.8097,501.7453],[26.9887,42.8172,349.7365],[27.0013,42.8196,345.2667],[27.0438,42.8173,326.3854]]]]}
,"properties": {"GID_2": "BGR.2.12_1","GID_0": "BGR","country": "Bulgaria","GID_1": "BGR.2_1","state": "Burgas","NL_NAME_1": "Бургас","county": "Sungurlare","VARNAME_2": "NA","NL_NAME_2": "NA","TYPE_2": "Obshtina","ENGTYPE_2": "Municipality","CC_2": "NA","HASC_2": "BG.BR.SU","name": "Sungurlare.county","area_km2": 792.857,"hist_schema_id": "Elevation0-9000","hist_area_km2": {"125": 0.4353,"150": 7.8966,"175": 24.8534,"200": 55.5738,"225": 44.2145,"250": 46.773,"275": 50.8693,"300": 58.7961,"325": 63.972,"350": 59.4649,"375": 51.0797,"400": 52.0249,"425": 48.2121,"450": 39.408,"475": 28.4103,"500": 21.0359,"525": 18.1284,"550": 15.8901,"575": 16.1228,"600": 15.3294,"625": 13.8838,"650": 12.1278,"675": 9.7518,"700": 8.7112,"725": 7.7641,"750": 6.2734,"775": 4.9224,"800": 4.1462,"825": 2.8108,"850": 1.7237,"875": 1.0249,"900": 0.5124,"925": 0.2174,"950": 0.3105,"975": 0.1553,"1000": 0.0311}}}