{"type": "Feature","bbox": [25.5842,41.607,25.8297,41.8319],"geometry": {"type": "MultiPolygon","coordinates": [[[[25.7506,41.8118,187.4664],[25.7379,41.8104,223.0541],[25.7093,41.8014,234.1567],[25.6903,41.8015,250.8765],[25.677,41.8097,183.1024],[25.6644,41.829,189.6872],[25.6541,41.8319,164.7265],[25.6477,41.8292,163.7784],[25.6399,41.8157,193.8928],[25.6292,41.8055,196.4437],[25.5983,41.789,233.1629],[25.587,41.7777,255.5465],[25.585,41.7732,270.4511],[25.5842,41.7522,247.3457],[25.5996,41.7464,314.6689],[25.6062,41.7423,359.271],[25.6195,41.7316,347.573],[25.6384,41.7199,329.2734],[25.6448,41.7137,297.362],[25.647,41.7091,331.1658],[25.6485,41.6905,414.1503],[25.6514,41.6798,350.8702],[25.6561,41.6706,320.2253],[25.6539,41.6595,319.5893],[25.6469,41.6486,354.6682],[25.6274,41.6351,446.5929],[25.6247,41.6314,448.3119],[25.624,41.6264,257.0223],[25.6265,41.6195,323.3596],[25.6351,41.6116,220.4036],[25.6447,41.6085,166.9504],[25.6635,41.6081,258.8134],[25.6709,41.61,234.0748],[25.6796,41.615,209.1878],[25.691,41.617,163.3123],[25.6989,41.6154,153.659],[25.7101,41.6079,169.7441],[25.7144,41.607,259.3395],[25.7194,41.6081,230.403],[25.75,41.62,205.2732],[25.7646,41.6288,208.7818],[25.7767,41.6439,222.2888],[25.785,41.6488,166.6091],[25.7827,41.6602,144.5528],[25.78,41.6653,206.6697],[25.7579,41.6685,189.5019],[25.7531,41.6718,223.4937],[25.7522,41.6741,227.9626],[25.7557,41.6862,212.9061],[25.7434,41.7072,362.0779],[25.7444,41.7166,404.923],[25.7477,41.7203,393.5189],[25.7591,41.7228,380.9119],[25.8166,41.7265,564.4838],[25.829,41.7345,434.6622],[25.8297,41.7405,411.1585],[25.8277,41.7463,351.5776],[25.8158,41.7566,283.2525],[25.8116,41.7699,298.9298],[25.8076,41.7741,261.3164],[25.8027,41.7763,194.5785],[25.7767,41.7781,192.5054],[25.752,41.7913,209.3017],[25.7503,41.7953,191.8861],[25.7506,41.8118,187.4664]]]]}
,"properties": {"GID_2": "BGR.6.9_1","GID_0": "BGR","country": "Bulgaria","GID_1": "BGR.6_1","state": "Haskovo","NL_NAME_1": "Хасково","county": "Stambolovo","VARNAME_2": "NA","NL_NAME_2": "NA","TYPE_2": "Obshtina","ENGTYPE_2": "Municipality","CC_2": "NA","HASC_2": "BG.KK.ST","name": "Stambolovo.county","area_km2": 276.3417,"hist_schema_id": "Elevation0-9000","hist_area_km2": {"125": 0.1267,"150": 15.0701,"175": 12.9135,"200": 19.0474,"225": 33.351,"250": 44.8684,"275": 42.8334,"300": 35.7017,"325": 24.8793,"350": 15.7963,"375": 9.4181,"400": 6.7906,"425": 5.7464,"450": 4.6068,"475": 2.8179,"500": 1.4245,"525": 0.6489,"550": 0.2532,"575": 0.0475}}}