{"type":"Feature","properties":{"GID_2":"BGR.25.8_1","GID_0":"BGR","country":"Bulgaria","GID_1":"BGR.25_1","state":"VelikoTarnovo","NL_NAME_1":"ВеликоТърново","county":"Svishtov","VARNAME_2":"Ziştovi","NL_NAME_2":"Свищов","TYPE_2":"Obshtina","ENGTYPE_2":"Municipality","CC_2":"NA","HASC_2":"BG.VT.SV","name":"Svishtov.county"},
"geometry":{"type": "MultiPolygon","coordinates": [[[[25.209,43.5689,132.9992],[25.2268,43.5544,90.5817],[25.2315,43.5484,82.7382],[25.2337,43.5423,92.9006],[25.2285,43.5336,48.8327],[25.2188,43.5251,114.1237],[25.214,43.5169,145.6205],[25.2129,43.5094,121.0182],[25.2152,43.4854,83.2734],[25.2137,43.4763,86.1014],[25.2004,43.4646,108.8164],[25.19,43.4592,129.0582],[25.1758,43.4548,129.4379],[25.1356,43.4502,56.2864],[25.1311,43.4474,50.9339],[25.1299,43.4434,51.3361],[25.1311,43.4386,51.5361],[25.1381,43.4296,82.9555],[25.1459,43.4262,145.9882],[25.1667,43.4273,147.2487],[25.2093,43.4355,117.2323],[25.2245,43.434,154.3747],[25.2358,43.4303,124.4983],[25.2398,43.4249,119.1284],[25.2396,43.4158,121.7914],[25.2372,43.4114,118.0145],[25.2091,43.3862,198.4718],[25.2059,43.3783,90.2083],[25.2106,43.3755,132.5694],[25.2513,43.3754,148.8551],[25.2687,43.3738,186.4077],[25.2862,43.3846,206.5628],[25.3015,43.4012,199.391],[25.3124,43.4081,181.2001],[25.3266,43.4126,149.555],[25.3487,43.4159,123.8638],[25.367,43.414,83.1155],[25.3811,43.4147,67.2784],[25.3916,43.4175,80.3624],[25.4046,43.4235,159.7429],[25.4377,43.4245,113.7266],[25.4388,43.4286,125.4087],[25.4362,43.4325,105.3007],[25.4389,43.436,108.117],[25.4458,43.4386,118.2641],[25.4506,43.4431,122.8564],[25.4779,43.4518,127.3496],[25.4831,43.456,157.0967],[25.4922,43.4782,131.8977],[25.4979,43.4815,101.8677],[25.5217,43.4876,94.9068],[25.5346,43.4934,70.5548],[25.5522,43.5078,76.042],[25.5474,43.508,111.0369],[25.5438,43.5103,112.052],[25.5437,43.5135,119.4128],[25.5352,43.5254,159.0499],[25.5259,43.5288,159.3767],[25.5231,43.532,176.8633],[25.5171,43.5534,114.0708],[25.5041,43.5621,67.2673],[25.4945,43.58,47.192],[25.4948,43.5887,91.9412],[25.5012,43.5949,142.9861],[25.5256,43.6058,75.4064],[25.5324,43.6142,17.8403],[25.5313,43.6221,17.5058],[25.527,43.6288,17.7465],[25.5039,43.6459,14.0],[25.4782,43.6408,14.0],[25.452,43.6308,14.0],[25.4525,43.6288,14.0],[25.4155,43.6222,14.5],[25.3916,43.6193,14.5],[25.3747,43.6226,15.0],[25.3683,43.6222,15.0],[25.341,43.632,15.0],[25.3239,43.6441,15.5],[25.3163,43.6474,15.5],[25.2893,43.6563,16.0],[25.2898,43.6574,16.0],[25.2735,43.6697,16.0],[25.2694,43.6745,18.0616],[25.2538,43.683,16.0],[25.2131,43.6905,16.0],[25.1956,43.6653,20.0748],[25.1971,43.6488,19.6543],[25.2216,43.6249,18.9836],[25.2253,43.6159,19.2459],[25.2237,43.6109,19.2956],[25.214,43.6048,19.0637],[25.2121,43.601,20.6697],[25.213,43.5766,72.1231],[25.209,43.5689,132.9992]]]]}}