{"type": "Feature","bbox": [27.7003,42.8196,27.9068,42.9576],"geometry": {"type": "MultiPolygon","coordinates": [[[[27.8826,42.8337,4.0805],[27.8826,42.8421,19.5314],[27.8868,42.8504,0.0],[27.8935,42.8549,10.4597],[27.903199999999998,42.8537,0.0],[27.9013,42.8565,32.8482],[27.8979,42.8729,0.0],[27.9026,42.8874,0.0],[27.8976,42.9029,14.1551],[27.896,42.9168,0.0],[27.8976,42.9204,1.113],[27.9013,42.921,12.1933],[27.9057,42.9263,2.8221],[27.9068,42.9299,0.0],[27.9007,42.9468,12.2595],[27.8993,42.9576,0.8339],[27.885,42.9526,52.3672],[27.8752,42.951,99.1561],[27.8657,42.9515,91.2505],[27.855,42.9561,18.1719],[27.8514,42.9559,23.4977],[27.8386,42.9474,27.7895],[27.8326,42.9394,32.3155],[27.8254,42.9355,67.7973],[27.8148,42.9316,127.5976],[27.8075,42.9331,62.7593],[27.799,42.9301,113.1108],[27.7815,42.928,59.0942],[27.7742,42.925,63.7711],[27.7656,42.9162,138.0697],[27.7526,42.9109,162.3843],[27.7331,42.9126,174.9983],[27.7156,42.909,259.2533],[27.7066,42.9032,177.1582],[27.7015,42.8957,144.0187],[27.7003,42.8894,141.7299],[27.7088,42.884,120.1977],[27.7125,42.8784,94.9063],[27.7057,42.8701,38.7871],[27.7049,42.8656,42.6414],[27.7274,42.8461,76.3786],[27.7329,42.8441,109.2638],[27.7454,42.8336,162.2876],[27.7589,42.8342,104.7362],[27.7658,42.8327,108.0564],[27.7749,42.8266,139.1848],[27.7776,42.8211,112.5465],[27.7857,42.8196,82.6329],[27.8153,42.8236,52.4405],[27.8453,42.8345,14.1728],[27.8826,42.8337,4.0805]]]]}
,"properties": {"GID_2": "BGR.24.4_1","GID_0": "BGR","country": "Bulgaria","GID_1": "BGR.24_1","state": "Varna","NL_NAME_1": "Варна","county": "Byala","VARNAME_2": "NA","NL_NAME_2": "Бяла","TYPE_2": "Obshtina","ENGTYPE_2": "Municipality","CC_2": "NA","HASC_2": "BG.VN.BY","name": "Byala.county","area_km2": 170.7966,"hist_schema_id": "Elevation0-9000","hist_area_km2": {"0": 5.3309,"25": 22.4262,"50": 26.4153,"75": 29.2854,"100": 29.6704,"125": 25.0061,"150": 16.3238,"175": 8.4489,"200": 4.6435,"225": 2.3296,"250": 0.8387,"275": 0.0777}}}