{"type": "Feature","bbox": [26.9669,43.8985,27.4134,44.1449],"geometry": {"type": "MultiPolygon","coordinates": [[[[27.3952,43.9709,69.5608],[27.3963,43.9777,104.7847],[27.4097,43.9958,144.5903],[27.4134,44.0045,159.3681],[27.4116,44.012,154.4156],[27.4091,44.0138,139.0497],[27.4009,44.0126,162.3146],[27.3723,44.0392,87.3038],[27.3576,44.059,87.2663],[27.2927,44.0755,133.74],[27.2921,44.0833,112.9165],[27.2813,44.0939,87.9925],[27.2784,44.0995,57.7552],[27.2778,44.1057,51.3216],[27.2856,44.1101,32.7005],[27.2781,44.1155,19.654],[27.2772,44.1194,15.3094],[27.2795,44.1227,4.0],[27.2735,44.1264,4.0],[27.2638,44.126,4.0],[27.2598,44.125,4.0],[27.2542,44.1205,4.0],[27.2302,44.1165,4.5],[27.1867,44.1208,4.5],[27.1664,44.132,6.4319],[27.1472,44.1388,5.0],[27.1354,44.1409,5.0],[27.105,44.1373,5.5],[27.0915,44.1334,5.7864],[27.0819,44.1333,5.5],[27.0625,44.1359,8.8859],[27.0509,44.1405,8.7321],[27.0489,44.1418,7.8971],[27.0496,44.1443,6.0],[27.0434,44.1449,6.0],[27.0238,44.1424,6.5],[26.996,44.1342,7.0],[26.9669,44.1363,7.0],[26.9744,44.1131,107.8357],[26.9819,44.097,110.2692],[26.9854,44.0729,116.3332],[26.9898,44.0675,87.3898],[26.9951,44.0652,116.2156],[27.0073,44.0694,108.6395],[27.0163,44.0661,115.716],[27.0456,44.0474,28.7962],[27.0457,44.0431,68.1245],[27.0401,44.029,104.3834],[27.041,44.0227,126.4822],[27.0463,44.0159,123.7864],[27.0628,44.0045,94.683],[27.0646,43.9924,80.1436],[27.0761,43.9835,115.4674],[27.078,43.97,136.4555],[27.0894,43.9545,135.2109],[27.0905,43.9507,153.2876],[27.0887,43.9432,147.0985],[27.0844,43.9352,121.0879],[27.1,43.9319,173.209],[27.1075,43.9266,163.4829],[27.1166,43.9064,178.3907],[27.1227,43.9004,191.2266],[27.1291,43.8985,175.3506],[27.1386,43.9,210.7746],[27.1475,43.9049,168.888],[27.1526,43.9097,150.246],[27.1644,43.9145,179.5875],[27.1698,43.915,178.3498],[27.1807,43.9123,209.1164],[27.1926,43.9059,229.2045],[27.1923,43.9287,186.354],[27.1945,43.9299,180.3022],[27.206,43.9295,187.025],[27.2072,43.9324,183.7788],[27.2069,43.9389,174.3524],[27.2025,43.95,180.2309],[27.2048,43.9565,157.148],[27.2134,43.9635,162.8793],[27.2317,43.9711,163.8253],[27.245,43.9731,172.2437],[27.271,43.9833,165.0543],[27.272,43.9881,156.8165],[27.2696,43.997,94.6536],[27.2768,44.0051,97.114],[27.2848,44.0082,140.3689],[27.2908,44.0081,141.893],[27.2978,43.9962,157.3339],[27.31,43.9951,166.4668],[27.3142,43.9927,168.6398],[27.3209,43.9693,166.5667],[27.3248,43.9644,143.9761],[27.3338,43.9592,71.7728],[27.3419,43.9579,145.1872],[27.3537,43.9592,166.9642],[27.3623,43.9611,121.7316],[27.3801,43.9695,94.3272],[27.3952,43.9709,69.5608]]]]}
,"properties": {"GID_2": "BGR.18.5_1","GID_0": "BGR","country": "Bulgaria","GID_1": "BGR.18_1","state": "Silistra","NL_NAME_1": "Силистра","county": "Silistra","VARNAME_2": "NA","NL_NAME_2": "Силистра","TYPE_2": "City","ENGTYPE_2": "City","CC_2": "NA","HASC_2": "BG.SI.SL","name": "Silistra.county","area_km2": 514.7309,"hist_schema_id": "Elevation0-9000","hist_area_km2": {"0": 26.8032,"25": 39.5555,"50": 35.0447,"75": 67.9509,"100": 100.454,"125": 154.0858,"150": 47.8483,"175": 37.1237,"200": 5.1927,"225": 0.672}}}