{"type": "Feature","bbox": [22.833,43.3111,23.4121,43.5973],"geometry": {"type": "MultiPolygon","coordinates": [[[[23.3298,43.3111,205.6753],[23.3592,43.3294,273.4044],[23.3746,43.3434,284.2177],[23.3833,43.3563,248.6617],[23.3877,43.373,263.7119],[23.3927,43.3812,238.383],[23.3958,43.3851,247.0041],[23.408,43.3927,215.2843],[23.4119,43.4026,186.5187],[23.4121,43.4073,200.7708],[23.4088,43.4186,175.3956],[23.4035,43.4235,150.9905],[23.3896,43.4293,138.2571],[23.3502,43.433,248.9781],[23.3419,43.4351,297.2771],[23.3169,43.4512,264.0764],[23.2964,43.4557,155.1556],[23.2829,43.4672,111.6256],[23.2767,43.4691,136.862],[23.2587,43.4684,136.8929],[23.2495,43.4728,174.8005],[23.2329,43.4743,157.5622],[23.2237,43.4814,200.3478],[23.227,43.486,208.6349],[23.2338,43.49,221.3812],[23.2462,43.4929,216.077],[23.2695,43.4916,196.7447],[23.2821,43.4968,191.3614],[23.2878,43.5014,146.8],[23.3085,43.5064,185.7464],[23.3137,43.5099,185.0898],[23.3235,43.519,157.3836],[23.3259,43.5256,121.0267],[23.327,43.5343,182.5986],[23.3244,43.5497,180.282],[23.3254,43.5558,178.1466],[23.3287,43.5608,177.1336],[23.3073,43.5617,176.6149],[23.2894,43.5667,169.2719],[23.2757,43.5661,167.54],[23.2588,43.5599,172.9312],[23.2411,43.551,184.4194],[23.2301,43.5488,187.8603],[23.2207,43.5513,180.2449],[23.2042,43.5639,154.4428],[23.1901,43.5677,170.9612],[23.1836,43.5709,173.327],[23.1757,43.5774,159.2711],[23.159,43.5735,180.9599],[23.1497,43.5592,186.8072],[23.1454,43.5574,190.2853],[23.1277,43.5566,200.6687],[23.1173,43.5599,206.107],[23.0767,43.5846,206.9167],[23.0542,43.5928,194.6392],[23.0345,43.5973,208.4806],[23.0308,43.5946,220.4273],[23.021,43.5918,225.606],[22.9995,43.5899,233.6405],[22.9881,43.585,235.9887],[22.9678,43.5823,248.0928],[22.9433,43.5679,239.9222],[22.9381,43.5665,254.6245],[22.927,43.5674,262.819],[22.9074,43.5759,274.2761],[22.8969,43.5709,281.5066],[22.8742,43.5497,273.8511],[22.8621,43.5296,521.0722],[22.8602,43.5193,547.3613],[22.8585,43.517,633.0155],[22.8466,43.5078,619.3984],[22.833,43.5004,688.3452],[22.8525,43.4958,787.8071],[22.8845,43.4967,650.4471],[22.8916,43.4954,660.6012],[22.8968,43.4903,678.8706],[22.9008,43.4784,775.2975],[22.9259,43.4787,774.9126],[22.9443,43.4718,665.7767],[22.9798,43.4676,813.4309],[22.9882,43.483,432.1563],[23.0124,43.5046,297.989],[23.0211,43.5078,276.0344],[23.028,43.508,259.4588],[23.0334,43.505,297.5175],[23.0471,43.4666,419.9786],[23.0534,43.4627,395.0723],[23.0708,43.4569,554.8917],[23.0953,43.4299,442.2661],[23.1102,43.424,358.8663],[23.1404,43.4197,446.6491],[23.1472,43.4174,440.3136],[23.1482,43.4141,368.8033],[23.1441,43.4072,260.4862],[23.1174,43.3873,215.7871],[23.1152,43.3764,270.8406],[23.1183,43.3723,225.5988],[23.129,43.3679,268.9878],[23.1534,43.3686,258.7779],[23.1667,43.3614,194.5383],[23.1746,43.3608,180.5],[23.1838,43.3563,181.7426],[23.2122,43.3476,235.353],[23.2454,43.3497,280.483],[23.2588,43.3472,276.1565],[23.2769,43.3499,236.7883],[23.2865,43.3489,211.6501],[23.2961,43.3421,193.8431],[23.304,43.3276,258.4554],[23.3298,43.3111,205.6753]]]]}
,"properties": {"GID_2": "BGR.10.8_1","GID_0": "BGR","country": "Bulgaria","GID_1": "BGR.10_1","state": "Montana","NL_NAME_1": "Монтана","county": "Montana","VARNAME_2": "NA","NL_NAME_2": "Монтана","TYPE_2": "City","ENGTYPE_2": "City","CC_2": "NA","HASC_2": "BG.MT.MO","name": "Montana.county","area_km2": 662.4031,"hist_schema_id": "Elevation0-9000","hist_area_km2": {"100": 0.0308,"125": 22.1185,"150": 28.9483,"175": 93.3478,"200": 104.68,"225": 126.0333,"250": 95.1357,"275": 49.8999,"300": 32.2571,"325": 20.4449,"350": 14.8467,"375": 11.3075,"400": 8.9698,"425": 7.4012,"450": 6.2938,"475": 5.3085,"500": 4.9698,"525": 4.2459,"550": 3.8303,"575": 2.9838,"600": 2.7377,"625": 3.0607,"650": 2.3071,"675": 1.9072,"700": 1.9073,"725": 1.6305,"750": 1.4458,"775": 1.4152,"800": 1.0768,"825": 0.7845,"850": 0.4461,"875": 0.3384,"900": 0.2461,"925": 0.0461}}}