{"type": "Feature","bbox": [23.8943,42.3354,24.329,42.6217],"geometry": {"type": "MultiPolygon","coordinates": [[[[24.2358,42.3354,366.8263],[24.2388,42.3385,365.0123],[24.2432,42.3529,404.663],[24.2478,42.3534,400.0905],[24.2528,42.3498,389.7179],[24.2601,42.3531,419.1666],[24.2722,42.3513,420.9388],[24.2795,42.3519,402.804],[24.2873,42.3556,388.0865],[24.301,42.3657,361.2547],[24.3117,42.3707,345.7396],[24.2841,42.3905,375.3892],[24.2759,42.4,429.2121],[24.2755,42.4063,416.3416],[24.281,42.414,334.2381],[24.2914,42.4168,370.764],[24.3089,42.4173,360.7208],[24.3154,42.4194,387.4066],[24.3205,42.4225,423.245],[24.3248,42.4289,487.5817],[24.3249,42.4341,449.6023],[24.3214,42.4382,450.472],[24.3108,42.4436,524.762],[24.2933,42.4488,508.8352],[24.2777,42.451,580.6079],[24.2687,42.4548,693.3296],[24.2658,42.4576,697.9919],[24.2646,42.4696,698.2895],[24.2518,42.4829,611.8317],[24.2528,42.4897,576.7952],[24.2609,42.5054,661.6449],[24.2606,42.515,679.3833],[24.2663,42.5332,758.9181],[24.2787,42.5485,822.767],[24.2936,42.5568,1084.5992],[24.3003,42.5577,1104.6924],[24.3282,42.5555,754.2485],[24.329,42.5579,785.5834],[24.3207,42.5683,1110.9476],[24.3069,42.5803,1287.0847],[24.3013,42.5944,1310.8435],[24.2962,42.6013,1211.165],[24.2899,42.6062,1221.9003],[24.2796,42.6117,1269.7034],[24.263,42.6104,1377.9509],[24.2537,42.6118,1371.3586],[24.229,42.6215,1377.6195],[24.2224,42.6217,1327.6062],[24.1651,42.6108,1209.7],[24.1422,42.6047,1328.2511],[24.1336,42.5963,1203.7693],[24.1317,42.5911,1080.4872],[24.1317,42.5758,1334.9929],[24.1282,42.5652,1204.0924],[24.1215,42.5611,1073.3669],[24.1125,42.5611,1007.933],[24.0904,42.5683,923.2849],[24.0725,42.5619,973.549],[24.0636,42.5556,930.9515],[24.0489,42.5404,758.8264],[24.0445,42.5392,774.5034],[24.0324,42.5395,704.1161],[24.0148,42.5486,629.8276],[23.9838,42.5696,476.1025],[23.9768,42.5714,547.7402],[23.9563,42.5645,741.0493],[23.9053,42.5578,1002.0148],[23.9008,42.5553,1032.2845],[23.8944,42.548,1152.4917],[23.8943,42.5408,1127.6591],[23.896,42.5372,1088.3397],[23.9104,42.5194,735.3755],[23.9144,42.4941,989.4833],[23.9166,42.4889,1004.4255],[23.9235,42.482,908.951],[23.9353,42.476,739.2844],[23.9689,42.451,619.245],[23.9845,42.4431,594.5668],[24.0073,42.4403,386.5072],[24.0223,42.4432,577.0622],[24.0323,42.448,662.9599],[24.0384,42.4531,659.1697],[24.0475,42.4564,657.0466],[24.0604,42.4562,852.7723],[24.0765,42.4505,726.1913],[24.0857,42.4457,880.8069],[24.0989,42.4332,894.2083],[24.1099,42.4285,890.6158],[24.1433,42.4196,721.6757],[24.1601,42.4102,746.8432],[24.171,42.3988,866.5597],[24.1803,42.3772,620.7674],[24.1906,42.3637,540.2213],[24.2278,42.3361,388.912],[24.2358,42.3354,366.8263]]]]}
,"properties": {"GID_2": "BGR.11.5_1","GID_0": "BGR","country": "Bulgaria","GID_1": "BGR.11_1","state": "Pazardzhik","NL_NAME_1": "Пазарджик","county": "Panagyurishte","VARNAME_2": "NA","NL_NAME_2": "Панагюрище","TYPE_2": "Obshtina","ENGTYPE_2": "Municipality","CC_2": "NA","HASC_2": "BG.PZ.PN","name": "Panagyurishte.county","area_km2": 565.1984,"hist_schema_id": "Elevation0-9000","hist_area_km2": {"325": 0.2191,"350": 3.1462,"375": 7.5128,"400": 14.9792,"425": 19.0297,"450": 21.9544,"475": 26.2089,"500": 23.3892,"525": 26.2921,"550": 29.34,"575": 31.9018,"600": 33.2278,"625": 35.054,"650": 34.6759,"675": 33.1583,"700": 28.9514,"725": 24.1816,"750": 18.8035,"775": 14.5184,"800": 15.281,"825": 12.0769,"850": 10.1234,"875": 9.2478,"900": 7.2631,"925": 5.4041,"950": 4.029,"975": 3.9351,"1000": 5.075,"1025": 4.0283,"1050": 5.3551,"1075": 5.1209,"1100": 5.5265,"1125": 5.339,"1150": 5.1673,"1175": 4.6674,"1200": 4.4488,"1225": 4.0741,"1250": 3.3404,"1275": 3.1687,"1300": 3.5589,"1325": 3.0436,"1350": 3.7769,"1375": 2.9183,"1400": 1.3109,"1425": 0.5151,"1450": 0.437,"1475": 0.2653,"1500": 0.1405,"1525": 0.0156}}}