{"type":"Feature","properties":{"GID_2":"BGR.24.9_1","GID_0":"BGR","country":"Bulgaria","GID_1":"BGR.24_1","state":"Varna","NL_NAME_1":"Варна","county":"Suvorovo","VARNAME_2":"NA","NL_NAME_2":"NA","TYPE_2":"Obshtina","ENGTYPE_2":"Municipality","CC_2":"NA","HASC_2":"BG.VN.SU","name":"Suvorovo.county"},
"geometry":{"type": "MultiPolygon","coordinates": [[[[27.6417,43.4098,265.7324],[27.6306,43.4004,292.6728],[27.6139,43.394,276.5946],[27.5988,43.3941,313.3347],[27.5824,43.3975,319.9115],[27.5751,43.3968,305.8168],[27.5675,43.392,269.36],[27.5575,43.3893,263.3233],[27.5514,43.3805,253.0024],[27.5369,43.3732,229.8785],[27.5277,43.354,216.9432],[27.5205,43.3473,216.6062],[27.5196,43.3411,219.9438],[27.5237,43.3313,196.2138],[27.5327,43.3251,182.9104],[27.5382,43.3151,172.8218],[27.5481,43.3043,172.958],[27.5475,43.2952,186.4394],[27.5526,43.2883,188.1711],[27.584,43.2802,156.7156],[27.5913,43.2794,101.2438],[27.6005,43.2808,123.2122],[27.6094,43.2844,154.0596],[27.6126,43.2835,196.0104],[27.6207,43.2783,214.1095],[27.6488,43.2504,216.7839],[27.6683,43.2531,269.3031],[27.6749,43.2595,311.2143],[27.6805,43.271,351.6423],[27.6837,43.2733,355.5214],[27.7118,43.2721,340.6124],[27.7282,43.2692,198.3748],[27.741,43.2715,185.966],[27.7436,43.2737,234.4343],[27.7466,43.2805,330.4034],[27.7308,43.3062,329.381],[27.7115,43.319,292.7806],[27.705,43.3292,336.7485],[27.6918,43.3438,312.06],[27.6904,43.3473,297.7484],[27.6913,43.352,283.0024],[27.6965,43.3575,326.335],[27.6985,43.3628,323.9097],[27.6868,43.3812,267.0657],[27.6832,43.3833,285.6409],[27.6694,43.3836,326.8459],[27.6566,43.3905,312.7862],[27.6446,43.401,304.6895],[27.6422,43.4045,299.3361],[27.6417,43.4098,265.7324]]]]}}