{"type":"Feature","properties":{"GID_2":"BGR.19.4_1","GID_0":"BGR","country":"Bulgaria","GID_1":"BGR.19_1","state":"Sliven","NL_NAME_1":"Сливен","county":"Tvarditsa","VARNAME_2":"NA","NL_NAME_2":"Твърдица","TYPE_2":"Obshtina","ENGTYPE_2":"Municipality","CC_2":"NA","HASC_2":"BG.SL.TV","name":"Tvarditsa.county"},
"geometry":{"type": "MultiPolygon","coordinates": [[[[26.0958,42.6071,278.4069],[26.093,42.6149,337.5954],[26.0873,42.6224,263.8107],[26.0854,42.6363,192.6897],[26.0898,42.6469,196.9638],[26.0908,42.6617,260.7697],[26.0971,42.6769,397.3106],[26.1125,42.6967,697.7885],[26.1179,42.7094,741.6013],[26.1261,42.7158,480.5157],[26.1295,42.7161,598.9572],[26.143,42.7039,940.9489],[26.1471,42.7038,1028.9498],[26.1549,42.7071,896.3805],[26.1579,42.729,583.181],[26.165,42.7404,472.0363],[26.1614,42.7465,506.1626],[26.1568,42.7505,505.8043],[26.1565,42.7586,563.2626],[26.16,42.7713,816.4534],[26.1583,42.7741,880.9279],[26.1475,42.7694,628.5319],[26.1428,42.7694,676.2623],[26.1398,42.7706,612.8871],[26.1361,42.776,678.3318],[26.1356,42.7888,791.3763],[26.1373,42.797,989.8879],[26.1334,42.8055,919.0315],[26.1376,42.8169,1096.9469],[26.1383,42.8279,773.9892],[26.1346,42.8306,755.1121],[26.1302,42.8334,845.6914],[26.1248,42.8343,786.2787],[26.0773,42.8357,743.4694],[26.0668,42.8384,772.7214],[26.0594,42.8342,966.5766],[26.0405,42.8285,821.1116],[26.028199999999998,42.8177,929.4377],[26.013,42.8094,954.1056],[26.0075,42.8017,1092.2732],[25.996,42.7904,1085.184],[25.9881,42.7876,1168.3645],[25.9759,42.7883,1385.2836],[25.9635,42.7862,1380.8483],[25.9256,42.7775,1063.4329],[25.9084,42.7701,1029.5675],[25.889,42.7702,1031.2263],[25.8451,42.7835,1005.0449],[25.8413,42.7789,1169.9082],[25.8389,42.7674,1036.2194],[25.8396,42.7587,1189.708],[25.8479,42.7341,926.6045],[25.8546,42.704,645.4026],[25.8564,42.6991,469.2669],[25.8649,42.6908,359.0942],[25.8741,42.6769,317.6127],[25.879,42.6559,283.7109],[25.8818,42.6241,333.7653],[25.8869,42.6121,359.8544],[25.8988,42.5964,266.0639],[25.9133,42.5891,321.8833],[25.9205,42.6031,280.6938],[25.9299,42.6121,370.5097],[25.9457,42.6142,495.8326],[25.9679,42.6124,332.9522],[25.9759,42.6153,358.1255],[25.9969,42.6285,340.7955],[26.0073,42.6325,323.2344],[26.019,42.6293,357.5438],[26.0203,42.6266,340.8769],[26.0202,42.6159,245.2098],[26.0143,42.5929,317.6335],[26.0141,42.5897,330.8817],[26.0165,42.5873,328.0011],[26.0232,42.5878,391.5958],[26.0303,42.5906,415.5425],[26.0486,42.6021,303.5966],[26.0545,42.604,313.962],[26.0607,42.603,327.8687],[26.0692,42.5969,338.1866],[26.0736,42.5963,353.696],[26.0861,42.6001,375.0602],[26.0958,42.6071,278.4069]]]]}}