{"type":"Feature","properties":{"GID_2":"BGR.17.10_1","GID_0":"BGR","country":"Bulgaria","GID_1":"BGR.17_1","state":"Shumen","NL_NAME_1":"Шумен","county":"Venets","VARNAME_2":"NA","NL_NAME_2":"NA","TYPE_2":"Obshtina","ENGTYPE_2":"Municipality","CC_2":"NA","HASC_2":"BG.SH.VE","name":"Venets.county"},
"geometry":{"type": "MultiPolygon","coordinates": [[[[26.8367,43.5101,489.2366],[26.8426,43.5062,454.2702],[26.8572,43.4901,408.7103],[26.8631,43.4869,433.7],[26.8862,43.4804,401.6395],[26.9214,43.4608,353.2252],[26.9342,43.4598,352.3541],[26.9382,43.4613,372.6101],[26.9433,43.4686,392.9358],[26.9424,43.4877,474.4818],[26.9465,43.4927,430.1476],[26.9651,43.5003,361.7791],[26.9731,43.5105,405.0694],[26.9765,43.5124,440.282],[26.9903,43.5143,369.0391],[27.0112,43.5126,410.7678],[27.02,43.5149,416.4245],[27.0278,43.5258,385.8996],[27.0361,43.5311,334.8344],[27.0425,43.5327,311.8014],[27.0337,43.5377,341.9921],[27.0304,43.5424,324.3219],[27.0344,43.5511,312.1756],[27.0334,43.5562,320.4328],[27.028,43.5639,277.5738],[27.0277,43.57,278.8068],[27.0305,43.5835,325.0005],[27.0387,43.5976,339.027],[27.0426,43.6102,303.3487],[27.0419,43.6147,307.2924],[27.034,43.6217,259.2793],[26.9948,43.6213,318.9108],[26.9804,43.623,308.638],[26.9715,43.6263,324.1478],[26.964,43.6169,322.1374],[26.9549,43.6123,342.5116],[26.9482,43.611,344.9585],[26.9328,43.6132,300.6949],[26.9093,43.6222,288.9318],[26.8978,43.6229,304.1946],[26.8911,43.6211,299.5699],[26.8863,43.6155,311.2005],[26.8824,43.597,364.9541],[26.8751,43.5895,371.6795],[26.8598,43.5801,349.5293],[26.8356,43.5721,332.8669],[26.8275,43.5678,343.3507],[26.8084,43.5526,353.2543],[26.808,43.542,360.4957],[26.8104,43.5378,385.4047],[26.8139,43.5355,394.0986],[26.8289,43.5341,404.1702],[26.8324,43.5321,411.6131],[26.8356,43.5254,411.4962],[26.8367,43.5101,489.2366]]]]}}