{"type": "Feature","bbox": [25.0817,41.8317,25.3763,42.1637],"geometry": {"type": "MultiPolygon","coordinates": [[[[25.3763,42.0936,113.7621],[25.3727,42.0984,110.9292],[25.3602,42.1047,110.2706],[25.3535,42.1205,127.867],[25.3495,42.1242,130.5755],[25.3274,42.1369,122.4651],[25.3189,42.1438,136.4499],[25.3048,42.1637,145.3511],[25.2899,42.1613,157.6797],[25.2648,42.1494,167.3359],[25.2532,42.1491,139.9465],[25.2337,42.1517,154.8957],[25.2222,42.1498,133.1467],[25.2064,42.1499,131.6412],[25.1975,42.1423,125.4191],[25.1759,42.1343,124.6425],[25.1712,42.1307,131.0424],[25.147,42.0962,180.1041],[25.14,42.0913,186.6573],[25.1309,42.089,188.295],[25.1228,42.0824,189.8084],[25.125,42.0767,196.5303],[25.1343,42.071,185.1623],[25.1441,42.0621,171.7101],[25.1455,42.056399999999996,173.8238],[25.1419,42.0504,176.483],[25.1282,42.0434,184.7836],[25.104,42.0387,198.3354],[25.0981,42.035,201.3675],[25.0953,42.0291,204.3435],[25.0967,42.0174,205.4021],[25.1145,41.9967,219.6993],[25.1282,41.9865,249.7058],[25.1393,41.9755,283.1362],[25.1419,41.9704,285.1802],[25.1415,41.9655,287.0302],[25.1391,41.9625,293.7356],[25.1247,41.957,304.2817],[25.1206,41.9505,364.6101],[25.1184,41.9495,356.6116],[25.0916,41.949,292.1393],[25.0847,41.9472,279.4842],[25.0817,41.9437,318.1251],[25.0852,41.9311,354.0782],[25.0833,41.9183,358.6067],[25.0908,41.9159,361.1602],[25.1122,41.9144,340.4716],[25.1247,41.9085,337.9864],[25.1473,41.9093,359.1813],[25.153199999999998,41.8913,424.3745],[25.1601,41.8782,625.9541],[25.1616,41.8715,794.004],[25.1596,41.8475,836.9299],[25.1605,41.8427,953.4421],[25.1701,41.8317,845.0314],[25.1755,41.8338,847.0334],[25.1914,41.8457,749.1647],[25.2033,41.8602,648.7758],[25.2188,41.8722,559.1812],[25.2409,41.8797,670.5489],[25.2635,41.8903,480.321],[25.2749,41.8919,501.204],[25.2926,41.9013,757.14],[25.3286,41.9284,414.699],[25.3453,41.946,279.1481],[25.3497,41.9659,249.6746],[25.3447,41.9981,262.4786],[25.3409,42.0088,262.1664],[25.3329,42.0166,222.8586],[25.3326,42.0229,183.0102],[25.3464,42.05,133.0563],[25.3596,42.0664,121.9148],[25.3763,42.0936,113.7621]]]]}
,"properties": {"GID_2": "BGR.14.9_1","GID_0": "BGR","country": "Bulgaria","GID_1": "BGR.14_1","state": "Plovdiv","NL_NAME_1": "Пловдив","county": "Parvomay","VARNAME_2": "NA","NL_NAME_2": "NA","TYPE_2": "Obshtina","ENGTYPE_2": "Municipality","CC_2": "NA","HASC_2": "BG.PD.PA","name": "Parvomay.county","area_km2": 532.9078,"hist_schema_id": "Elevation0-9000","hist_area_km2": {"100": 5.8357,"125": 97.3673,"150": 64.1539,"175": 43.5318,"200": 44.9794,"225": 36.8143,"250": 25.3376,"275": 22.1127,"300": 23.7903,"325": 22.4871,"350": 17.033,"375": 14.0838,"400": 13.3114,"425": 13.201599999999999,"450": 12.1929,"475": 10.6792,"500": 9.5123,"525": 8.2193,"550": 6.7686,"575": 5.7122,"600": 5.0339,"625": 4.8449,"650": 4.7663,"675": 4.3088,"700": 4.4671,"725": 4.1204,"750": 3.3313,"775": 1.9894,"800": 1.2788,"825": 0.8054,"850": 0.458,"875": 0.1738,"900": 0.0948,"925": 0.0316,"950": 0.0632,"975": 0.0158}}}