{"type":"Feature","properties":{"GID_2":"BGR.26.3_1","GID_0":"BGR","country":"Bulgaria","GID_1":"BGR.26_1","state":"Vidin","NL_NAME_1":"Видин","county":"Bregovo","VARNAME_2":"NA","NL_NAME_2":"Брегово","TYPE_2":"Obshtina","ENGTYPE_2":"Municipality","CC_2":"NA","HASC_2":"BG.VD.BR","name":"Bregovo.county"},
"geometry":{"type": "MultiPolygon","coordinates": [[[[22.6253,44.0314,143.925],[22.6442,44.0387,242.5711],[22.6614,44.0419,148.7649],[22.6946,44.0424,127.3167],[22.7077,44.0483,198.3819],[22.7244,44.0593,136.1766],[22.7549,44.0615,140.8879],[22.7603,44.0584,143.9227],[22.7643,44.0529,177.4075],[22.7699,44.0516,170.7199],[22.802,44.0579,67.6995],[22.8036,44.0644,94.3949],[22.8028,44.0667,106.8892],[22.7975,44.0746,152.741],[22.7885,44.0835,181.8687],[22.7953,44.1013,199.9425],[22.7927,44.1147,130.6529],[22.7961,44.1205,124.4993],[22.7938,44.1241,120.4344],[22.7882,44.1245,117.7267],[22.7807,44.1224,117.1792],[22.7522,44.1081,106.9122],[22.7457,44.1086,103.7224],[22.7417,44.1161,105.9627],[22.7456,44.1408,58.3952],[22.7374,44.1509,46.6452],[22.7353,44.159,52.9224],[22.7386,44.1683,56.9574],[22.7422,44.173,44.8484],[22.7627,44.1869,28.0],[22.7641,44.1881,28.0],[22.7625,44.1896,28.0],[22.7498,44.1985,28.5],[22.7321,44.2021,28.5],[22.696,44.2048,29.0],[22.6851,44.2099,29.0],[22.6858,44.2078,29.0],[22.6844,44.2078,29.0],[22.6809,44.2127,29.0],[22.6731,44.208,34.0379],[22.6726,44.205,33.9345],[22.6705,44.2038,34.2238],[22.6685,44.2036,33.7637],[22.6674,44.2057,35.0051],[22.6625,44.2081,35.1301],[22.6605,44.2078,39.9873],[22.66,44.2063,37.8416],[22.6631,44.203,36.2019],[22.66,44.1968,33.915],[22.6555,44.1912,40.76],[22.6519,44.1908,33.773],[22.6497,44.1888,41.0993],[22.6508,44.1872,47.1357],[22.6556,44.1863,51.4892],[22.6558,44.1839,51.273],[22.6496,44.1796,51.6016],[22.6449,44.1823,55.0386],[22.6406,44.1813,54.9689],[22.6474,44.1759,49.9511],[22.6462,44.1724,44.1593],[22.6386,44.1717,39.2369],[22.6385,44.1691,40.5377],[22.6352,44.1674,39.3035],[22.6322,44.1705,39.4844],[22.6291,44.1704,40.3632],[22.6259,44.1676,40.721],[22.6252,44.1631,42.048],[22.6215,44.1623,44.1036],[22.6249,44.1578,44.6187],[22.631,44.1593,46.5162],[22.6313,44.1554,43.4225],[22.6365,44.1551,48.6602],[22.6365,44.153,48.4166],[22.6335,44.1476,44.425],[22.634,44.1438,43.7605],[22.6281,44.142,44.2766],[22.6225,44.1333,44.8457],[22.6115,44.1012,129.7282],[22.6133,44.0966,126.5848],[22.6202,44.0922,151.8854],[22.6188,44.0779,221.823],[22.6137,44.0728,230.5393],[22.6155,44.0698,247.0119],[22.6223,44.0669,242.9877],[22.6166,44.0632,243.7902],[22.6177,44.0572,210.9438],[22.6046,44.0557,230.5814],[22.6147,44.0393,233.9699],[22.6253,44.0314,143.925]]]]}}