{"type": "Feature","bbox": [24.0146,41.883,24.2123,42.1282],"geometry": {"type": "MultiPolygon","coordinates": [[[[24.2019,42.0124,1103.0],[24.2123,42.0316,1255.6116],[24.2036,42.0405,1047.636],[24.1819,42.0565,1234.2791],[24.1732,42.0735,1390.5558],[24.1696,42.0785,1416.6422],[24.1599,42.0859,1355.2727],[24.1541,42.0977,1440.8198],[24.1203,42.1083,916.8744],[24.0872,42.1282,1336.8075],[24.0846,42.1195,1256.1874],[24.0842,42.1017,747.2497],[24.0794,42.0962,554.186],[24.0673,42.0878,563.8356],[24.0694,42.0766,728.8123],[24.0643,42.0667,644.7538],[24.072,42.0464,780.7145],[24.0738,42.0372,816.3362],[24.0711,42.0248,748.1479],[24.0735,42.0217,748.4463],[24.0863,42.0134,757.0774],[24.0866,42.0101,759.8358],[24.0656,42.0003,957.5709],[24.0578,41.9863,1041.4894],[24.0474,41.9766,1177.8228],[24.0352,41.9595,1172.8094],[24.0183,41.9468,1204.4507],[24.0151,41.9423,1304.5165],[24.0146,41.9335,1428.231],[24.0214,41.9166,1687.2985],[24.021,41.909,1920.0126],[24.019,41.9032,2095.8958],[24.0281,41.8833,2032.0686],[24.0392,41.8863,2016.0088],[24.0685,41.883,1706.2219],[24.0775,41.8838,1649.0471],[24.0845,41.8887,1627.3154],[24.0938,41.9078,1716.0135],[24.0966,41.9102,1736.7152],[24.1074,41.9119,1800.9795],[24.1295,41.9088,1778.1301],[24.141,41.9148,1660.8905],[24.1516,41.9326,1318.8865],[24.1625,41.9631,1103.0],[24.1797,41.9797,1106.9791],[24.1846,41.9872,1103.0],[24.1888,42.0008,1120.0496],[24.2019,42.0124,1103.0]]]]}
,"properties": {"GID_2": "BGR.11.8_1","GID_0": "BGR","country": "Bulgaria","GID_1": "BGR.11_1","state": "Pazardzhik","NL_NAME_1": "Пазарджик","county": "Rakitovo","VARNAME_2": "NA","NL_NAME_2": "Ракитово","TYPE_2": "Obshtina","ENGTYPE_2": "Municipality","CC_2": "NA","HASC_2": "BG.PZ.RA","name": "Rakitovo.county","area_km2": 233.52,"hist_schema_id": "Elevation0-9000","hist_area_km2": {"450": 0.0944,"475": 0.2045,"500": 0.2832,"525": 0.5349,"550": 0.4405,"575": 0.5978,"600": 0.5821,"625": 0.7709,"650": 1.0384,"675": 1.2273,"700": 1.6208,"725": 1.4949,"750": 4.6767,"775": 8.4418,"800": 7.6224,"825": 7.7639,"850": 7.638,"875": 7.6853,"900": 8.2043,"925": 8.0,"950": 7.7794,"975": 6.8191,"1000": 6.6618,"1025": 6.3316,"1050": 6.3315,"1075": 6.0013,"1100": 13.4876,"1125": 9.2331,"1150": 8.1778,"1175": 7.9577,"1200": 7.5798,"1225": 6.997,"1250": 6.005,"1275": 5.6111,"1300": 4.7287,"1325": 4.5402,"1350": 3.5789,"1375": 2.3965,"1400": 2.3814,"1425": 2.6181,"1450": 2.5079,"1475": 2.3502,"1500": 2.0822,"1525": 2.3504,"1550": 2.2559,"1575": 2.0982,"1600": 2.3034,"1625": 2.3352,"1650": 2.935,"1675": 2.6824,"1700": 2.1775,"1725": 1.783,"1750": 1.8619,"1775": 1.7199,"1800": 1.5463,"1825": 1.1834,"1850": 1.0256,"1875": 0.5996,"1900": 0.505,"1925": 0.3314,"1950": 0.3314,"1975": 0.3788,"2000": 0.2683,"2025": 0.2841,"2050": 0.3472,"2075": 0.3472,"2100": 0.3788,"2125": 0.2052,"2150": 0.1736,"2175": 0.0316}}}