{"type":"Feature","properties":{"GID_2":"BGR.17.3_1","GID_0":"BGR","country":"Bulgaria","GID_1":"BGR.17_1","state":"Shumen","NL_NAME_1":"Шумен","county":"Kaspichan","VARNAME_2":"NA","NL_NAME_2":"Каспичан","TYPE_2":"Obshtina","ENGTYPE_2":"Municipality","CC_2":"NA","HASC_2":"BG.SH.KS","name":"Kaspichan.county"},
"geometry":{"type": "MultiPolygon","coordinates": [[[[27.0399,43.4104,249.4263],[27.0573,43.3872,246.4601],[27.0669,43.3807,206.9848],[27.0824,43.3773,193.2661],[27.1144,43.3787,174.2732],[27.1234,43.3744,157.6633],[27.1402,43.3473,176.7921],[27.141,43.3397,151.9217],[27.1377,43.3336,136.2702],[27.1307,43.3296,137.6299],[27.0872,43.3195,136.5389],[27.0802,43.3135,150.3309],[27.077,43.3066,179.5225],[27.0715,43.3026,189.9098],[27.0644,43.3001,180.6968],[27.0646,43.2959,181.388],[27.0767,43.2867,166.163],[27.0698,43.2692,156.4949],[27.0708,43.2635,161.1543],[27.0757,43.2594,159.92],[27.0897,43.2559,176.4053],[27.1088,43.2552,182.7171],[27.1405,43.2489,380.7988],[27.1563,43.2368,352.8036],[27.1764,43.2285,320.0626],[27.1911,43.2131,324.1153],[27.1985,43.2078,319.865],[27.215,43.1985,290.9952],[27.2289,43.1936,223.5786],[27.2477,43.1801,163.1745],[27.2682,43.1953,230.3881],[27.287,43.2059,250.4594],[27.3133,43.2081,252.6444],[27.3191,43.2114,283.9556],[27.3197,43.2157,285.7021],[27.3175,43.218,296.1721],[27.299,43.231,219.5709],[27.2932,43.2494,64.3031],[27.29,43.2734,150.3011],[27.2698,43.2976,144.7141],[27.2686,43.3063,113.1101],[27.27,43.3108,119.2359],[27.2771,43.3159,139.1925],[27.2778,43.3303,167.8709],[27.2764,43.3323,196.6197],[27.2709,43.3338,213.5871],[27.2657,43.3322,168.7419],[27.2581,43.3253,155.5683],[27.2485,43.3233,174.9632],[27.2434,43.3248,171.3664],[27.2363,43.3297,121.94],[27.2303,43.338,132.6897],[27.215699999999998,43.3478,160.8463],[27.1829,43.3577,146.2649],[27.1761,43.3629,147.5133],[27.1721,43.37,154.6984],[27.1725,43.3832,173.2853],[27.1756,43.3902,150.8526],[27.1754,43.3964,169.3086],[27.1619,43.4059,207.2534],[27.1371,43.4316,264.3495],[27.1334,43.4322,255.4849],[27.1191,43.4291,321.3655],[27.1127,43.4319,326.8647],[27.1045,43.4398,333.1192],[27.1009,43.4413,345.4977],[27.075,43.441,433.923],[27.0708,43.4337,324.6999],[27.0625,43.4244,280.2034],[27.0515,43.4157,249.5984],[27.0399,43.4104,249.4263]]]]}}