{"type": "Feature","bbox": [22.4165,42.4335,22.708,42.6285],"geometry": {"type": "MultiPolygon","coordinates": [[[[22.7047,42.4707,1002.2063],[22.708,42.4867,1090.2434],[22.7077,42.4953,1023.3542],[22.7059,42.5022,1172.5857],[22.7011,42.5083,1169.5352],[22.6703,42.5195,985.5633],[22.662,42.5241,786.7776],[22.653199999999998,42.5348,936.9936],[22.6466,42.5507,1088.5813],[22.642,42.5559,979.5494],[22.6155,42.5633,1031.3981],[22.6079,42.5681,1004.4886],[22.605,42.5757,928.5235],[22.6065,42.5876,1034.7],[22.6053,42.6054,997.6091],[22.6022,42.6159,1139.09],[22.5976,42.6207,1149.7559],[22.5925,42.6232,1094.0155],[22.5799,42.6233,1066.0166],[22.526,42.614,1048.5073],[22.5094,42.6156,1199.5984],[22.4636,42.6285,1592.3242],[22.4467,42.627,1513.4126],[22.4436,42.6192,1439.5762],[22.4368,42.6194,1359.9116],[22.4386,42.6143,1443.882],[22.4364,42.6092,1361.4044],[22.43,42.602,1208.5377],[22.4271,42.5886,1294.4985],[22.4279,42.5867,1270.9041],[22.419,42.5819,1275.5076],[22.4165,42.5606,1560.3679],[22.4292,42.56,1647.3542],[22.4465,42.5522,1457.5618],[22.4602,42.5385,1213.5118],[22.4682,42.5351,1091.4189],[22.4785,42.5238,920.0258],[22.4883,42.518,939.3296],[22.4945,42.5108,857.3483],[22.5022,42.5084,921.2543],[22.5124,42.4999,941.3032],[22.5261,42.493,921.6354],[22.5337,42.4854,970.9218],[22.5311,42.4799,946.1395],[22.532,42.4767,1007.422],[22.5627,42.4706,937.2631],[22.5785,42.4757,898.0951],[22.5829,42.473,873.4869],[22.5847,42.4659,839.2147],[22.5825,42.4544,827.6229],[22.5845,42.4473,807.5661],[22.5882,42.442,729.4709],[22.596,42.4397,745.1277],[22.6104,42.4439,961.7383],[22.6167,42.4436,1014.8853],[22.6219,42.4415,998.5664],[22.6328,42.4335,958.8788],[22.6492,42.4379,1135.796],[22.6652,42.4393,808.3291],[22.6763,42.4437,914.6606],[22.6862,42.4521,1069.1624],[22.6915,42.4638,1208.1532],[22.6955,42.4689,1225.6638],[22.7047,42.4707,1002.2063]]]]}
,"properties": {"GID_2": "BGR.8.9_1","GID_0": "BGR","country": "Bulgaria","GID_1": "BGR.8_1","state": "Kyustendil","NL_NAME_1": "Кюстендил","county": "Treklyano","VARNAME_2": "NA","NL_NAME_2": "NA","TYPE_2": "Obshtina","ENGTYPE_2": "Municipality","CC_2": "NA","HASC_2": "BG.KY.TR","name": "Treklyano.county","area_km2": 280.0552,"hist_schema_id": "Elevation0-9000","hist_area_km2": {"700": 0.4844,"725": 1.5781,"750": 2.9526,"775": 4.5924,"800": 5.5927,"825": 7.1549,"850": 8.749,"875": 9.8423,"900": 12.5308,"925": 17.4078,"950": 21.1589,"975": 21.5653,"1000": 20.221,"1025": 17.4389,"1050": 16.5004,"1075": 13.9374,"1100": 13.5774,"1125": 11.327,"1150": 9.452,"1175": 8.4991,"1200": 6.8111,"1225": 5.2017,"1250": 4.4669,"1275": 3.7638,"1300": 3.4507,"1325": 2.982,"1350": 2.8412,"1375": 2.9972,"1400": 2.8567,"1425": 2.9036,"1450": 2.7473,"1475": 2.2635,"1500": 2.2166,"1525": 1.9668,"1550": 1.5298,"1575": 1.6077,"1600": 1.7638,"1625": 1.2956,"1650": 0.9835,"1675": 0.4685,"1700": 0.2811,"1725": 0.0937}}}