{"type": "Feature","id": "2243","bbox": [23.0595,42.41695,23.6544,42.898],"geometry": {"type": "Polygon","coordinates": [[[23.40057,42.84777,888.8162],[23.35189,42.85785,578.2074],[23.30217,42.88224,860.0573],[23.28957,42.89351,907.5522],[23.27365,42.898,912.9072],[23.24967,42.86281,832.8147],[23.24895,42.81721,534.4156],[23.19975,42.78739,548.575],[23.21215,42.76915,544.3029],[23.20998,42.74938,558.7081],[23.195,42.73589,590.4125],[23.17722,42.72894,627.2007],[23.15345,42.7315,652.1672],[23.13237,42.74215,671.6741],[23.09061,42.73884,842.7323],[23.0595,42.70987,953.4201],[23.08586,42.69688,812.3722],[23.10932,42.67941,946.2136],[23.12679,42.66887,1096.8456],[23.14756,42.66114,944.4756],[23.1581,42.64443,1191.9368],[23.16513,42.62554,894.3868],[23.16968,42.5905,883.0222],[23.20079,42.58154,1345.8816],[23.26001,42.54813,1843.7917],[23.27851,42.53229,1997.0658],[23.36026,42.49984,1186.2657],[23.39633,42.47922,1107.4258],[23.43209,42.47265,1223.5978],[23.45669,42.50133,1166.2581],[23.4757,42.53043,1103.4497],[23.51632,42.52428,866.2545],[23.51674,42.51219,876.8605],[23.52325,42.49477,979.8528],[23.5434,42.46749,966.0285],[23.53203,42.43426,833.3514],[23.5588,42.4208,944.2903],[23.60097,42.42604,899.139],[23.6296,42.41695,878.7729],[23.6544,42.43586,892.5797],[23.64427,42.46929,961.355],[23.61275,42.491459999999996,975.814],[23.56025,42.56009,1128.0447],[23.51798,42.63595,543.7529],[23.50278,42.65791,535.9062],[23.52128,42.71905,560.0953],[23.57565,42.80653,996.132],[23.59632,42.83485,1017.718],[23.60851,42.86105,1092.282],[23.57296,42.84294,864.1737],[23.53555,42.84465,892.9539],[23.49617,42.87072,816.6262],[23.45038,42.86348,947.7875],[23.40057,42.84777,888.8162]]]}
,"properties": {"ISO3166-1-Alpha-3": "BGR","country": "Bulgaria","fill": "#F0F","name": "Grad Sofiya","area_km2": 1242.2295,"hist_schema_id": "Elevation0-9000","hist_area_km2": {"500": 31.8695,"525": 202.9752,"550": 120.8814,"575": 72.6645,"600": 63.148,"625": 44.9464,"650": 32.824,"675": 31.0175,"700": 30.5231,"725": 27.7646,"750": 26.0363,"775": 24.5712,"800": 52.4243,"825": 33.9231,"850": 38.1452,"875": 36.6753,"900": 34.5335,"925": 32.8194,"950": 30.3191,"975": 28.0855,"1000": 22.3527,"1025": 19.2647,"1050": 15.4438,"1075": 14.1821,"1100": 13.7523,"1125": 13.5379,"1150": 12.5414,"1175": 12.4953,"1200": 11.6532,"1225": 8.1393,"1250": 5.232,"1275": 3.8101,"1300": 3.294,"1325": 2.6695,"1350": 2.9034,"1375": 2.6692,"1400": 2.888,"1425": 2.7473,"1450": 2.5912,"1475": 2.9348,"1500": 2.5758,"1525": 2.9035,"1550": 2.6382,"1575": 2.8882,"1600": 2.5602,"1625": 2.7945,"1650": 2.4042,"1675": 2.3887,"1700": 2.5136,"1725": 2.2951,"1750": 2.3732,"1775": 3.3409,"1800": 4.3087,"1825": 3.6376,"1850": 2.7479,"1875": 2.4672,"1900": 2.1861,"1925": 2.5139,"1950": 2.7014,"1975": 2.6703,"2000": 2.4362,"2025": 2.0614,"2050": 1.6711,"2075": 1.5775,"2100": 1.7338,"2125": 1.6088,"2150": 1.437,"2175": 1.3588,"2200": 0.8277,"2225": 0.6403,"2250": 0.5466,"2275": 0.1718}}}