{"type": "Feature","bbox": [23.0388,42.4112,23.6514,42.8787],"geometry": {"type": "MultiPolygon","coordinates": [[[[23.0388,42.7229,870.2366],[23.0394,42.7184,872.9974],[23.0485,42.7114,952.4329],[23.0877,42.6979,796.3932],[23.0998,42.6917,808.0978],[23.1073,42.6834,917.95],[23.1118,42.6733,1125.3789],[23.1123,42.6673,1135.0685],[23.1198,42.6603,1003.6447],[23.1338,42.6577,895.3535],[23.1482,42.6573,967.1007],[23.1603,42.6543,1071.1353],[23.1733,42.644,1140.1484],[23.1761,42.6379,967.4038],[23.1815,42.6088,979.266],[23.1823,42.5948,1107.8868],[23.179,42.592,1127.8956],[23.1614,42.5852,774.3845],[23.1592,42.5816,802.314],[23.1621,42.5786,848.2133],[23.1698,42.5769,831.7104],[23.2008,42.5777,1330.6241],[23.2179,42.5741,1614.2344],[23.227,42.5661,1729.9662],[23.2346,42.5544,1541.4543],[23.239,42.5504,1442.7076],[23.2393,42.5475,1470.0168],[23.2448,42.5419,1574.8124],[23.2481,42.5401,1567.4897],[23.2699,42.5391,1681.1117],[23.275,42.5375,1871.387],[23.2821,42.5166,1553.5419],[23.2894,42.5124,1565.9906],[23.3294,42.5019,1321.8469],[23.3423,42.4868,1191.4825],[23.3505,42.4835,1123.7104],[23.3686,42.4687,1161.9027],[23.3978,42.4553,1298.2826],[23.4136,42.4441,1115.0754],[23.4211,42.4415,1154.4473],[23.4363,42.442,1161.921],[23.4479,42.4501,1201.9751],[23.4508,42.456,1197.7114],[23.4506,42.4609,1215.426],[23.4447,42.4693,1197.8401],[23.4418,42.4773,1134.0917],[23.4439,42.4938,1133.7168],[23.4488,42.502,1128.1522],[23.4568,42.5052,1179.9125],[23.4744,42.5023,1167.2869],[23.4813,42.503,1203.8218],[23.4943,42.5077,1112.6691],[23.5026,42.5036,947.2123],[23.5093,42.4904,1080.6874],[23.5224,42.4774,1079.1592],[23.5261,42.4692,1068.392],[23.5245,42.4466,911.915],[23.5212,42.44,915.3752],[23.518,42.4228,918.9144],[23.5196,42.4169,943.504],[23.5251,42.4128,884.1827],[23.5328,42.4123,842.512],[23.5489,42.4162,893.8352],[23.5849,42.4112,912.1616],[23.6125,42.416,836.8975],[23.6351,42.4168,917.7816],[23.6422,42.4226,1005.8691],[23.6372,42.4392,821.5584],[23.6319,42.447,815.6428],[23.624,42.4663,826.4197],[23.6022,42.4909,919.834],[23.6034,42.4955,928.2311],[23.6108,42.5051,1005.8522],[23.611,42.509,985.7098],[23.5822,42.5084,989.3003],[23.5723,42.513,968.5021],[23.5468,42.5321,838.0354],[23.5466,42.5393,975.3857],[23.5548,42.5472,978.0731],[23.559,42.5552,1035.2677],[23.5567,42.5662,1038.3027],[23.5568,42.5782,1048.1611],[23.5623,42.6047,654.6125],[23.5618,42.6107,618.9082],[23.5579,42.618,576.3461],[23.5535,42.6213,562.6255],[23.5441,42.6212,578.6225],[23.52,42.6261,566.5059],[23.5155,42.6297,553.8245],[23.5148,42.6353,546.4072],[23.5152,42.6399,542.5073],[23.5187,42.6462,538.7557],[23.5213,42.6619,533.4052],[23.5237,42.6652,534.2673],[23.5522,42.6719,533.8072],[23.5609,42.6754,535.1161],[23.5741,42.6936,550.2007],[23.5775,42.6961,555.7115],[23.5873,42.6991,561.5562],[23.6102,42.702,576.5212],[23.6226,42.7088,589.0055],[23.6267,42.7169,606.0966],[23.6295,42.7427,632.7609],[23.64,42.7577,746.0643],[23.6436,42.7656,792.5984],[23.6436,42.7805,1001.945],[23.6514,42.7999,1104.4166],[23.6511,42.8123,1296.8248],[23.647,42.8199,1410.399],[23.6456,42.8334,1116.3938],[23.644,42.838,1059.7296],[23.6381,42.8412,1176.2566],[23.6337,42.843,1165.8854],[23.6232,42.843,931.9492],[23.6024,42.8329,853.3094],[23.5786,42.8292,941.0794],[23.5684,42.8321,814.9187],[23.5395,42.8535,989.3989],[23.5091,42.8636,806.8914],[23.4877,42.8621,666.0813],[23.4744,42.8582,1027.5166],[23.4698,42.8562,943.8271],[23.4556,42.8446,874.7903],[23.4378,42.8368,856.7968],[23.4237,42.8349,798.3709],[23.4194,42.8326,821.285],[23.3774,42.8326,624.5652],[23.3654,42.8368,606.8112],[23.356,42.8552,619.2969],[23.3478,42.8642,721.9023],[23.3317,42.8686,885.4498],[23.3177,42.8782,961.0029],[23.2992,42.8787,786.5807],[23.2968,42.8772,860.0239],[23.2847,42.8522,705.6772],[23.2689,42.8436,617.9015],[23.266,42.8195,546.6785],[23.2631,42.8161,541.6611],[23.252,42.8092,527.0853],[23.2464,42.7842,530.8774],[23.2318,42.7737,534.8365],[23.2197,42.7611,544.6238],[23.2218,42.7529,547.3796],[23.2311,42.7413,553.9062],[23.2313,42.7372,556.7417],[23.226,42.732,564.3296],[23.194,42.7296,593.923],[23.178,42.7238,621.0274],[23.1563,42.7215,651.5927],[23.0859,42.7267,831.9904],[23.051,42.7268,854.1049],[23.0388,42.7229,870.2366]]]]}
,"properties": {"GID_1": "BGR.5_1","GID_0": "BGR","country": "Bulgaria","state": "GradSofiya","VARNAME_1": "NA","NL_NAME_1": "София-град","TYPE_1": "Oblast","ENGTYPE_1": "Province","CC_1": "NA","HASC_1": "BG.SG","ISO_1": "NA","name": "GradSofiya.state","area_km2": 1351.027,"hist_schema_id": "Elevation0-9000","hist_area_km2": {"500": 31.403,"525": 213.354,"550": 118.87,"575": 80.769,"600": 74.056,"625": 51.882,"650": 36.176,"675": 30.679,"700": 30.619,"725": 27.238,"750": 25.681,"775": 24.652,"800": 52.427,"825": 34.944,"850": 38.289,"875": 38.303,"900": 36.9,"925": 33.104,"950": 28.995,"975": 26.168,"1000": 23.738,"1025": 21.324,"1050": 19.53,"1075": 18.815,"1100": 18.462,"1125": 18.87,"1150": 19.734,"1175": 20.538,"1200": 19.073,"1225": 14.874,"1250": 9.81,"1275": 6.561,"1300": 4.607,"1325": 3.028,"1350": 3.215,"1375": 2.981,"1400": 3.2,"1425": 2.982,"1450": 2.873,"1475": 3.138,"1500": 2.904,"1525": 3.2,"1550": 3.185,"1575": 3.216,"1600": 3.06,"1625": 3.341,"1650": 2.967,"1675": 3.014,"1700": 3.029,"1725": 2.795,"1750": 2.92,"1775": 3.669,"1800": 4.715,"1825": 4.044,"1850": 3.076,"1875": 2.78,"1900": 2.374,"1925": 2.67,"1950": 2.92,"1975": 2.92,"2000": 2.624,"2025": 2.124,"2050": 1.702,"2075": 1.593,"2100": 1.734,"2125": 1.609,"2150": 1.437,"2175": 1.359,"2200": 0.828,"2225": 0.64,"2250": 0.547,"2275": 0.172}}}