{"type":"Feature","properties":{"GID_2":"BGR.3.7_1","GID_0":"BGR","country":"Bulgaria","GID_1":"BGR.3_1","state":"Dobrich","NL_NAME_1":"Добрич","county":"Shabla","VARNAME_2":"Şabla","NL_NAME_2":"Шабла","TYPE_2":"Obshtina","ENGTYPE_2":"Municipality","CC_2":"NA","HASC_2":"BG.DO.SH","name":"Shabla.county"},
"geometry":{"type": "MultiPolygon","coordinates": [[[[28.3912,43.6696,101.3816],[28.4261,43.6713,82.8799],[28.4386,43.6684,70.5081],[28.4435,43.6598,83.7174],[28.4538,43.6481,79.5788],[28.4518,43.6263,66.9321],[28.4626,43.6108,42.8289],[28.4601,43.605,61.3011],[28.4465,43.603,72.8487],[28.4425,43.5992,72.0491],[28.4397,43.5933,81.3891],[28.4201,43.5824,84.8242],[28.4183,43.5777,85.9733],[28.4211,43.5711,96.3805],[28.4462,43.5659,85.2385],[28.4458,43.5617,85.3393],[28.4063,43.5335,101.2117],[28.4031,43.5275,110.6059],[28.4031,43.5247,107.0759],[28.4059,43.5202,99.7037],[28.4168,43.5147,98.6316],[28.4284,43.5155,88.3274],[28.4666,43.5244,77.511],[28.4729,43.5235,78.3413],[28.4783,43.5203,69.4474],[28.4859,43.5047,63.3661],[28.4931,43.4959,53.8162],[28.5094,43.4905,51.7457],[28.5185,43.4829,45.0335],[28.5399,43.4791,46.6781],[28.5544,43.4724,37.8842],[28.5713,43.4724,0.0],[28.5743,43.4749,2.3181],[28.5863,43.4901,2.1441],[28.586,43.4938,3.2905],[28.5893,43.5004,0.0],[28.594,43.5043,0.0],[28.594,43.5065,2.6709],[28.5982,43.5107,0.0],[28.5999,43.5176,1.2245],[28.6032,43.5204,0.2115],[28.6021,43.5238,0.7174],[28.604,43.5262,0.0],[28.6029,43.5293,3.0683],[28.6057,43.5329,0.0],[28.6057,43.5374,1.835],[28.609,43.5393,0.0],[28.609,43.5418,0.0],[28.6038,43.5468,0.0],[28.6046,43.5524,0.0],[28.6029,43.5546,1.975],[28.5993,43.5568,3.8467],[28.5987,43.559,0.0],[28.5968,43.559,0.0],[28.5963,43.561,0.0],[28.5904,43.5635,1.7196],[28.5888,43.5671,0.0],[28.5871,43.5671,12.4705],[28.586,43.5701,4.572],[28.5757,43.581,1.4399],[28.5682,43.6015,13.3472],[28.5704,43.6074,0.0],[28.5704,43.6146,1.2453],[28.576,43.6179,0.0],[28.5737,43.6196,1.6773],[28.5729,43.6285,0.0],[28.5793,43.6376,0.0],[28.5676,43.6538,11.0543],[28.5668,43.6707,0.0],[28.5637,43.6779,1.1198],[28.5632,43.6904,0.0],[28.5654,43.696,1.259],[28.5771,43.701,0.0],[28.5785,43.7085,0.0],[28.5757,43.7113,3.471],[28.5726,43.7243,4.0669],[28.5749,43.7326,2.0593],[28.5788,43.7346,0.0],[28.5799,43.7404,0.0],[28.5034,43.7385,64.8632],[28.47,43.7356,73.365],[28.4459,43.7224,79.9477],[28.4317,43.7186,94.8631],[28.4284,43.7162,88.3483],[28.4278,43.7116,96.6683],[28.4297,43.6996,90.9013],[28.4273,43.6956,90.8958],[28.4173,43.6876,89.0411],[28.4072,43.684,94.0791],[28.3953,43.677,104.6589],[28.3912,43.6696,101.3816]]]]}}