{"type":"Feature","properties":{"GID_2":"BGR.1.2_1","GID_0":"BGR","country":"Bulgaria","GID_1":"BGR.1_1","state":"Blagoevgrad","NL_NAME_1":"Благоевград","county":"Belitsa","VARNAME_2":"NA","NL_NAME_2":"Белица","TYPE_2":"Obshtina","ENGTYPE_2":"Municipality","CC_2":"NA","HASC_2":"BG.BL.BE","name":"Belitsa.county"},
"geometry":{"type": "MultiPolygon","coordinates": [[[[23.7934,41.8383,1558.2595],[23.7887,41.8524,1502.0797],[23.7855,41.8777,1534.3508],[23.7739,41.898,1554.0837],[23.7703,41.9009,1523.7285],[23.7657,41.9083,1505.2623],[23.7637,41.9347,1558.9976],[23.7564,41.9559,1522.9723],[23.7541,41.9586,1481.3531],[23.7344,41.9563,1397.557],[23.7247,41.9585,1438.1334],[23.7151,41.9643,1460.8761],[23.7146,41.9766,1664.8506],[23.7121,41.981,1587.6318],[23.7045,41.9823,1560.9268],[23.6904,41.9734,1506.1713],[23.6695,41.9723,1444.5565],[23.6625,41.9646,1331.0227],[23.6579,41.9641,1262.592],[23.6497,41.9675,1329.8368],[23.6398,41.9678,1301.2206],[23.6315,41.9605,1125.099],[23.6292,41.9543,1134.564],[23.6236,41.9486,1249.356],[23.6157,41.9455,1172.3566],[23.6061,41.9456,966.242],[23.6006,41.9488,863.7194],[23.5992,41.9527,850.8837],[23.61,41.9757,852.9919],[23.61,41.9949,1014.774],[23.6075,42.0021,1065.026],[23.5949,42.0164,1322.1572],[23.593,42.0206,1216.8235],[23.599,42.0594,1621.2834],[23.5977,42.0676,1782.0132],[23.5885,42.0787,2113.8547],[23.5669,42.0912,2376.5129],[23.5532,42.087,2451.8652],[23.5449,42.0866,2406.0176],[23.5167,42.0939,2439.8662],[23.4925,42.0946,2579.8938],[23.4942,42.0965,2632.7114],[23.4836,42.0908,2606.2256],[23.4676,42.0772,2370.3818],[23.4723,42.0719,2275.281],[23.4878,42.062,1867.1561],[23.496,42.0507,1685.265],[23.5088,42.0402,1671.3823],[23.5159,42.03,1704.15],[23.5131,42.0188,1577.8],[23.5,42.0177,1659.0173],[23.5015,42.0103,1651.9366],[23.5054,42.0056,1531.0001],[23.5067,41.9983,1195.776],[23.5065,41.9709,1042.2214],[23.5102,41.9608,975.5195],[23.5157,41.955,891.0323],[23.5192,41.9363,872.4716],[23.5395,41.9031,812.322],[23.5529,41.891,854.8643],[23.5665,41.8842,770.6162],[23.5792,41.8752,784.605],[23.5976,41.8555,856.0163],[23.5993,41.8522,867.0312],[23.5976,41.8429,770.2723],[23.5996,41.8401,761.4924],[23.618,41.8303,736.472],[23.6248,41.8247,713.2377],[23.6316,41.824,820.6736],[23.6384,41.8209,950.9141],[23.6551,41.8232,927.807],[23.6727,41.8334,1196.6862],[23.6813,41.836,1244.2568],[23.6882,41.8462,1420.0327],[23.6979,41.8493,1431.2188],[23.7197,41.8486,1244.5824],[23.7619,41.838,1621.1713],[23.7934,41.8383,1558.2595]]]]}}