{"type": "Feature","bbox": [22.32740319102129,42.505987860150327,27.430918816021205,43.813544012494049],"geometry": {"type": "Polygon","coordinates": [[[23.58521569102129,43.505865789837856,149.1117],[23.252818230083761,43.564764715619077,177.9513],[22.597422722271233,43.769049383587827,235.3783],[22.380259636333705,43.813544012494049,411.7761],[22.32740319102129,43.701727606244106,310.8037],[22.437998894146261,43.438544012494134,594.1839],[22.654307487896261,43.132086492962827,387.0653],[22.918711784771233,42.890570379681549,674.9779],[23.297129753521233,42.7386538757753,532.686],[23.831675651958733,42.626410223431549,781.4778],[24.995371941021261,42.505987860150327,827.5847],[26.141978386333761,42.528692938275327,155.8009],[26.890757683208705,42.692572332806606,177.9821],[27.300791862896261,42.910589910931634,211.0037],[27.430918816021205,43.095648504681577,163.0926],[27.413706901958761,43.299933172650327,195.4962],[27.331675651958761,43.403265692181549,350.9168],[27.19666588633379,43.448981024212827,390.3038],[27.020762566021233,43.4802310242128,386.8746],[26.769175651958733,43.5042788757753,429.2516],[26.431040886333761,43.499457098431606,390.438],[26.05445397227129,43.4658267273378,328.0625],[25.687510612896233,43.403326727337856,73.9901],[25.222056511333761,43.372503973431577,169.2289],[23.58521569102129,43.505865789837856,149.1117]]]}
,"properties": {"featurecla": "Range/mtn","name": "Balkan Mts.","namealt": null,"region": "Europe","subregion": null,"min_label": 5.3,"max_label": 9.0,"scalerank": 4,"area_km2": 36810.45,"hist_schema_id": "Elevation0-9000","hist_area_km2": {"25": 21.78,"50": 243.33,"75": 600.37,"100": 753.55,"125": 932.96,"150": 1308.51,"175": 1631.91,"200": 1607.1,"225": 1567.19,"250": 1563.62,"275": 1610.04,"300": 1586.36,"325": 1513.14,"350": 1430.58,"375": 1301.43,"400": 1305.49,"425": 1228.08,"450": 1103.0,"475": 975.49,"500": 861.72,"525": 892.41,"550": 799.64,"575": 712.7,"600": 657.53,"625": 613.98,"650": 591.78,"675": 572.33,"700": 564.98,"725": 537.31,"750": 505.39,"775": 481.66,"800": 472.12,"825": 440.63,"850": 407.64,"875": 385.61,"900": 355.39,"925": 331.02,"950": 303.9,"975": 287.77,"1000": 265.79,"1025": 249.83,"1050": 237.93,"1075": 228.74,"1100": 206.95,"1125": 196.95,"1150": 182.45,"1175": 168.97,"1200": 165.89,"1225": 159.23,"1250": 152.07,"1275": 141.31,"1300": 132.93,"1325": 125.97,"1350": 114.6,"1375": 102.78,"1400": 90.77,"1425": 78.89,"1450": 70.57,"1475": 64.34,"1500": 60.08,"1525": 57.1,"1550": 52.14,"1575": 47.99,"1600": 42.2,"1625": 38.53,"1650": 34.59,"1675": 32.14,"1700": 28.63,"1725": 26.58,"1750": 23.62,"1775": 21.6,"1800": 19.45,"1825": 18.5,"1850": 17.11,"1875": 15.93,"1900": 14.1,"1925": 12.01,"1950": 9.7,"1975": 8.37,"2000": 7.12,"2025": 5.06,"2050": 4.45,"2075": 4.09,"2100": 3.08,"2125": 2.88,"2150": 2.33,"2175": 1.7,"2200": 0.87,"2225": 0.64,"2250": 0.44,"2275": 0.3}}}