{"type": "Feature","bbox": [23.6022,42.361,24.0722,42.6045],"geometry": {"type": "MultiPolygon","coordinates": [[[[23.6422,42.4226,1005.8691],[23.6488,42.4192,1138.1451],[23.6673,42.4164,1145.3228],[23.6834,42.4112,1115.9023],[23.715,42.3931,800.5275],[23.7265,42.3906,793.453],[23.7496,42.3894,909.7645],[23.7623,42.3863,873.8719],[23.7695,42.3862,876.8207],[23.7785,42.3807,782.4302],[23.8001,42.3796,788.9521],[23.8064,42.377,822.8217],[23.8178,42.3656,659.5645],[23.824,42.3621,703.2347],[23.8352,42.361,749.9221],[23.859,42.3688,900.6415],[23.8744,42.3718,784.4709],[23.908,42.3696,825.3333],[23.9226,42.3669,917.5067],[23.9652,42.3672,815.2419],[23.9867,42.3715,617.5873],[23.9951,42.3712,563.4437],[24.0239,42.375,514.0956],[24.0316,42.3773,423.2718],[24.0398,42.3823,339.7385],[24.0531,42.3969,384.7406],[24.056,42.4028,431.1701],[24.0571,42.4098,543.7104],[24.0703,42.43,675.2803],[24.0721,42.4388,738.1516],[24.0707,42.449,727.2772],[24.0722,42.451,709.7062],[24.0626,42.4557,809.186],[24.0495,42.4566,679.5505],[24.0384,42.4531,659.1697],[24.0323,42.448,662.9599],[24.0223,42.4432,577.0622],[24.0115,42.4405,489.8008],[23.9979,42.4406,423.1422],[23.9845,42.4431,594.5668],[23.9689,42.451,619.245],[23.9353,42.476,739.2844],[23.9235,42.482,908.951],[23.9166,42.4889,1004.4255],[23.9144,42.4941,989.4833],[23.9104,42.5194,735.3755],[23.896,42.5372,1088.3397],[23.8943,42.5408,1127.6591],[23.8944,42.548,1152.4917],[23.8553,42.5541,1064.0117],[23.8331,42.5616,959.3362],[23.8168,42.5737,938.6614],[23.8074,42.5907,791.4684],[23.8,42.5969,792.7267],[23.7823,42.5996,702.0576],[23.7258,42.5996,751.3748],[23.7117,42.604,658.4481],[23.7039,42.6045,654.4802],[23.6936,42.6022,691.8466],[23.6845,42.5977,744.8303],[23.6663,42.5957,643.5336],[23.6568,42.5913,699.2189],[23.6547,42.589,711.1783],[23.6537,42.5832,706.8309],[23.6556,42.569,807.1254],[23.65,42.5567,810.9695],[23.6417,42.5484,876.3796],[23.6245,42.5359,868.0738],[23.6189,42.5183,926.7045],[23.611,42.509,985.7098],[23.6108,42.5051,1005.8522],[23.6034,42.4955,928.2311],[23.6022,42.4909,919.834],[23.6043,42.4878,907.199],[23.6162,42.4764,856.4246],[23.624,42.4663,826.4197],[23.6319,42.447,815.6428],[23.6372,42.4392,821.5584],[23.6422,42.4226,1005.8691]]]]}
,"properties": {"GID_2": "BGR.21.12_1","GID_0": "BGR","country": "Bulgaria","GID_1": "BGR.21_1","state": "Sofia","NL_NAME_1": "Sofija","county": "Ihtiman","VARNAME_2": "NA","NL_NAME_2": "Ихтиман","TYPE_2": "Obshtina","ENGTYPE_2": "Municipality","CC_2": "NA","HASC_2": "BG.SF.IH","name": "Ihtiman.county","area_km2": 614.6322,"hist_schema_id": "Elevation0-9000","hist_area_km2": {"325": 1.1118,"350": 1.7067,"375": 3.4282,"400": 3.0687,"425": 4.0394,"450": 4.3367,"475": 5.4634,"500": 6.0736,"525": 7.3412,"550": 7.3876,"575": 7.6217,"600": 7.0736,"625": 33.4148,"650": 42.2787,"675": 31.3675,"700": 26.3877,"725": 26.0395,"750": 32.7754,"775": 33.7568,"800": 35.521,"825": 36.0672,"850": 38.8482,"875": 35.7557,"900": 31.0835,"925": 32.9704,"950": 31.4663,"975": 25.2452,"1000": 20.4622,"1025": 14.1948,"1050": 9.5217,"1075": 5.9118,"1100": 3.9744,"1125": 2.7545,"1150": 1.9096,"1175": 1.7686,"1200": 1.1266,"1225": 0.6105,"1250": 0.5322,"1275": 0.2348}}}