{"type": "Feature","bbox": [23.7549,42.076,24.0925,42.2716],"geometry": {"type": "MultiPolygon","coordinates": [[[[23.7926,42.076,1670.056],[23.8588,42.0801,1547.83],[23.8994,42.0904,1473.4307],[23.9414,42.0939,1530.6646],[23.9661,42.101,1417.5486],[23.9887,42.1158,1181.1646],[24.0271,42.1303,1073.8269],[24.0444,42.1398,1379.2947],[24.0472,42.143,1290.5046],[24.0581,42.1647,835.3715],[24.0843,42.1984,266.417],[24.0859,42.2051,256.7437],[24.0842,42.2185,257.8596],[24.0919,42.2286,250.8608],[24.0925,42.2333,250.6321],[24.091,42.2395,247.6487],[24.0826,42.2478,257.8652],[24.0519,42.263,313.0551],[24.0356,42.2645,382.8686],[24.023,42.2606,442.6674],[23.9924,42.2716,534.6439],[23.9842,42.2687,668.3771],[23.958,42.249,595.2313],[23.947,42.2451,459.4369],[23.9387,42.2444,419.7948],[23.935,42.2443,413.9108],[23.9177,42.2517,422.9787],[23.9115,42.2589,435.4703],[23.8998,42.2668,501.8674],[23.8879,42.2661,569.5162],[23.8815,42.2638,548.6988],[23.8758,42.2566,572.7059],[23.87,42.2385,828.1454],[23.8657,42.231,962.8107],[23.8528,42.2209,1187.293],[23.8415,42.2156,1413.2793],[23.8165,42.2091,1716.6404],[23.813,42.2044,1938.4496],[23.7953,42.1978,2172.4822],[23.7796,42.1836,2495.8918],[23.7649,42.1759,2462.5728],[23.7564,42.1648,2152.6523],[23.7549,42.1584,2068.8711],[23.7568,42.1478,2002.5789],[23.7618,42.1424,1984.4498],[23.7776,42.1324,1783.4641],[23.7843,42.1232,1858.8433],[23.7846,42.1164,1813.7543],[23.7783,42.1042,1713.387],[23.7926,42.076,1670.056]]]]}
,"properties": {"GID_2": "BGR.11.2_1","GID_0": "BGR","country": "Bulgaria","GID_1": "BGR.11_1","state": "Pazardzhik","NL_NAME_1": "Пазарджик","county": "Belovo","VARNAME_2": "NA","NL_NAME_2": "Белово","TYPE_2": "Obshtina","ENGTYPE_2": "Municipality","CC_2": "NA","HASC_2": "BG.PZ.BE","name": "Belovo.county","area_km2": 393.4741,"hist_schema_id": "Elevation0-9000","hist_area_km2": {"250": 6.1699,"275": 10.9742,"300": 4.7096,"325": 4.3958,"350": 4.5217,"375": 5.1498,"400": 6.1703,"425": 7.4577,"450": 8.1802,"475": 8.8715,"500": 8.2591,"525": 8.0705,"550": 8.5412,"575": 7.4737,"600": 6.5007,"625": 5.7,"650": 4.7109,"675": 4.2558,"700": 3.8636,"725": 3.6752,"750": 3.6124,"775": 3.9107,"800": 3.2515,"825": 3.5811,"850": 3.4716,"875": 3.2835,"900": 3.0951,"925": 3.8179,"950": 3.5352,"975": 3.5666,"1000": 3.6614,"1025": 4.3686,"1050": 3.8658,"1075": 4.4787,"1100": 4.3532,"1125": 4.5263,"1150": 4.5109,"1175": 4.8569,"1200": 5.2969,"1225": 5.4071,"1250": 5.8474,"1275": 5.4862,"1300": 5.5804,"1325": 5.8167,"1350": 6.2728,"1375": 7.0909,"1400": 7.1068,"1425": 7.4374,"1450": 7.7047,"1475": 6.856,"1500": 7.4849,"1525": 7.0443,"1550": 6.0382,"1575": 4.906,"1600": 4.1352,"1625": 3.7105,"1650": 3.3174,"1675": 3.8836,"1700": 4.9375,"1725": 5.9919,"1750": 4.3714,"1775": 3.4117,"1800": 3.1756,"1825": 3.0495,"1850": 3.1597,"1875": 2.971,"1900": 3.5367,"1925": 9.1789,"1950": 4.5269,"1975": 4.1026,"2000": 4.4167,"2025": 3.961,"2050": 3.3794,"2075": 2.7036,"2100": 2.2636,"2125": 1.7763,"2150": 1.7919,"2175": 1.2574,"2200": 1.0844,"2225": 1.0372,"2250": 0.6915,"2275": 0.4714,"2300": 0.3614,"2325": 0.4399,"2350": 0.2514,"2375": 0.22,"2400": 0.22,"2425": 0.1414,"2450": 0.1728,"2475": 0.1257,"2500": 0.1728,"2525": 0.1257,"2550": 0.0943,"2575": 0.0628,"2600": 0.0157}}}