{"type": "Feature","id": "2256","bbox": [26.16154,43.34206,27.01316,43.95329],"geometry": {"type": "Polygon","coordinates": [[[26.49164,43.92502,116.3011],[26.46477,43.94683,102.1894],[26.43139,43.95329,47.7128],[26.39625,43.94957,56.783],[26.32153,43.89016,92.6641],[26.29951,43.85272,144.664],[26.25393,43.83211,99.5686],[26.25156,43.79211,155.5977],[26.30334,43.77443,185.7104],[26.33351,43.77252,169.1057],[26.3578,43.76294,131.3189],[26.33992,43.74508,219.1174],[26.34251,43.70439,231.156],[26.32225,43.69645,241.4978],[26.3085,43.67434,224.3401],[26.29527,43.65837,151.7668],[26.2436,43.66395,160.8981],[26.20629,43.64354,193.3663],[26.19285,43.65354,161.6148],[26.17993,43.66162,181.2492],[26.16856,43.64354,170.7453],[26.17104,43.62072,206.8193],[26.16691,43.61548,243.214],[26.16154,43.61155,266.1877],[26.16371,43.6045,269.628],[26.16557,43.59677,272.3212],[26.16236,43.56212,216.3625],[26.18417,43.53595,227.9602],[26.22727,43.54768,215.0473],[26.2715,43.5377,371.7534],[26.32277,43.5151,391.8859],[26.36369,43.48357,401.2924],[26.3485,43.44861,210.4893],[26.36049,43.44148,269.1333],[26.37382,43.43575,292.4684],[26.43418,43.42996,336.5696],[26.48534,43.41766,461.972],[26.48007,43.37895,244.5429],[26.4872,43.34971,187.5112],[26.55045,43.34981,192.5644],[26.57412,43.34206,215.1017],[26.59841,43.34216,206.4089],[26.63417,43.36934,270.8842],[26.65608,43.37203,325.0508],[26.67706,43.37653,288.7177],[26.68119,43.41531,259.9277],[26.70176,43.41508,321.7199],[26.72305,43.41094,304.5602],[26.73215,43.439,372.0589],[26.71809,43.45993,428.9057],[26.72326,43.48474,342.1257],[26.75757,43.50169,410.0466],[26.79509,43.51052,371.1531],[26.80935,43.52964,439.0691],[26.79261,43.54954,342.1374],[26.81834,43.56339,315.8212],[26.848,43.58313,352.2189],[26.87312,43.60346,325.5605],[26.88397,43.60736,327.8594],[26.89555,43.60788,328.5321],[26.90681,43.5946,302.5376],[26.92232,43.58762,354.8658],[26.98815,43.65165,257.6572],[27.01316,43.66741,296.304],[27.00076,43.69958,268.0565],[26.97141,43.71692,230.348],[26.94753,43.74283,260.1436],[26.93131,43.74999,194.9724],[26.91332,43.74136,215.4807],[26.9033,43.75304,246.0616],[26.90309,43.77552,231.0952],[26.88821,43.78513,225.7059],[26.87808,43.79624,205.5147],[26.85979,43.80616,203.4983],[26.84387,43.82453,214.219],[26.83715,43.84368,198.4206],[26.82217,43.84221,206.2664],[26.80811,43.82637,229.5981],[26.79033,43.8213,206.1869],[26.77514,43.81929,141.2759],[26.76739,43.80725,181.6461],[26.75313,43.8258,169.2338],[26.73545,43.84492,198.4555],[26.70186,43.84761,180.3753],[26.61722,43.86936,201.3121],[26.59376,43.90192,114.3232],[26.58601,43.91902,49.7521],[26.56833,43.93696,63.8284],[26.5457,43.94486,111.2098],[26.52007,43.93091,110.7047],[26.49164,43.92502,116.3011]]]}
,"properties": {"ISO3166-1-Alpha-3": "BGR","country": "Bulgaria","fill": "#F0F","name": "Razgrad","area_km2": 2577.148,"hist_schema_id": "Elevation0-9000","hist_area_km2": {"25": 0.092,"50": 13.805,"75": 35.483,"100": 57.669,"125": 111.322,"150": 118.216,"175": 114.364,"200": 201.819,"225": 296.576,"250": 361.449,"275": 368.279,"300": 325.353,"325": 199.522,"350": 144.641,"375": 100.952,"400": 64.11,"425": 40.84,"450": 17.948,"475": 4.231,"500": 0.477}}}