{"type": "Feature","bbox": [26.0536,43.2766,27.028,43.9615],"geometry": {"type": "MultiPolygon","coordinates": [[[[26.7466,43.4705,406.0952],[26.7536,43.4727,386.803],[26.7682,43.4721,482.7462],[26.7755,43.474,489.229],[26.7769,43.4776,488.8042],[26.7763,43.4918,418.8079],[26.7785,43.4955,395.5148],[26.7843,43.4988,402.2976],[26.7985,43.5001,460.4607],[26.8088,43.496,496.4494],[26.8137,43.4963,498.5496],[26.8234,43.4996,510.7699],[26.8339,43.5062,493.0071],[26.8367,43.5101,489.2366],[26.8371,43.5162,450.9443],[26.8356,43.5254,411.4962],[26.8324,43.5321,411.6131],[26.8289,43.5341,404.1702],[26.8139,43.5355,394.0986],[26.8104,43.5378,385.4047],[26.808,43.542,360.4957],[26.8084,43.5526,353.2543],[26.8275,43.5678,343.3507],[26.8356,43.5721,332.8669],[26.8598,43.5801,349.5293],[26.8751,43.5895,371.6795],[26.8824,43.597,364.9541],[26.8863,43.6155,311.2005],[26.8911,43.6211,299.5699],[26.8978,43.6229,304.1946],[26.9093,43.6222,288.9318],[26.9328,43.6132,300.6949],[26.9442,43.611,325.6841],[26.9521,43.6115,349.0495],[26.9608,43.615,331.155],[26.9667,43.6194,337.6348],[26.9715,43.6263,324.1478],[26.9678,43.6336,322.0063],[26.9682,43.6361,317.0356],[26.9706,43.6423,305.0083],[26.9755,43.646,290.1443],[26.989,43.6531,257.8527],[27.0009,43.6558,282.1891],[27.0139,43.6567,301.4731],[27.0258,43.6625,302.2036],[27.0273,43.6672,286.4482],[27.028,43.691,234.0881],[27.026,43.6944,233.6657],[27.015,43.6998,264.5544],[27.0104,43.7043,264.7346],[27.0054,43.7133,271.4994],[27.0053,43.7174,265.1078],[26.9912,43.723,253.1244],[26.9809,43.7313,201.2322],[26.9744,43.7476,224.028],[26.9734,43.7543,251.0491],[26.971,43.7577,236.7816],[26.9613,43.7599,256.1996],[26.9486,43.7573,238.6393],[26.9451,43.758,228.8212],[26.9216,43.7646,241.3926],[26.9177,43.768,250.0318],[26.9161,43.7706,248.4917],[26.9134,43.7988,185.165],[26.8817,43.8111,219.6177],[26.868,43.8198,214.5234],[26.8589,43.8304,172.8544],[26.8508,43.8508,177.5689],[26.8472,43.8537,188.1347],[26.8398,43.8547,201.1107],[26.8352,43.8534,205.1822],[26.8176,43.8366,221.7674],[26.8117,43.837,223.5916],[26.805,43.8433,184.1426],[26.8011,43.8431,178.9397],[26.7892,43.8341,194.1841],[26.777,43.8326,195.7905],[26.773,43.8354,187.4781],[26.7694,43.8482,154.5555],[26.7635,43.8526,146.7398],[26.7325,43.854,212.9521],[26.7211,43.8622,181.2023],[26.7006,43.8635,153.3309],[26.6875,43.8733,155.6255],[26.6728,43.8801,158.662],[26.624,43.8918,116.4808],[26.6144,43.9008,107.4202],[26.6084,43.9244,96.2259],[26.5917,43.9372,95.8485],[26.5857,43.9464,78.5675],[26.5821,43.9473,115.524],[26.5688,43.9484,79.4597],[26.5592,43.9475,32.6968],[26.5345,43.9417,52.3873],[26.5093,43.9331,115.1805],[26.4986,43.9319,74.5512],[26.4888,43.9341,114.3429],[26.4835,43.9402,105.1267],[26.4781,43.9508,106.3508],[26.4706,43.9549,76.1612],[26.4499,43.9565,40.9888],[26.4286,43.9615,41.7255],[26.4119,43.9584,48.9487],[26.3876,43.9589,45.8862],[26.3793,43.9499,61.9783],[26.3454,43.9342,69.1394],[26.3383,43.924,63.1264],[26.3274,43.9179,66.5576],[26.3198,43.9111,86.1469],[26.3157,43.9049,69.1353],[26.3166,43.8939,133.6965],[26.312,43.8886,131.1292],[26.3133,43.8759,134.4156],[26.3058,43.8674,113.4446],[26.2713,43.8653,110.1838],[26.2571,43.8548,105.8247],[26.2491,43.8543,105.1961],[26.2466,43.8515,106.282],[26.2446,43.844,133.0535],[26.2404,43.8397,138.023],[26.233,43.8258,133.9474],[26.2347,43.8171,148.1217],[26.2393,43.8113,138.898],[26.2601,43.7991,143.5226],[26.2697,43.7959,120.8513],[26.3023,43.7979,151.7172],[26.3439,43.7981,143.644],[26.3628,43.8015,176.1024],[26.375,43.8,200.9922],[26.3796,43.8022,182.6337],[26.3819,43.8058,189.6108],[26.3863,43.8072,186.621],[26.3912,43.8061,173.6194],[26.396,43.7998,214.6567],[26.3988,43.7998,215.5089],[26.4096,43.8066,200.4812],[26.4191,43.8085,215.1322],[26.4253,43.8067,203.654],[26.4416,43.792,160.0684],[26.455,43.7856,193.4471],[26.496,43.7771,220.3232],[26.5208,43.7745,198.1101],[26.5414,43.7632,228.4626],[26.5547,43.7543,246.2156],[26.5507,43.7392,253.4221],[26.5525,43.729,268.7269],[26.5504,43.708,285.8358],[26.5436,43.6929,283.2383],[26.5274,43.6686,262.0593],[26.514,43.6577,277.8205],[26.5044,43.6533,297.5414],[26.4923,43.6502,300.0045],[26.4696,43.6478,279.5494],[26.4176,43.6482,284.165],[26.3698,43.6516,197.5865],[26.3467,43.6509,164.5195],[26.3231,43.6476,174.8518],[26.2996,43.6401,257.583],[26.2937,43.6422,231.8787],[26.2644,43.6604,182.2298],[26.248,43.6674,200.2017],[26.2262,43.6695,162.9715],[26.2169,43.6687,184.436],[26.2077,43.6656,191.9039],[26.2006,43.6659,160.2872],[26.1833,43.6717,171.6601],[26.1654,43.6741,141.5189],[26.1505,43.6696,168.1902],[26.1445,43.6616,147.7736],[26.138,43.6568,134.1198],[26.1074,43.6552,156.5115],[26.1024,43.6533,185.5847],[26.0951,43.6467,217.0256],[26.09,43.6443,223.5212],[26.0588,43.6433,129.0217],[26.0536,43.6402,147.5896],[26.0543,43.6345,172.5851],[26.0585,43.6268,112.1909],[26.0676,43.6168,147.796],[26.0721,43.6084,132.7214],[26.0705,43.6021,196.7032],[26.0601,43.5946,247.6528],[26.0599,43.5912,253.8558],[26.0636,43.5882,210.2514],[26.0793,43.5822,241.08],[26.092,43.5733,259.3545],[26.0988,43.5636,244.6543],[26.1028,43.5538,294.6086],[26.1173,43.5394,304.383],[26.1187,43.5352,310.4676],[26.1229,43.5328,314.2998],[26.1357,43.5318,343.5863],[26.1476,43.5364,252.645],[26.1615,43.5363,336.3317],[26.1776,43.5423,321.4031],[26.1913,43.5402,207.9589],[26.1974,43.541,227.6795],[26.2037,43.5447,165.0714],[26.2069,43.554,134.8116],[26.2243,43.5731,299.4441],[26.2341,43.5745,292.3359],[26.2463,43.5732,288.2763],[26.2523,43.57,307.0084],[26.2688,43.5529,365.6828],[26.3117,43.5402,348.3012],[26.3147,43.532,371.9335],[26.3236,43.5199,395.0762],[26.3291,43.515,351.5266],[26.3552,43.5086,380.7552],[26.3591,43.504,391.2543],[26.3602,43.4994,431.5156],[26.358,43.4858,392.0421],[26.3582,43.4753,327.8955],[26.3613,43.4687,261.3039],[26.3723,43.4601,243.7258],[26.3813,43.4569,267.2681],[26.3964,43.4563,270.3133],[26.4447,43.4653,348.8802],[26.456,43.4654,357.6016],[26.4689,43.4599,387.2666],[26.4683,43.4569,396.1621],[26.4615,43.4511,354.455],[26.4603,43.4446,385.1528],[26.4604,43.4417,363.493],[26.4663,43.4342,402.3783],[26.4679,43.4283,458.4358],[26.4639,43.4232,474.1137],[26.4445,43.4098,366.9154],[26.4389,43.403,301.3626],[26.4315,43.3976,270.5281],[26.4189,43.3928,321.2262],[26.4024,43.3839,247.2237],[26.3885,43.3795,314.8708],[26.3794,43.3691,315.328],[26.3622,43.3696,300.4645],[26.3539,43.3652,328.8413],[26.3336,43.36,375.2515],[26.3348,43.3538,454.2411],[26.3395,43.3481,471.6587],[26.3411,43.3407,453.3089],[26.3465,43.3316,299.3409],[26.354,43.3292,321.723],[26.3759,43.329,256.8698],[26.3839,43.3216,275.1336],[26.3975,43.3189,408.9707],[26.3991,43.3132,380.3941],[26.3979,43.3098,380.3182],[26.3911,43.3062,386.0326],[26.3772,43.3046,331.0837],[26.372,43.3021,273.1588],[26.3698,43.2977,250.643],[26.371,43.2926,270.3304],[26.3809,43.2803,392.7482],[26.3884,43.2766,401.9431],[26.4052,43.2803,373.4127],[26.4215,43.2807,387.6822],[26.4371,43.2831,395.8503],[26.4413,43.2839,389.6207],[26.4461,43.2875,431.7698],[26.4504,43.2945,485.957],[26.4508,43.2979,468.1494],[26.4474,43.3044,371.0685],[26.4437,43.3209,219.2735],[26.4454,43.3328,206.5612],[26.4521,43.3376,240.071],[26.469,43.3434,226.7582],[26.4774,43.3519,190.1073],[26.4771,43.3547,217.5121],[26.4682,43.3616,198.1583],[26.4667,43.3641,201.2824],[26.468,43.3678,208.1509],[26.4852,43.3697,275.9622],[26.5105,43.362,222.4553],[26.5247,43.3666,224.207],[26.5368,43.3746,204.32],[26.5454,43.3766,209.1039],[26.5539,43.3763,223.2222],[26.5757,43.3728,297.52],[26.5913,43.3672,277.9478],[26.5972,43.3633,266.1554],[26.6029,43.3616,220.3636],[26.6108,43.353,276.5975],[26.6204,43.3481,278.4202],[26.624,43.3473,240.0647],[26.6372,43.3495,284.8451],[26.6464,43.3472,348.3668],[26.6562,43.3471,368.3556],[26.6625,43.3494,361.4865],[26.6691,43.3576,353.1209],[26.6754,43.3792,306.2306],[26.6793,43.3828,289.16],[26.6839,43.3839,282.444],[26.6891,43.3828,288.8563],[26.6918,43.3811,291.9606],[26.6955,43.3751,334.4716],[26.6995,43.3737,347.3545],[26.7203,43.3801,351.0444],[26.7251,43.3783,336.6038],[26.7328,43.3715,332.2233],[26.7372,43.3712,334.0068],[26.7435,43.374,352.4069],[26.7485,43.3819,377.3675],[26.7527,43.3841,406.6133],[26.7669,43.3838,379.9721],[26.7741,43.3815,380.3993],[26.7889,43.3846,406.1384],[26.7994,43.3896,426.6867],[26.8019,43.393,418.64],[26.8031,43.4037,446.4265],[26.7961,43.4161,405.8742],[26.7887,43.421,368.2709],[26.7603,43.428,383.9194],[26.754,43.4323,371.2136],[26.7574,43.4433,377.86],[26.7569,43.449,393.7993],[26.7474,43.4623,383.3089],[26.7453,43.4686,399.9145],[26.7466,43.4705,406.0952]]]]}
,"properties": {"GID_1": "BGR.15_1","GID_0": "BGR","country": "Bulgaria","state": "Razgrad","VARNAME_1": "NA","NL_NAME_1": "Разград","TYPE_1": "Oblast","ENGTYPE_1": "Province","CC_1": "NA","HASC_1": "BG.RG","ISO_1": "BG-17","name": "Razgrad.state","area_km2": 2643.535,"hist_schema_id": "Elevation0-9000","hist_area_km2": {"25": 0.931,"50": 24.294,"75": 51.032,"100": 72.568,"125": 125.22,"150": 119.357,"175": 105.296,"200": 182.126,"225": 270.454,"250": 339.416,"275": 351.759,"300": 328.959,"325": 222.928,"350": 163.445,"375": 113.718,"400": 77.901,"425": 54.776,"450": 27.153,"475": 10.08,"500": 2.092,"525": 0.031}}}