{"type": "Feature","bbox": [24.6818,41.7775,25.1701,42.0834],"geometry": {"type": "MultiPolygon","coordinates": [[[[25.1701,41.8317,845.0314],[25.1605,41.8427,953.4421],[25.1596,41.8475,836.9299],[25.1616,41.8715,794.004],[25.1601,41.8782,625.9541],[25.153199999999998,41.8913,424.3745],[25.1473,41.9093,359.1813],[25.1247,41.9085,337.9864],[25.1122,41.9144,340.4716],[25.0908,41.9159,361.1602],[25.0833,41.9183,358.6067],[25.0852,41.9311,354.0782],[25.0817,41.9437,318.1251],[25.0847,41.9472,279.4842],[25.0916,41.949,292.1393],[25.1184,41.9495,356.6116],[25.1278,41.959,295.4743],[25.1391,41.9625,293.7356],[25.1422,41.9683,292.3445],[25.1393,41.9755,283.1362],[25.1282,41.9865,249.7058],[25.1145,41.9967,219.6993],[25.0967,42.0174,205.4021],[25.0953,42.0291,204.3435],[25.0981,42.035,201.3675],[25.1094,42.0404,196.1874],[25.1282,42.0434,184.7836],[25.1367,42.0469,179.3762],[25.1419,42.0504,176.483],[25.1455,42.056399999999996,173.8238],[25.1441,42.0621,171.7101],[25.1412,42.0655,179.6134],[25.125,42.0767,196.5303],[25.1228,42.0824,189.8084],[25.1209,42.0832,195.7234],[25.1068,42.0834,197.5929],[25.0914,42.0764,200.9233],[25.0695,42.0777,206.3371],[25.0535,42.0737,192.7801],[25.0436,42.0691,182.9921],[25.0315,42.0528,179.1536],[25.0259,42.0492,180.9499],[25.0212,42.0495,181.8526],[25.0198,42.0593,177.2865],[25.0121,42.0604,178.0346],[24.9878,42.0397,192.2536],[24.9769,42.0357,193.0901],[24.9519,42.0316,183.7506],[24.9291,42.0361,189.4072],[24.9098,42.0328,208.1256],[24.9015,42.0338,213.8073],[24.8877,42.0392,201.5044],[24.8796,42.0396,201.0042],[24.8704,42.0345,206.8624],[24.8605,42.0326,205.2432],[24.8537,42.0284,214.8606],[24.8421,42.0126,342.591],[24.8409,42.0076,467.1241],[24.8429,41.9957,771.6845],[24.8375,41.9877,686.3677],[24.835,41.9806,577.3229],[24.8398,41.9718,843.2146],[24.8397,41.9674,910.0475],[24.839,41.9646,974.8986],[24.8326,41.9576,1014.4526],[24.8321,41.9496,874.2399],[24.8264,41.9414,963.3591],[24.8284,41.9274,670.3303],[24.8209,41.9172,531.1423],[24.8159,41.9151,533.0267],[24.806,41.9142,615.3296],[24.7803,41.914,718.6581],[24.7666,41.9094,671.28],[24.7538,41.9073,804.6841],[24.7187,41.9095,1193.7793],[24.7042,41.9063,842.1844],[24.6818,41.8971,1030.09],[24.6845,41.8936,1049.4078],[24.6909,41.8897,851.8882],[24.7103,41.886,838.6277],[24.7233,41.8856,974.1233],[24.7357,41.8786,1134.3669],[24.7639,41.8788,911.3364],[24.7747,41.8744,1341.817],[24.782,41.8684,1219.4402],[24.7882,41.8676,1155.4301],[24.7912,41.8796,823.4443],[24.7956,41.884,896.7757],[24.8092,41.8916,616.1912],[24.8127,41.8974,754.3912],[24.8176,41.9009,864.6904],[24.8334,41.9035,1240.9515],[24.8468,41.8986,1172.601],[24.8567,41.8914,1096.724],[24.8613,41.8863,993.8001],[24.8663,41.8738,680.751],[24.8712,41.8684,1023.7177],[24.91,41.8546,1133.0181],[24.9265,41.8463,1127.5886],[24.9525,41.8229,1371.8431],[24.9699,41.8113,1475.1731],[24.9844,41.8065,1285.7717],[25.0195,41.823,1021.4373],[25.029,41.8234,886.7172],[25.04,41.8193,956.7654],[25.0592,41.8075,884.6812],[25.0617,41.8038,701.9683],[25.0637,41.7941,916.1536],[25.0707,41.7867,885.5999],[25.0895,41.7843,620.3874],[25.1019,41.7795,542.0989],[25.114,41.7775,550.3644],[25.1322,41.7834,509.5363],[25.1388,41.7877,567.0359],[25.1512,41.819,898.2166],[25.1701,41.8317,845.0314]]]]}
,"properties": {"GID_2": "BGR.14.1_1","GID_0": "BGR","country": "Bulgaria","GID_1": "BGR.14_1","state": "Plovdiv","NL_NAME_1": "Пловдив","county": "Asenovgrad","VARNAME_2": "NA","NL_NAME_2": "Асеновград","TYPE_2": "Obshtina","ENGTYPE_2": "Municipality","CC_2": "NA","HASC_2": "BG.PD.AS","name": "Asenovgrad.county","area_km2": 645.2555,"hist_schema_id": "Elevation0-9000","hist_area_km2": {"175": 14.9399,"200": 47.8979,"225": 35.6467,"250": 33.5296,"275": 37.1447,"300": 28.9885,"325": 26.2834,"350": 21.2125,"375": 17.7299,"400": 13.9614,"425": 11.8161,"450": 10.3962,"475": 9.3397,"500": 8.472,"525": 8.2362,"550": 7.7949,"575": 9.1841,"600": 8.9949,"625": 9.911,"650": 10.1643,"675": 11.0647,"700": 11.4439,"725": 11.5702,"750": 11.9819,"775": 12.0457,"800": 12.1092,"825": 12.3779,"850": 12.9629,"875": 12.5531,"900": 13.026,"925": 12.3317,"950": 11.6364,"975": 10.8481,"1000": 10.2159,"1025": 9.8842,"1050": 8.8896,"1075": 8.4793,"1100": 7.6894,"1125": 7.4362,"1150": 6.6786,"1175": 6.1889,"1200": 6.346,"1225": 6.2827,"1250": 5.4146,"1275": 5.5248,"1300": 4.9404,"1325": 5.1454,"1350": 4.3875,"1375": 4.2139,"1400": 3.5352,"1425": 2.6039,"1450": 1.7833,"1475": 1.089,"1500": 0.7575,"1525": 0.1736}}}