{"type": "Feature","bbox": [26.0749,42.9529,26.3926,43.2452],"geometry": {"type": "MultiPolygon","coordinates": [[[[26.296,43.0462,583.0342],[26.2914,43.0505,717.4869],[26.2874,43.0575,610.5211],[26.2885,43.067,504.3781],[26.3101,43.0883,476.0421],[26.3113,43.095,539.5114],[26.3092,43.1005,482.1281],[26.3098,43.1094,424.4904],[26.3248,43.1236,364.4324],[26.3257,43.1279,338.702],[26.3114,43.143,417.2618],[26.2913,43.1563,343.8446],[26.2913,43.16,376.9638],[26.2975,43.167,427.7966],[26.3063,43.1702,388.0196],[26.3334,43.1689,456.1829],[26.3758,43.1794,411.6885],[26.3904,43.1898,439.9928],[26.3926,43.1954,428.4987],[26.3852,43.2121,428.744],[26.3792,43.2171,420.8433],[26.3674,43.2234,481.9927],[26.3608,43.2328,368.6492],[26.3517,43.236,292.2621],[26.3453,43.2364,306.9341],[26.3358,43.2404,256.1742],[26.3302,43.2396,288.0136],[26.3041,43.2271,342.2287],[26.2939,43.2244,269.7871],[26.2745,43.2258,421.917],[26.2525,43.2395,391.0735],[26.2419,43.2417,367.5111],[26.2253,43.2418,370.0144],[26.1957,43.2307,347.3964],[26.1884,43.2301,338.2542],[26.1784,43.2338,385.0209],[26.1674,43.241,335.7672],[26.155,43.2452,318.0999],[26.1403,43.2399,306.8557],[26.1262,43.2309,355.1977],[26.1229,43.2278,324.0521],[26.1269,43.2206,171.9824],[26.1289,43.211,291.7925],[26.1286,43.2067,313.9178],[26.1253,43.2004,365.7568],[26.1177,43.1933,285.9926],[26.0959,43.1816,418.6295],[26.0917,43.1775,410.4442],[26.0906,43.1747,405.2678],[26.0915,43.1561,404.2171],[26.0831,43.1453,482.6035],[26.0825,43.1203,394.2644],[26.076,43.1095,206.0966],[26.0749,43.103,301.6024],[26.0753,43.0995,404.8711],[26.0852,43.082,189.6669],[26.1027,43.0604,204.0779],[26.1302,43.0444,268.5096],[26.1437,43.0403,524.341],[26.1484,43.0373,628.6492],[26.151,43.0325,579.7783],[26.1506,43.0277,516.8447],[26.1485,43.025,467.9135],[26.1158,43.0034,391.1739],[26.1147,42.9909,464.5135],[26.1206,42.9887,447.4533],[26.1372,42.9884,307.3652],[26.1471,42.9862,415.8582],[26.1856,42.9671,395.7294],[26.1941,42.9593,497.6016],[26.1973,42.9529,489.9731],[26.1994,42.9578,588.2904],[26.2052,42.9611,582.4451],[26.2449,42.9744,517.9649],[26.2635,42.9861,658.7158],[26.2754,42.9967,843.7024],[26.2821,43.0059,890.222],[26.2899,43.0372,663.7944],[26.296,43.0462,583.0342]]]]}
,"properties": {"GID_2": "BGR.23.1_1","GID_0": "BGR","country": "Bulgaria","GID_1": "BGR.23_1","state": "Targovishte","NL_NAME_1": "Търговищка","county": "Antonovo","VARNAME_2": "NA","NL_NAME_2": "Антоново","TYPE_2": "Obshtina","ENGTYPE_2": "Municipality","CC_2": "NA","HASC_2": "BG.TU.AN","name": "Antonovo.county","area_km2": 491.743,"hist_schema_id": "Elevation0-9000","hist_area_km2": {"175": 0.634,"200": 1.531,"225": 2.9377,"250": 5.2884,"275": 8.6897,"300": 14.4431,"325": 23.0594,"350": 31.3385,"375": 44.9389,"400": 61.6338,"425": 74.6345,"450": 71.2722,"475": 46.9977,"500": 27.1201,"525": 16.4088,"550": 13.7606,"575": 12.304,"600": 8.4468,"625": 6.2927,"650": 5.1921,"675": 4.1693,"700": 3.4564,"725": 2.7902,"750": 1.5348,"775": 1.3489,"800": 0.7908,"825": 0.4341,"850": 0.1705,"875": 0.0775,"900": 0.0465}}}