{"type":"Feature","properties":{"GID_2":"BGR.8.6_1","GID_0":"BGR","country":"Bulgaria","GID_1":"BGR.8_1","state":"Kyustendil","NL_NAME_1":"Кюстендил","county":"Nevestino","VARNAME_2":"NA","NL_NAME_2":"NA","TYPE_2":"Obshtina","ENGTYPE_2":"Municipality","CC_2":"NA","HASC_2":"BG.KY.NE","name":"Nevestino.county"},
"geometry":{"type": "MultiPolygon","coordinates": [[[[22.9008,42.0625,1131.0486],[22.8731,42.0615,1097.6455],[22.8648,42.0682,968.0249],[22.8607,42.0765,1026.2527],[22.8646,42.0876,1145.4714],[22.8707,42.0973,1016.4715],[22.8728,42.1089,1071.1245],[22.8824,42.1171,1013.8333],[22.8788,42.1286,913.3438],[22.8799,42.1325,1028.9031],[22.8966,42.1545,994.8665],[22.9053,42.1626,1000.6597],[22.9154,42.1862,818.808],[22.9269,42.1994,516.9158],[22.9157,42.1998,457.0746],[22.9147,42.2015,468.2891],[22.9226,42.2159,696.4294],[22.9218,42.2246,707.6946],[22.9185,42.2332,595.9899],[22.9189,42.2407,599.6534],[22.9302,42.2569,620.7352],[22.9314,42.2659,590.0053],[22.9255,42.2759,533.1794],[22.9105,42.2872,619.3281],[22.9042,42.2942,675.469],[22.9008,42.3002,692.544],[22.8978,42.3152,721.1056],[22.8798,42.3125,653.3563],[22.8676,42.3061,603.4524],[22.8612,42.3001,591.19],[22.8448,42.275,536.9763],[22.8276,42.2622,447.2216],[22.7732,42.2383,583.4197],[22.7305,42.2156,807.9266],[22.7226,42.214,1027.9087],[22.7167,42.2108,1048.4128],[22.6843,42.1599,1041.886],[22.6765,42.1531,1115.6611],[22.6642,42.1465,1306.1256],[22.6601,42.1299,1325.625],[22.6505,42.1177,949.2994],[22.646,42.1145,1121.7938],[22.6345,42.1221,1223.5524],[22.6294,42.1208,1111.8655],[22.6176,42.1037,1493.5342],[22.6008,42.0835,1305.8433],[22.611,42.0808,1430.9487],[22.6151,42.0765,1243.8796],[22.6246,42.0717,1089.7032],[22.6277,42.0678,1074.8586],[22.631,42.0671,1140.9131],[22.6311,42.0637,1105.2087],[22.6456,42.057,1030.0502],[22.6505,42.0567,1000.8696],[22.6574,42.0507,908.6795],[22.6795,42.0493,913.3604],[22.6962,42.0525,980.5798],[22.7006,42.0549,989.9643],[22.6995,42.0489,904.205],[22.7058,42.044,859.1874],[22.7091,42.0435,829.9643],[22.7094,42.0404,897.215],[22.7138,42.0337,838.4709],[22.7208,42.0302,773.975],[22.7309,42.0316,801.9794],[22.7338,42.029,781.8803],[22.7428,42.0278,786.1105],[22.7583,42.0216,789.8358],[22.7697,42.0229,859.8591],[22.7739,42.0264,931.4466],[22.7756,42.0315,906.1817],[22.7871,42.0169,880.8702],[22.7955,42.009,926.4566],[22.8003,42.0064,828.486],[22.8108,42.0049,799.0565],[22.8193,42.0057,797.4883],[22.8258,42.0094,887.4598],[22.8328,42.006,854.3365],[22.8791,42.0137,916.3893],[22.8905,42.0173,971.7492],[22.8969,42.0243,1091.2007],[22.9,42.0316,1087.3413],[22.9008,42.0625,1131.0486]]]]}}