{"type": "Feature","id": "2262","bbox": [25.46483,43.31885,26.39625,44.05493],"geometry": {"type": "Polygon","coordinates": [[[26.39625,43.94957,56.783],[26.38281,43.98925,29.8172],[26.3762,44.01948,14.9106],[26.34964,44.02227,29.8389],[26.33455,44.04532,15.2004],[26.33234,44.05493,12.9634],[26.31052,44.05261,13.0789],[26.23145,44.02749,13.5471],[26.15073,44.01241,16.9401],[26.11621,43.99887,20.7043],[26.07932,43.96905,16.1945],[26.06164,43.94977,18.3193],[26.05431,43.93432,23.9091],[25.934,43.87032,19.9627],[25.92449,43.85862,17.7275],[25.91643,43.84438,16.7791],[25.8693,43.80089,15.8619],[25.83933,43.78844,16.2905],[25.80626,43.76366,16.6498],[25.8044,43.75991,16.287],[25.78114,43.73201,21.7904],[25.7396,43.71893,17.1459],[25.73295,43.71878,17.7349],[25.67138,43.71736,17.7357],[25.6535,43.70813,18.2819],[25.6379,43.69728,17.7773],[25.6165,43.68775,17.8561],[25.59387,43.68067,17.7148],[25.57506,43.67739,19.3685],[25.55656,43.67036,18.734],[25.53382,43.66868,19.5803],[25.48876,43.67054,19.0656],[25.48245,43.66971,19.3946],[25.48985,43.65837,19.4353],[25.50824,43.61444,17.3053],[25.48674,43.57998,88.9519],[25.46483,43.56742,78.2884],[25.4701,43.54587,84.3168],[25.52106,43.51765,129.5994],[25.52281,43.50536,92.6423],[25.53821,43.50349,70.9179],[25.55186,43.51481,141.3035],[25.56684,43.50835,79.6154],[25.55713,43.48021,108.7014],[25.5501,43.45327,131.2113],[25.6057,43.41257,157.5082],[25.66275,43.39668,35.6313],[25.67567,43.41502,32.5819],[25.69975,43.41513,36.1054],[25.70782,43.40355,117.2215],[25.72311,43.40376,124.1404],[25.7381,43.39162,211.5427],[25.75784,43.37823,336.0752],[25.79174,43.37113,288.8096],[25.82626,43.36877,182.9614],[25.8522,43.36433,260.8043],[25.87835,43.36511,291.7939],[25.90646,43.37572,282.3229],[25.9354,43.37521,307.7569],[25.94057,43.35368,229.6112],[25.94935,43.33025,335.1995],[25.98408,43.32064,263.3819],[26.02046,43.31885,339.1026],[26.02222,43.34146,325.4865],[26.0188,43.3634,406.4456],[25.99617,43.37131,425.6639],[25.9694,43.37384,373.938],[25.95173,43.39404,323.5778],[25.94615,43.41658,297.2081],[25.97064,43.42179,254.953],[25.99648,43.4357,307.5012],[26.01963,43.45332,355.9655],[26.03389,43.47505,321.0367],[26.03917,43.50727,183.1182],[26.07048,43.51781,122.8368],[26.09405,43.53093,211.4561],[26.11689,43.52747,300.4145],[26.13911,43.53088,337.3127],[26.16433,43.52742,343.8078],[26.18417,43.53595,227.9602],[26.16236,43.56212,216.3625],[26.16557,43.59677,272.3212],[26.16371,43.6045,269.628],[26.16154,43.61155,266.1877],[26.16691,43.61548,243.214],[26.17104,43.62072,206.8193],[26.16856,43.64354,170.7453],[26.17993,43.66162,181.2492],[26.19285,43.65354,161.6148],[26.20629,43.64354,193.3663],[26.2436,43.66395,160.8981],[26.29527,43.65837,151.7668],[26.3085,43.67434,224.3401],[26.32225,43.69645,241.4978],[26.34251,43.70439,231.156],[26.33992,43.74508,219.1174],[26.3578,43.76294,131.3189],[26.33351,43.77252,169.1057],[26.30334,43.77443,185.7104],[26.25156,43.79211,155.5977],[26.25393,43.83211,99.5686],[26.29951,43.85272,144.664],[26.32153,43.89016,92.6641],[26.39625,43.94957,56.783]]]}
,"properties": {"ISO3166-1-Alpha-3": "BGR","country": "Bulgaria","fill": "#FF0","name": "Ruse","area_km2": 2831.778,"hist_schema_id": "Elevation0-9000","hist_area_km2": {"0": 29.427,"25": 493.8,"50": 191.552,"75": 168.766,"100": 206.636,"125": 269.597,"150": 353.411,"175": 302.913,"200": 244.767,"225": 197.787,"250": 142.661,"275": 105.445,"300": 59.922,"325": 33.338,"350": 18.876,"375": 7.703,"400": 3.792,"425": 1.357,"450": 0.031}}}