{"type":"Feature","properties":{"GID_1":"BGR.16_1","GID_0":"BGR","country":"Bulgaria","state":"Ruse","VARNAME_1":"Russe|Ruščuk|Rustchuk","NL_NAME_1":"Русенска","TYPE_1":"Oblast","ENGTYPE_1":"Province","CC_1":"NA","HASC_1":"BG.RS","ISO_1":"BG-18","name":"Ruse.state"},
"geometry":{"type": "MultiPolygon","coordinates": [[[[25.9567,43.416,289.6984],[25.9723,43.4188,274.8417],[25.9845,43.4229,234.3561],[25.9937,43.4277,248.9795],[26.0014,43.4342,364.3838],[26.0116,43.454,341.0487],[26.0314,43.4733,327.7097],[26.0381,43.4829,361.0501],[26.0403,43.4942,313.5705],[26.0383,43.509,181.1642],[26.0413,43.5178,124.6155],[26.047,43.5248,117.7589],[26.0702,43.5276,179.9987],[26.0887,43.5331,190.6468],[26.1182,43.5371,302.4025],[26.1028,43.5538,294.6086],[26.0988,43.5636,244.6543],[26.092,43.5733,259.3545],[26.0793,43.5822,241.08],[26.0636,43.5882,210.2514],[26.0599,43.5912,253.8558],[26.0601,43.5946,247.6528],[26.0705,43.6021,196.7032],[26.0721,43.6084,132.7214],[26.0711,43.6116,96.4173],[26.0622,43.6213,125.6104],[26.0543,43.6345,172.5851],[26.0536,43.6402,147.5896],[26.0555,43.6419,118.3899],[26.0588,43.6433,129.0217],[26.09,43.6443,223.5212],[26.0951,43.6467,217.0256],[26.1024,43.6533,185.5847],[26.1074,43.6552,156.5115],[26.138,43.6568,134.1198],[26.1445,43.6616,147.7736],[26.1505,43.6696,168.1902],[26.1654,43.6741,141.5189],[26.1833,43.6717,171.6601],[26.2006,43.6659,160.2872],[26.2077,43.6656,191.9039],[26.2169,43.6687,184.436],[26.2262,43.6695,162.9715],[26.248,43.6674,200.2017],[26.2644,43.6604,182.2298],[26.2937,43.6422,231.8787],[26.2996,43.6401,257.583],[26.3231,43.6476,174.8518],[26.3467,43.6509,164.5195],[26.3698,43.6516,197.5865],[26.4312,43.6478,292.8483],[26.4861,43.6489,309.2471],[26.5098,43.6555,284.0756],[26.5274,43.6686,262.0593],[26.5436,43.6929,283.2383],[26.5504,43.708,285.8358],[26.5525,43.729,268.7269],[26.5507,43.7392,253.4221],[26.5547,43.7543,246.2156],[26.5208,43.7745,198.1101],[26.496,43.7771,220.3232],[26.455,43.7856,193.4471],[26.4416,43.792,160.0684],[26.4253,43.8067,203.654],[26.4191,43.8085,215.1322],[26.4096,43.8066,200.4812],[26.3988,43.7998,215.5089],[26.396,43.7998,214.6567],[26.3912,43.8061,173.6194],[26.3863,43.8072,186.621],[26.3819,43.8058,189.6108],[26.3796,43.8022,182.6337],[26.375,43.8,200.9922],[26.3628,43.8015,176.1024],[26.3439,43.7981,143.644],[26.3023,43.7979,151.7172],[26.2697,43.7959,120.8513],[26.2643,43.7971,120.1342],[26.2514,43.8038,149.3252],[26.2393,43.8113,138.898],[26.2347,43.8171,148.1217],[26.233,43.8258,133.9474],[26.2404,43.8397,138.023],[26.2446,43.844,133.0535],[26.2477,43.8534,102.6076],[26.2571,43.8548,105.8247],[26.2713,43.8653,110.1838],[26.3058,43.8674,113.4446],[26.3133,43.8759,134.4156],[26.312,43.8886,131.1292],[26.3166,43.8939,133.6965],[26.3157,43.9049,69.1353],[26.3198,43.9111,86.1469],[26.3274,43.9179,66.5576],[26.3383,43.924,63.1264],[26.3454,43.9342,69.1394],[26.3793,43.9499,61.9783],[26.3876,43.9589,45.8862],[26.3754,43.9731,42.742],[26.3733,43.9817,29.409],[26.3879,43.993,28.6483],[26.3967,44.0031,18.0284],[26.3948,44.0084,15.0243],[26.3924,44.0104,15.1317],[26.3566,44.0235,15.9684],[26.3444,44.0344,10.5],[26.3078,44.0254,11.0],[26.3063,44.0269,11.0],[26.2812,44.0118,11.0],[26.2818,44.0105,11.0],[26.2541,44.002,11.0],[26.2451,44.0007,18.7996],[26.2287,43.9941,11.0],[26.1933,43.9835,11.0],[26.1816,43.9835,26.7245],[26.1812,43.9853,11.5],[26.1485,43.9845,11.5],[26.1164,43.9744,11.5],[26.1034,43.9637,11.5],[26.0943,43.953,14.1175],[26.0966,43.9516,31.2382],[26.0735,43.933,12.0],[26.0492,43.9048,26.3237],[26.0443,43.9013,13.0],[26.0144,43.89,13.5],[26.0028,43.8839,14.0],[26.0012,43.8856,14.0],[25.9853,43.8763,14.0],[25.9781,43.8703,14.0],[25.9614,43.8639,14.0],[25.9427,43.8514,14.0],[25.9414,43.8521,14.0],[25.9201,43.8287,14.0],[25.912,43.8119,14.0],[25.9094,43.8132,14.0],[25.8887,43.7954,14.0],[25.8828,43.7865,14.0],[25.8858,43.7838,14.5117],[25.8565,43.7611,14.0],[25.8474,43.7567,14.0],[25.8253,43.7501,14.0],[25.8231,43.752,14.0],[25.8131,43.7461,14.0],[25.8028,43.7369,14.0],[25.794,43.7207,14.0],[25.7817,43.7107,14.0],[25.7433,43.6952,14.0],[25.7274,43.6914,14.0],[25.7205,43.6903,14.0],[25.7196,43.6919,14.0],[25.6813,43.6919,14.0],[25.6667,43.6901,14.0],[25.6503,43.6828,14.0],[25.6421,43.6778,14.0],[25.6427,43.6769,14.0],[25.6115,43.6675,14.0],[25.5725,43.6474,14.0],[25.5648,43.6452,14.0],[25.5466,43.6447,14.0],[25.5462,43.6433,14.0],[25.516,43.6454,14.0],[25.5154,43.6467,14.0],[25.5109,43.6452,14.0],[25.5098,43.6472,14.0],[25.5039,43.6459,14.0],[25.527,43.6288,17.7465],[25.5313,43.6221,17.5058],[25.5324,43.6142,17.8403],[25.5256,43.6058,75.4064],[25.5036,43.5963,136.788],[25.4948,43.5887,91.9412],[25.4945,43.58,47.192],[25.5029,43.5638,33.3464],[25.5171,43.5534,114.0708],[25.5231,43.532,176.8633],[25.5259,43.5288,159.3767],[25.5352,43.5254,159.0499],[25.5437,43.5135,119.4128],[25.5438,43.5103,112.052],[25.5616,43.504,76.5923],[25.5886,43.504,60.0449],[25.5891,43.5026,74.9541],[25.589,43.4817,96.3932],[25.5865,43.4701,104.5852],[25.590699999999998,43.4539,171.008],[25.5731,43.4393,134.2141],[25.5743,43.4356,132.4216],[25.579,43.4315,108.3365],[25.5997,43.4226,141.0444],[25.6218,43.4184,152.3135],[25.63,43.4111,110.6025],[25.6665,43.402,37.1454],[25.6708,43.3988,33.007],[25.6792,43.3962,61.8279],[25.6841,43.3958,78.2893],[25.6909,43.3982,91.2127],[25.7022,43.4102,83.2511],[25.709,43.413,90.308],[25.7179,43.4127,83.8615],[25.7241,43.4089,104.9629],[25.7557,43.3809,337.6896],[25.7859,43.3694,241.8391],[25.7989,43.3712,268.2032],[25.8258,43.3792,200.9238],[25.8741,43.3693,362.9238],[25.8954,43.3696,338.3242],[25.9288,43.381,333.7041],[25.9426,43.3817,258.3523],[25.9516,43.3777,333.0192],[25.9586,43.3617,284.1812],[25.9615,43.3472,314.7187],[25.9681,43.3349,234.778],[25.9719,43.3326,233.41],[26.0011,43.327,253.4626],[26.0269,43.328,313.9951],[26.0247,43.3423,323.964],[26.0292,43.363,425.2372],[26.0272,43.3718,427.2528],[26.0097,43.3838,430.8138],[25.9777,43.3949,302.3665],[25.9564,43.4109,282.0689],[25.9553,43.4132,279.1992],[25.9567,43.416,289.6984]]]]}}