{"type": "Feature","bbox": [25.645,43.4719,25.8793,43.7118],"geometry": {"type": "MultiPolygon","coordinates": [[[[25.8754,43.477,148.7323],[25.8793,43.485,213.3048],[25.8789,43.49,254.5599],[25.8642,43.5016,246.8407],[25.8591,43.5129,277.3737],[25.8581,43.52,250.9903],[25.8467,43.5382,284.2171],[25.8422,43.5492,266.4821],[25.844,43.5613,226.7001],[25.8519,43.5721,213.6833],[25.85,43.5876,177.5774],[25.8547,43.6071,178.2831],[25.8678,43.6317,184.3456],[25.8666,43.644,137.0554],[25.8624,43.6533,127.7464],[25.8416,43.6807,139.4857],[25.8299,43.6879,96.753],[25.8095,43.6891,91.3438],[25.8018,43.691,56.4902],[25.7962,43.6946,55.3231],[25.7898,43.7016,35.828],[25.7835,43.7118,14.0],[25.7357,43.6929,14.0],[25.7205,43.6903,14.0],[25.719,43.692,14.0],[25.6732,43.6916,14.0],[25.6577,43.6865,14.0],[25.645,43.6796,14.0],[25.6598,43.6645,17.042],[25.6684,43.6583,140.6604],[25.6713,43.6472,103.5536],[25.6922,43.6303,188.3269],[25.7151,43.6152,115.8021],[25.7362,43.6094,180.4295],[25.747,43.605,229.2265],[25.7581,43.5977,234.7216],[25.7612,43.5932,227.6225],[25.7608,43.5885,199.6058],[25.7549,43.58,222.4158],[25.7536,43.5694,185.0371],[25.749,43.5634,220.7136],[25.7464,43.5562,215.6777],[25.7476,43.5456,259.9598],[25.7554,43.5364,213.3445],[25.7781,43.5277,275.371],[25.7876,43.522,267.4267],[25.7945,43.5006,243.8825],[25.8003,43.4947,262.3714],[25.8036,43.4842,276.997],[25.8093,43.4765,255.7774],[25.8164,43.4736,273.2445],[25.8351,43.4777,231.4817],[25.8514,43.4719,202.1809],[25.8643,43.4766,153.5439],[25.8754,43.477,148.7323]]]]}
,"properties": {"GID_2": "BGR.16.1_1","GID_0": "BGR","country": "Bulgaria","GID_1": "BGR.16_1","state": "Ruse","NL_NAME_1": "Русенска","county": "Borovo","VARNAME_2": "NA","NL_NAME_2": "Борово","TYPE_2": "Obshtina","ENGTYPE_2": "Municipality","CC_2": "NA","HASC_2": "BG.RS.BO","name": "Borovo.county","area_km2": 239.8892,"hist_schema_id": "Elevation0-9000","hist_area_km2": {"25": 20.1309,"50": 2.0087,"75": 7.744,"100": 13.6191,"125": 19.6042,"150": 27.9542,"175": 43.6463,"200": 27.4114,"225": 24.7517,"250": 27.6184,"275": 20.0178,"300": 5.3823}}}