{"type":"Feature","properties":{"GID_2":"BGR.7.1_1","GID_0":"BGR","country":"Bulgaria","GID_1":"BGR.7_1","state":"Kardzhali","NL_NAME_1":"Кърджалийска","county":"Ardino","VARNAME_2":"Eğridere","NL_NAME_2":"Ардино","TYPE_2":"Obshtina","ENGTYPE_2":"Municipality","CC_2":"NA","HASC_2":"BG.KZ.AR","name":"Ardino.county"},
"geometry":{"type": "MultiPolygon","coordinates": [[[[25.1006,41.7186,1149.0505],[25.0998,41.7143,1143.9113],[25.1054,41.7008,853.041],[25.1059,41.6944,702.1189],[25.124,41.6663,594.4381],[25.1301,41.6597,526.9968],[25.1306,41.6548,458.1577],[25.1213,41.6415,529.0256],[25.1208,41.6344,618.7689],[25.1275,41.6129,643.4667],[25.1223,41.6033,831.5729],[25.1145,41.5959,1009.7618],[25.0915,41.5835,976.3035],[25.0818,41.5821,865.9709],[25.0359,41.5817,759.3548],[25.0239,41.5801,728.9723],[25.015,41.5765,862.2969],[25.0112,41.5658,742.9669],[25.0117,41.5575,564.8977],[25.0155,41.5507,642.4685],[25.0364,41.5313,703.1584],[25.0396,41.5208,753.4373],[25.0388,41.5115,704.4281],[25.0687,41.493899999999996,864.1813],[25.1018,41.4942,852.7763],[25.1152,41.4964,817.8237],[25.1332,41.5032,895.7488],[25.1626,41.5056,846.3284],[25.1762,41.5027,813.7144],[25.1892,41.4913,801.3669],[25.2059,41.5051,601.7794],[25.2243,41.5071,530.8275],[25.2295,41.5105,526.1132],[25.2323,41.5147,433.7406],[25.2314,41.5249,651.664],[25.2369,41.534,616.1266],[25.2412,41.5371,593.0945],[25.2498,41.5391,679.0062],[25.2582,41.5381,579.9784],[25.2628,41.5355,559.8731],[25.2727,41.5353,453.2762],[25.2777,41.539,504.1661],[25.2792,41.5443,450.0652],[25.2772,41.5554,543.3107],[25.2812,41.5703,558.5467],[25.2798,41.5748,563.3213],[25.2747,41.5764,597.1652],[25.249,41.576,634.0164],[25.2392,41.5773,700.0093],[25.2348,41.5818,631.4667],[25.2333,41.5908,610.6215],[25.2462,41.6085,708.7742],[25.2541,41.6135,726.2927],[25.256,41.6175,630.2077],[25.2675,41.6297,580.5269],[25.2747,41.636,555.8091],[25.2986,41.6489,318.5],[25.3002,41.6517,369.7845],[25.2997,41.6554,376.8561],[25.2915,41.66,318.5],[25.27,41.6655,339.1052],[25.2661,41.6682,318.5],[25.2504,41.6862,531.4042],[25.2374,41.7064,429.1135],[25.2253,41.7152,323.0953],[25.2186,41.717,513.3954],[25.1767,41.7151,914.3156],[25.1665,41.7174,860.679],[25.1469,41.7289,696.7134],[25.1352,41.725,716.7618],[25.1126,41.7286,1045.52],[25.1101,41.728,1062.7566],[25.1006,41.7186,1149.0505]]]]}}