{"type": "Feature","bbox": [24.0863,42.7471,24.5242,43.0762],"geometry": {"type": "MultiPolygon","coordinates": [[[[24.2438,43.0762,315.5031],[24.2342,43.0669,328.1366],[24.2222,43.059,322.3498],[24.2082,43.0583,305.0635],[24.1963,43.0548,350.6503],[24.1802,43.0611,324.0756],[24.1741,43.0619,340.8146],[24.1628,43.0593,401.1759],[24.1561,43.0553,403.9209],[24.15,43.0488,492.6436],[24.1457,43.0412,498.9244],[24.1427,43.0284,522.8714],[24.1528,43.002,490.7441],[24.1612,42.9905,478.1765],[24.1601,42.9869,490.4054],[24.1549,42.9859,598.5796],[24.1447,42.9876,562.3725],[24.1385,42.985,580.1036],[24.1307,42.9842,537.5135],[24.1259,42.9888,582.9225],[24.1215,43.0015,483.499],[24.1154,43.0105,485.3766],[24.108,43.0115,532.3912],[24.0977,43.0074,501.1642],[24.0866,43.0074,430.273],[24.0863,42.9905,508.3096],[24.0906,42.9714,506.0176],[24.0991,42.9666,442.9458],[24.1036,42.9606,438.925],[24.1135,42.9529,487.0356],[24.1217,42.9483,505.8847],[24.1377,42.9448,713.1295],[24.1619,42.9425,599.3169],[24.167,42.9386,603.0699],[24.1655,42.9355,598.5366],[24.1498,42.9309,595.0609],[24.1427,42.927,704.4183],[24.1404,42.9217,789.9998],[24.1405,42.9161,816.4935],[24.1428,42.9082,731.8201],[24.1481,42.9021,767.5003],[24.1557,42.8978,713.952],[24.1701,42.894,711.1185],[24.1743,42.8896,821.4728],[24.1731,42.8791,779.7227],[24.1639,42.8697,627.3632],[24.1635,42.8613,677.5031],[24.1654,42.8519,832.5974],[24.17,42.8466,785.7896],[24.1852,42.8399,719.9198],[24.1864,42.8345,738.4779],[24.1853,42.8292,605.4195],[24.1757,42.8206,836.9535],[24.1788,42.8104,1002.0518],[24.1776,42.8039,852.2326],[24.1742,42.801,936.4664],[24.157,42.7973,1076.4159],[24.1479,42.7902,1276.3251],[24.1463,42.7846,1374.6862],[24.1502,42.7809,1520.0035],[24.1559,42.7783,1452.8735],[24.2131,42.7693,1615.728],[24.2414,42.7729,2008.8776],[24.2807,42.7736,2027.818],[24.3202,42.7579,1949.2106],[24.3619,42.7564,1700.5811],[24.382,42.7471,1926.4272],[24.3894,42.7471,1933.536],[24.4193,42.7547,1978.1992],[24.4592,42.7492,1761.7262],[24.467,42.7509,1668.1917],[24.4832,42.7677,1707.2974],[24.4939,42.7848,1308.0156],[24.5046,42.7924,1579.9346],[24.5023,42.8042,1390.6069],[24.5035,42.812,1190.8137],[24.5088,42.8193,1100.0516],[24.5224,42.8269,1035.2037],[24.5242,42.8298,878.3578],[24.5232,42.8361,1100.4698],[24.5174,42.8436,1080.3044],[24.5008,42.8569,1055.9736],[24.4949,42.8641,1190.1447],[24.4886,42.8766,1245.6101],[24.4809,42.8814,1405.0142],[24.4479,42.8928,1436.5718],[24.4217,42.8982,1238.859],[24.3906,42.9001,940.757],[24.3826,42.902,966.4902],[24.3692,42.9082,1195.2198],[24.3603,42.917,956.7013],[24.3495,42.9245,1005.4852],[24.3212,42.9337,726.4374],[24.3115,42.9399,1034.4519],[24.3044,42.9491,1176.1012],[24.3044,42.9612,858.7826],[24.307,42.9645,756.5881],[24.3232,42.9694,819.2042],[24.3302,42.9732,683.7054],[24.3341,42.9761,617.9165],[24.3419,42.9866,555.0483],[24.3423,42.99,591.0269],[24.3339,43.0077,463.6995],[24.3317,43.0179,379.1274],[24.3326,43.0246,328.4314],[24.3308,43.0287,310.3085],[24.3265,43.037,315.2378],[24.3147,43.0491,420.0157],[24.2978,43.0603,332.7962],[24.2888,43.065,338.3481],[24.2438,43.0762,315.5031]]]]}
,"properties": {"GID_2": "BGR.9.5_1","GID_0": "BGR","country": "Bulgaria","GID_1": "BGR.9_1","state": "Lovech","NL_NAME_1": "Ловеч","county": "Teteven","VARNAME_2": "NA","NL_NAME_2": "Тетевен","TYPE_2": "Obshtina","ENGTYPE_2": "Municipality","CC_2": "NA","HASC_2": "BG.LV.TE","name": "Teteven.county","area_km2": 700.6566,"hist_schema_id": "Elevation0-9000","hist_area_km2": {"225": 0.6195,"250": 5.4382,"275": 8.4607,"300": 10.0885,"325": 9.9811,"350": 10.153,"375": 10.5258,"400": 10.1247,"425": 10.2501,"450": 11.4466,"475": 13.1546,"500": 15.2501,"525": 16.6322,"550": 17.1782,"575": 17.9571,"600": 17.5253,"625": 18.1331,"650": 19.0351,"675": 19.6729,"700": 19.6267,"725": 19.8459,"750": 20.051,"775": 21.1549,"800": 20.9076,"825": 20.6777,"850": 19.3587,"875": 18.7239,"900": 18.6161,"925": 18.9285,"950": 18.649,"975": 18.5873,"1000": 16.4905,"1025": 15.902,"1050": 15.0946,"1075": 14.6445,"1100": 11.8006,"1125": 12.2521,"1150": 10.2468,"1175": 10.1233,"1200": 7.8538,"1225": 8.5697,"1250": 7.2482,"1275": 6.7824,"1300": 5.9426,"1325": 5.6785,"1350": 5.1962,"1375": 5.1965,"1400": 5.0253,"1425": 4.4342,"1450": 4.2637,"1475": 3.548,"1500": 4.2016,"1525": 3.8594,"1550": 4.0773,"1575": 3.9373,"1600": 3.5483,"1625": 2.7392,"1650": 2.3812,"1675": 2.5524,"1700": 2.2568,"1725": 2.0856,"1750": 1.6499,"1775": 1.5876,"1800": 1.4164,"1825": 1.323,"1850": 1.1051,"1875": 1.2608,"1900": 1.0273,"1925": 1.1674,"1950": 1.0896,"1975": 0.8405,"2000": 0.7939,"2025": 0.8561,"2050": 0.3425,"2075": 0.3114,"2100": 0.2647,"2125": 0.218,"2150": 0.2802,"2175": 0.4203,"2200": 0.0156}}}