{"type": "Feature","id": "2249","bbox": [25.07251,42.75739,26.17197,43.69039],"geometry": {"type": "Polygon","coordinates": [[[25.40313,43.65005,20.8632],[25.35962,43.65429,34.4542],[25.32303,43.66971,19.5081],[25.28872,43.68896,19.2218],[25.2854,43.69039,19.8567],[25.28252,43.68441,20.1256],[25.25565,43.6723,23.0849],[25.23115,43.6561,21.7848],[25.2173,43.61568,19.3794],[25.18743,43.58912,20.9271],[25.19519,43.55817,36.1658],[25.21162,43.5562,29.3959],[25.21937,43.54664,31.8971],[25.19674,43.51153,161.5224],[25.1678,43.48484,162.3151],[25.13596,43.46169,99.8412],[25.14754,43.44035,118.8036],[25.19033,43.44205,121.4882],[25.19911,43.40601,189.349],[25.2203,43.37415,175.312],[25.22568,43.33653,78.2682],[25.18413,43.30749,111.9816],[25.16604,43.29844,140.2447],[25.14961,43.28713,151.1982],[25.13069,43.28284,178.8182],[25.11157,43.27989,184.3604],[25.11653,43.21524,359.1041],[25.07251,43.18109,438.5289],[25.0786,43.16186,465.8018],[25.10062,43.15013,452.9077],[25.11746,43.12473,364.4106],[25.14372,43.10964,181.0],[25.27911,43.10796,387.503],[25.29347,43.08665,399.4213],[25.30681,43.06011,462.1925],[25.33285,43.05122,332.1634],[25.39776,43.04574,257.4462],[25.46762,43.04781,355.8691],[25.49863,43.04071,455.1851],[25.5594,43.03321,164.8264],[25.57645,42.99428,328.724],[25.5533,42.93908,510.215],[25.5962,42.90764,714.8329],[25.61583,42.90338,612.9662],[25.62761,42.88852,519.7169],[25.6272,42.86235,470.9059],[25.61852,42.83909,522.6319],[25.59723,42.80783,695.4725],[25.62007,42.76695,781.5394],[25.64353,42.76561,868.2126],[25.6612,42.75739,789.7742],[25.6766,42.76496,652.3181],[25.69521,42.77633,662.322],[25.73169,42.78881,793.5654],[25.74978,42.78444,750.6819],[25.76859,42.7824,1061.5553],[25.78967,42.78509,1131.2086],[25.81086,42.78282,1139.2329],[25.85644,42.7839,1078.057],[25.9016,42.79121,1014.6431],[25.96734,42.78421,1447.3765],[25.98966,42.79635,1043.231],[26.01033,42.81346,902.5638],[26.03348,42.81734,990.3625],[26.05684,42.81723,957.0894],[26.06914,42.83938,803.3158],[26.06686,42.86829,703.2359],[26.08226,42.88606,576.1074],[26.10614,42.89126,487.873],[26.14955,42.90984,432.4664],[26.17197,42.94906,440.357],[26.13559,42.97076,557.0014],[26.09456,42.97748,676.3585],[26.08939,43.00006,484.8558],[26.11131,43.01378,372.9797],[26.11213,43.02681,538.9179],[26.09839,43.03035,672.9062],[26.0864,43.03954,429.8409],[26.08164,43.05476,264.6993],[26.07017,43.07706,362.8475],[26.05725,43.09845,210.7852],[26.05911,43.12238,366.4667],[26.07307,43.14414,411.098],[26.07276,43.16135,322.3369],[26.07916,43.17581,400.8889],[26.09374,43.17574,416.8609],[26.10769,43.17793,392.233],[26.09622,43.21488,183.8116],[26.06345,43.24656,139.5953],[26.06521,43.26878,221.8225],[26.08629,43.28542,297.1155],[26.0588,43.30821,247.6697],[26.02046,43.31885,339.1026],[25.98408,43.32064,263.3819],[25.94935,43.33025,335.1995],[25.94057,43.35368,229.6112],[25.9354,43.37521,307.7569],[25.90646,43.37572,282.3229],[25.87835,43.36511,291.7939],[25.8522,43.36433,260.8043],[25.82626,43.36877,182.9614],[25.79174,43.37113,288.8096],[25.75784,43.37823,336.0752],[25.7381,43.39162,211.5427],[25.72311,43.40376,124.1404],[25.70782,43.40355,117.2215],[25.69975,43.41513,36.1054],[25.67567,43.41502,32.5819],[25.66275,43.39668,35.6313],[25.6057,43.41257,157.5082],[25.5501,43.45327,131.2113],[25.55713,43.48021,108.7014],[25.56684,43.50835,79.6154],[25.55186,43.51481,141.3035],[25.53821,43.50349,70.9179],[25.52281,43.50536,92.6423],[25.52106,43.51765,129.5994],[25.4701,43.54587,84.3168],[25.46483,43.56742,78.2884],[25.48674,43.57998,88.9519],[25.50824,43.61444,17.3053],[25.48985,43.65837,19.4353],[25.48245,43.66971,19.3946],[25.46742,43.66775,18.7306],[25.42608,43.65439,19.4044],[25.40313,43.65005,20.8632]]]}
,"properties": {"ISO3166-1-Alpha-3": "BGR","country": "Bulgaria","fill": "#000","name": "Veliko Tarnovo","area_km2": 4730.531,"hist_schema_id": "Elevation0-9000","hist_area_km2": {"25": 147.512,"50": 193.371,"75": 322.143,"100": 412.176,"125": 440.092,"150": 417.648,"175": 350.416,"200": 271.28,"225": 226.478,"250": 195.88,"275": 184.047,"300": 178.473,"325": 167.685,"350": 145.482,"375": 123.306,"400": 108.581,"425": 100.389,"450": 91.432,"475": 79.668,"500": 63.057,"525": 57.266,"550": 51.965,"575": 47.625,"600": 44.852,"625": 42.451,"650": 39.736,"675": 39.523,"700": 34.648,"725": 30.191,"750": 25.093,"775": 20.462,"800": 16.746,"825": 13.418,"850": 10.527,"875": 7.355,"900": 5.257,"925": 3.811,"950": 3.127,"975": 2.722,"1000": 2.349,"1025": 2.116,"1050": 1.665,"1075": 1.322,"1100": 0.996,"1125": 0.856,"1150": 0.638,"1175": 0.685,"1200": 0.731,"1225": 0.716,"1250": 0.482,"1275": 0.327,"1300": 0.389,"1325": 0.451,"1350": 0.436,"1375": 0.265,"1400": 0.124,"1425": 0.078}}}