{"type":"Feature","properties":{"featurecla":"River","scalerank":2,"rivernum":25,"dissolve":"25River","name":"Danube4","name_alt":null,"note":null,"min_zoom":2.1,"strokeweig":0.8,"name_en":"Danube","min_label":3.1},
"geometry":{"type": "LineString","coordinates": [[24.430566406250023,43.79437897343162,42.6822],[24.465722656250023,43.80267975468162,45.6804],[24.499658203125023,43.79975006718162,44.0883],[24.705078125,43.74396393436912,32.6819],[24.752099609375023,43.73908112186912,28.5154],[24.963134765625,43.749872137494116,23.4137],[25.0810546875,43.71918366093162,21.0213],[25.210693359375,43.71210358280662,19.843],[25.251855468750023,43.70490143436912,20.1831],[25.288183593750006,43.68927643436912,19.9434],[25.322363281250006,43.669940496869117,19.5081],[25.358984375,43.65448639530662,34.4542],[25.402587890625,43.65033600468162,20.8632],[25.425390625,43.65460846561912,19.4044],[25.466894531250006,43.667987371869117,18.7306],[25.48828125,43.670770574994116,19.0656],[25.533300781250006,43.668963934369117,18.9617],[25.556054687500023,43.670672918744117,18.8469],[25.574609375000023,43.677606512494116,19.6979],[25.593359375,43.680926824994117,17.7148],[25.615966796875,43.688006903119117,17.8561],[25.637451171875,43.69757721561912,17.7773],[25.653076171875,43.70831940311912,18.2819],[25.6708984375,43.71759674686912,17.4023],[25.739013671875,43.71918366093162,17.8216],[25.780517578125,43.73224518436912,21.7548],[25.803955078125,43.76019928593162,16.287],[25.805761718750006,43.763934637494117,16.5279],[25.838769531250023,43.78864166874412,16.2905],[25.86875,43.801141668744116,15.6606],[25.916015625,43.844598699994116,16.8916],[25.924072265625,43.858905340619117,18.7149],[25.933496093750023,43.87055084843162,16.9]]}}