{"type":"Feature","properties":{"GID_1":"BGR.25_1","GID_0":"BGR","country":"Bulgaria","state":"VelikoTarnovo","VARNAME_1":"VelikoTurnovo|GornaOryahovitsa","NL_NAME_1":"ВеликоТърново","TYPE_1":"Oblast","ENGTYPE_1":"Province","CC_1":"NA","HASC_1":"BG.VT","ISO_1":"BG-04","name":"VelikoTarnovo.state"},
"geometry":{"type": "MultiPolygon","coordinates": [[[[26.1837,42.9395,440.6483],[26.1973,42.9529,489.9731],[26.1941,42.9593,497.6016],[26.1856,42.9671,395.7294],[26.1471,42.9862,415.8582],[26.1372,42.9884,307.3652],[26.1206,42.9887,447.4533],[26.1147,42.9909,464.5135],[26.1158,43.0034,391.1739],[26.1485,43.025,467.9135],[26.1506,43.0277,516.8447],[26.151,43.0325,579.7783],[26.1484,43.0373,628.6492],[26.1437,43.0403,524.341],[26.1302,43.0444,268.5096],[26.1027,43.0604,204.0779],[26.0852,43.082,189.6669],[26.0753,43.0995,404.8711],[26.076,43.1095,206.0966],[26.0809,43.1161,371.748],[26.0832,43.1242,375.7269],[26.0831,43.1453,482.6035],[26.0915,43.1561,404.2171],[26.0906,43.1747,405.2678],[26.0917,43.1775,410.4442],[26.0959,43.1816,418.6295],[26.1177,43.1933,285.9926],[26.1253,43.2004,365.7568],[26.1286,43.2067,313.9178],[26.1288,43.2147,228.7316],[26.1229,43.2278,324.0521],[26.1069,43.233,337.376],[26.0955,43.2468,305.7301],[26.0947,43.2525,252.3427],[26.0916,43.2567,265.8065],[26.0713,43.2639,240.0351],[26.0698,43.2662,170.2525],[26.0716,43.2732,266.8492],[26.0912,43.2826,301.9023],[26.1004,43.289,304.0874],[26.1022,43.2947,269.9423],[26.0938,43.3054,381.2284],[26.0624,43.3212,352.2571],[26.0497,43.3259,343.9438],[26.0313,43.328,334.4562],[26.0011,43.327,253.4626],[25.9719,43.3326,233.41],[25.9681,43.3349,234.778],[25.9631,43.3432,222.415],[25.9586,43.3617,284.1812],[25.9516,43.3777,333.0192],[25.9426,43.3817,258.3523],[25.9288,43.381,333.7041],[25.8954,43.3696,338.3242],[25.8741,43.3693,362.9238],[25.8258,43.3792,200.9238],[25.7989,43.3712,268.2032],[25.7859,43.3694,241.8391],[25.7557,43.3809,337.6896],[25.7241,43.4089,104.9629],[25.7179,43.4127,83.8615],[25.709,43.413,90.308],[25.7022,43.4102,83.2511],[25.6909,43.3982,91.2127],[25.6841,43.3958,78.2893],[25.6792,43.3962,61.8279],[25.6708,43.3988,33.007],[25.6665,43.402,37.1454],[25.63,43.4111,110.6025],[25.6218,43.4184,152.3135],[25.5974,43.4235,135.5424],[25.579,43.4315,108.3365],[25.5731,43.4376,135.8708],[25.5742,43.4411,140.6652],[25.5838,43.4472,125.6098],[25.590699999999998,43.4539,171.008],[25.5865,43.4701,104.5852],[25.589,43.4817,96.3932],[25.5886,43.504,60.0449],[25.5616,43.504,76.5923],[25.5438,43.5103,112.052],[25.5437,43.5135,119.4128],[25.5352,43.5254,159.0499],[25.5259,43.5288,159.3767],[25.5231,43.532,176.8633],[25.5171,43.5534,114.0708],[25.5041,43.5621,67.2673],[25.4945,43.58,47.192],[25.4948,43.5887,91.9412],[25.5012,43.5949,142.9861],[25.5236,43.6046,113.3136],[25.532,43.6125,17.8199],[25.5313,43.6221,17.5058],[25.5219,43.6337,17.8454],[25.5039,43.6459,14.0],[25.4782,43.6408,14.0],[25.452,43.6308,14.0],[25.4525,43.6288,14.0],[25.4155,43.6222,14.5],[25.3916,43.6193,14.5],[25.3747,43.6226,15.0],[25.3683,43.6222,15.0],[25.341,43.632,15.0],[25.3239,43.6441,15.5],[25.3163,43.6474,15.5],[25.2893,43.6563,16.0],[25.2898,43.6574,16.0],[25.2735,43.6697,16.0],[25.2694,43.6745,18.0616],[25.2538,43.683,16.0],[25.2131,43.6905,16.0],[25.1956,43.6653,20.0748],[25.1971,43.6488,19.6543],[25.2238,43.622,18.8181],[25.225,43.6128,19.0746],[25.214,43.6048,19.0637],[25.2121,43.601,20.6697],[25.213,43.5766,72.1231],[25.2088,43.5694,132.9992],[25.2268,43.5544,90.5817],[25.2315,43.5484,82.7382],[25.2337,43.5423,92.9006],[25.2285,43.5336,48.8327],[25.2188,43.5251,114.1237],[25.214,43.5169,145.6205],[25.2129,43.5094,121.0182],[25.2152,43.4854,83.2734],[25.2137,43.4763,86.1014],[25.1982,43.4632,112.9554],[25.1852,43.4574,127.455],[25.1758,43.4548,129.4379],[25.144,43.4519,118.4618],[25.1329,43.4492,51.4625],[25.1302,43.4448,50.8069],[25.1301,43.4405,51.3105],[25.1381,43.4296,82.9555],[25.1434,43.4266,125.0187],[25.1495,43.4258,162.9077],[25.1853,43.4304,106.8307],[25.2042,43.4351,116.8607],[25.215699999999998,43.4351,141.8286],[25.2332,43.4318,128.2863],[25.2384,43.428,125.8601],[25.2398,43.4249,119.1284],[25.2385,43.4136,128.0737],[25.2122,43.39,175.728],[25.2068,43.383,168.7745],[25.2059,43.3783,90.2083],[25.2106,43.3755,132.5694],[25.2164,43.375,165.2012],[25.2513,43.3754,148.8551],[25.2687,43.3738,186.4077],[25.2748,43.3574,176.8593],[25.2725,43.346,134.6472],[25.2692,43.3393,91.5201],[25.2545,43.324,79.8697],[25.2306,43.3108,89.4044],[25.213,43.3063,100.6425],[25.1997,43.2983,111.2137],[25.1902,43.2956,124.0841],[25.1885,43.2934,132.0273],[25.164,43.2867,155.2218],[25.1687,43.2818,157.0602],[25.1711,43.2769,160.5311],[25.1731,43.2697,154.4392],[25.1731,43.2627,152.5324],[25.1643,43.2428,225.4337],[25.1387,43.2176,320.5179],[25.1378,43.2118,355.2692],[25.1416,43.1933,382.5647],[25.1406,43.1886,411.6813],[25.1347,43.1851,417.8204],[25.1238,43.182,447.263],[25.1071,43.1796,403.3622],[25.1091,43.1709,469.963],[25.1183,43.1516,421.051],[25.1296,43.1418,374.8943],[25.1498,43.134,219.1892],[25.1637,43.1137,194.8906],[25.1834,43.1042,206.0906],[25.2079,43.0986,395.4334],[25.2156,43.0984,402.9044],[25.231,43.0931,455.9328],[25.2483,43.0921,455.311],[25.2697,43.0941,353.3885],[25.2869,43.1022,356.9162],[25.2997,43.1122,348.5328],[25.3272,43.1148,325.0847],[25.3416,43.1135,327.5388],[25.3461,43.0953,372.6042],[25.3348,43.0742,344.955],[25.3326,43.0672,380.4674],[25.333,43.0629,384.9914],[25.3378,43.056,442.5175],[25.3437,43.0528,347.1663],[25.3768,43.0524,372.5873],[25.3895,43.056,434.7212],[25.4142,43.0554,397.8247],[25.4192,43.054,377.5177],[25.4277,43.0439,283.898],[25.4359,43.0388,331.847],[25.4477,43.0394,343.4833],[25.4748,43.0458,411.0659],[25.4975,43.0462,429.6551],[25.5087,43.0368,354.8164],[25.517,43.0341,289.3649],[25.5364,43.0375,267.2606],[25.5446,43.0373,302.3234],[25.5523,43.0323,164.7262],[25.5612,43.0224,460.4764],[25.5688,43.0182,353.6625],[25.6049,43.0161,242.8715],[25.6139,43.0133,222.2468],[25.6211,43.0038,256.3742],[25.622,42.9995,243.9724],[25.6213,42.9936,191.7912],[25.6165,42.9823,191.1229],[25.589,42.9652,421.8316],[25.5778,42.9613,489.0146],[25.5765,42.9552,535.2544],[25.5807,42.9486,430.7372],[25.5824,42.9402,465.7307],[25.5754,42.9317,355.4141],[25.5751,42.9291,336.0346],[25.5905,42.9142,616.3795],[25.6086,42.9014,657.334],[25.6188,42.9004,638.0181],[25.6371,42.902,492.9218],[25.645,42.8992,399.5739],[25.6465,42.8975,414.3672],[25.6472,42.883,388.5968],[25.646,42.8677,406.5056],[25.6635,42.8638,469.4893],[25.6683,42.8601,456.6085],[25.6694,42.8558,421.1878],[25.6664,42.8494,555.2842],[25.657,42.8424,577.3928],[25.6402,42.8352,422.8726],[25.6268,42.8273,435.6771],[25.623,42.8206,489.9528],[25.6226,42.8154,589.3555],[25.6241,42.8093,698.7506],[25.637,42.7967,810.6438],[25.641,42.7901,868.1591],[25.6431,42.7685,796.6176],[25.6523,42.7646,777.4],[25.6638,42.7621,625.0839],[25.6781,42.7499,756.4379],[25.7185,42.77,572.463],[25.7309,42.7741,573.2938],[25.7379,42.7786,764.4696],[25.7781,42.7876,965.8152],[25.7882,42.7865,1081.7715],[25.799,42.7823,1140.2507],[25.8087,42.7809,1129.2367],[25.8253,42.786,1001.4358],[25.8377,42.7867,951.9243],[25.883,42.7716,904.2465],[25.9018,42.7693,835.1606],[25.9119,42.7708,975.0746],[25.9256,42.7775,1063.4329],[25.9635,42.7862,1380.8483],[25.9759,42.7883,1385.2836],[25.9881,42.7876,1168.3645],[25.996,42.7904,1085.184],[26.0075,42.8017,1092.2732],[26.013,42.8094,954.1056],[26.028199999999998,42.8177,929.4377],[26.0405,42.8285,821.1116],[26.0594,42.8342,966.5766],[26.077,42.8417,876.1566],[26.0833,42.8464,713.6603],[26.0864,42.85,663.3804],[26.0857,42.8563,599.5183],[26.0757,42.8698,600.9753],[26.075,42.8738,630.7534],[26.079,42.8825,578.5793],[26.091,42.889,493.0586],[26.1146,42.8956,427.3115],[26.1296,42.9054,448.1635],[26.1597,42.9146,389.9835],[26.1698,42.922,422.5388],[26.1738,42.9298,381.466],[26.1837,42.9395,440.6483]]]]}}