{"type":"Feature","properties":{"GID_2":"BGR.18.1_1","GID_0":"BGR","country":"Bulgaria","GID_1":"BGR.18_1","state":"Silistra","NL_NAME_1":"Силистра","county":"Alfatar","VARNAME_2":"NA","NL_NAME_2":"Алфатар","TYPE_2":"Obshtina","ENGTYPE_2":"Municipality","CC_2":"NA","HASC_2":"BG.SI.AL","name":"Alfatar.county"},
"geometry":{"type": "MultiPolygon","coordinates": [[[[27.4078,43.8555,186.2373],[27.3996,43.8633,159.4471],[27.3945,43.8727,170.8744],[27.395,43.8968,143.488],[27.403,43.9173,138.5928],[27.4011,43.9274,116.0519],[27.4015,43.9362,56.0045],[27.4047,43.945,84.8911],[27.4027,43.955,134.1714],[27.3956,43.9668,59.3275],[27.3952,43.9709,69.5608],[27.3801,43.9695,94.3272],[27.3623,43.9611,121.7316],[27.3537,43.9592,166.9642],[27.3419,43.9579,145.1872],[27.3338,43.9592,71.7728],[27.3248,43.9644,143.9761],[27.3209,43.9693,166.5667],[27.3142,43.9927,168.6398],[27.31,43.9951,166.4668],[27.2978,43.9962,157.3339],[27.2908,44.0081,141.893],[27.2823,44.0075,127.0234],[27.2731,44.0023,92.7118],[27.2696,43.997,94.6536],[27.272,43.9881,156.8165],[27.271,43.9833,165.0543],[27.245,43.9731,172.2437],[27.2317,43.9711,163.8253],[27.2088,43.9609,174.4642],[27.2048,43.9565,157.148],[27.2025,43.95,180.2309],[27.2069,43.9389,174.3524],[27.206,43.9295,187.025],[27.1945,43.9299,180.3022],[27.1923,43.9287,186.354],[27.1926,43.9059,229.2045],[27.2049,43.9004,195.6726],[27.2222,43.8966,235.4753],[27.2302,43.8914,223.4668],[27.2325,43.8844,208.0658],[27.2328,43.8603,214.1878],[27.2372,43.855,197.0893],[27.2507,43.8452,180.4817],[27.2936,43.8285,209.461],[27.3199,43.8149,205.1558],[27.3516,43.8144,225.7883],[27.3582,43.8163,208.5219],[27.3794,43.8297,174.4976],[27.4078,43.8555,186.2373]]]]}}