{"type":"Feature","properties":{"GID_2":"BGR.11.9_1","GID_0":"BGR","country":"Bulgaria","GID_1":"BGR.11_1","state":"Pazardzhik","NL_NAME_1":"Пазарджик","county":"Septemvri","VARNAME_2":"NA","NL_NAME_2":"Септември","TYPE_2":"Obshtina","ENGTYPE_2":"Municipality","CC_2":"NA","HASC_2":"BG.PZ.SE","name":"Septemvri.county"},
"geometry":{"type": "MultiPolygon","coordinates": [[[[24.0472,42.143,1290.5046],[24.0709,42.1372,1394.2705],[24.0826,42.1318,1291.3557],[24.1161,42.1102,738.662],[24.1541,42.0977,1440.8198],[24.1541,42.1108,1248.3],[24.1594,42.1257,856.2432],[24.1773,42.1467,309.0823],[24.1932,42.1731,235.6119],[24.2068,42.1881,226.3676],[24.2207,42.1983,220.0489],[24.2231,42.2034,218.453],[24.2234,42.214,219.7292],[24.2154,42.2368,280.3647],[24.2051,42.2591,405.8134],[24.2059,42.2694,328.0236],[24.1685,42.2918,293.7515],[24.1457,42.3076,293.9575],[24.1277,42.3226,352.5587],[24.1146,42.3285,342.4531],[24.095,42.3303,364.6643],[24.0651,42.3279,533.8202],[24.0536,42.3298,441.325],[24.0483,42.3316,457.3303],[24.0277,42.3484,394.6414],[24.0188,42.3509,447.6443],[24.0012,42.3516,516.2431],[23.9843,42.3495,546.9046],[23.9725,42.3458,769.2665],[23.9575,42.3471,849.4971],[23.9507,42.3406,767.1833],[23.9477,42.3339,671.5677],[23.9468,42.319,915.7193],[23.9433,42.3106,891.49],[23.943,42.3059,843.6526],[23.9449,42.3019,821.7614],[23.9507,42.2961,690.1429],[23.9582,42.2938,747.992],[23.9748,42.2952,713.6614],[23.9919,42.2907,744.968],[23.9965,42.2862,621.566],[23.9977,42.2812,659.376],[23.9951,42.273,567.8256],[23.9924,42.2716,534.6439],[24.023,42.2606,442.6674],[24.0356,42.2645,382.8686],[24.0519,42.263,313.0551],[24.0826,42.2478,257.8652],[24.0875,42.244,251.927],[24.092,42.2374,246.2467],[24.0919,42.2286,250.8608],[24.0842,42.2185,257.8596],[24.0859,42.2051,256.7437],[24.0843,42.1984,266.417],[24.0581,42.1647,835.3715],[24.0472,42.143,1290.5046]]]]}}