{"type":"Feature","properties":{"GID_2":"BGR.14.8_1","GID_0":"BGR","country":"Bulgaria","GID_1":"BGR.14_1","state":"Plovdiv","NL_NAME_1":"Пловдив","county":"Maritsa","VARNAME_2":"NA","NL_NAME_2":"NA","TYPE_2":"Obshtina","ENGTYPE_2":"Municipality","CC_2":"NA","HASC_2":"BG.PD.MA","name":"Maritsa.county"},
"geometry":{"type": "MultiPolygon","coordinates": [[[[24.7478,42.3112,193.3932],[24.7368,42.3063,193.6555],[24.7343,42.2961,192.4329],[24.728,42.2878,194.6752],[24.7203,42.2863,195.0875],[24.7001,42.2867,198.6448],[24.6883,42.2964,202.2601],[24.6769,42.299,205.3652],[24.6725,42.2955,205.5414],[24.6704,42.2901,203.304],[24.6685,42.2755,198.0124],[24.6638,42.2711,197.3411],[24.6203,42.2719,199.7445],[24.6145,42.2675,198.8602],[24.6014,42.2626,195.7483],[24.5909,42.2541,191.6812],[24.5827,42.251,191.4131],[24.5923,42.2415,188.0277],[24.6001,42.2296,185.5423],[24.6071,42.203,178.744],[24.6104,42.1717,174.0402],[24.6128,42.1656,173.0648],[24.6161,42.1626,172.4849],[24.6198,42.1603,172.2985],[24.628,42.1592,171.0341],[24.6415,42.1631,168.6276],[24.6504,42.163,168.0621],[24.6567,42.1603,167.3323],[24.6716,42.1488,163.9264],[24.706,42.1419,172.2583],[24.7094,42.1437,171.2179],[24.7214,42.1598,160.5252],[24.7347,42.164,160.831],[24.7451,42.1791,163.1436],[24.7566,42.1812,161.9063],[24.7678,42.1786,159.5802],[24.7793,42.1721,157.3665],[24.8022,42.169,154.5549],[24.8054,42.1665,154.7856],[24.8123,42.1555,152.2796],[24.8238,42.1532,151.8168],[24.8333,42.148,150.9465],[24.8392,42.1398,150.1287],[24.838,42.136,149.8727],[24.9406,42.1433,146.2492],[24.957,42.1419,141.1955],[24.9835,42.1423,139.3362],[24.994,42.1354,147.3236],[25.0016,42.1344,147.8058],[25.0152,42.1356,140.6478],[25.0112,42.1406,137.6426],[24.9954,42.1492,138.854],[24.9861,42.1581,139.6548],[24.9871,42.1644,140.0582],[24.9913,42.1703,143.0363],[25.0032,42.177,137.7349],[25.0059,42.1805,141.8519],[25.0059,42.1838,142.5691],[25.0035,42.1918,143.4095],[24.9935,42.2041,147.8872],[24.9848,42.2225,152.8406],[24.9796,42.229,154.8516],[24.9741,42.2307,155.764],[24.9377,42.233,159.5395],[24.9326,42.232,156.8713],[24.9283,42.2281,156.7341],[24.9278,42.2141,155.7498],[24.8794,42.2164,160.7457],[24.8733,42.2209,162.35],[24.8722,42.2292,163.4933],[24.8697,42.2337,164.2275],[24.8622,42.2404,166.406],[24.8559,42.2492,169.0716],[24.8433,42.2571,172.0343],[24.8366,42.2735,176.3745],[24.8224,42.2761,177.9298],[24.7841,42.294,187.0205],[24.7727,42.3076,191.0079],[24.7692,42.3097,192.8118],[24.7596,42.3121,193.8399],[24.7478,42.3112,193.3932]]]]}}