{"type":"Feature","properties":{"GID_2":"BGR.3.3_1","GID_0":"BGR","country":"Bulgaria","GID_1":"BGR.3_1","state":"Dobrich","NL_NAME_1":"Добрич","county":"Dobrich-selska","VARNAME_2":"NA","NL_NAME_2":"NA","TYPE_2":"Obshtina","ENGTYPE_2":"Municipality","CC_2":"NA","HASC_2":"NA","name":"Dobrich-selska.county"},
"geometry":{"type": "MultiPolygon","coordinates": [[[[27.8434,43.624,243.8591],[27.7685,43.6256,219.7829],[27.7604,43.6115,241.3725],[27.7344,43.6109,216.8779],[27.7325,43.6164,214.1881],[27.7211,43.6163,238.7584],[27.7058,43.593,252.1285],[27.6809,43.5915,249.3409],[27.6811,43.558,169.2856],[27.7018,43.5553,240.6539],[27.7061,43.5387,192.4206],[27.7654,43.5346,278.9427],[27.7703,43.5212,296.1538],[27.8027,43.5189,272.0588],[27.8031,43.5322,256.2402],[27.8318,43.5607,211.9432],[27.8329,43.5779,204.3904],[27.8495,43.5925,228.938],[27.8434,43.624,243.8591]]]]}}