{"type": "Feature","id": "2253","bbox": [22.34947,43.38606,23.05255,44.22843],"geometry": {"type": "Polygon","coordinates": [[[23.00831,44.10045,31.6827],[22.98808,44.10702,31.3731],[22.94261,44.11147,32.7272],[22.90644,44.12289,32.603],[22.69164,44.22843,35.4615],[22.64878,44.21399,34.0131],[22.63999,44.20733,34.73],[22.6248,44.1894,40.6018],[22.60857,44.17586,39.0122],[22.6062,44.17457,39.2976],[22.60485,44.16847,40.6816],[22.60599,44.16315,42.7729],[22.60795,44.15999,42.1918],[22.6094,44.15994,42.1918],[22.59906,44.13033,88.7497],[22.5971,44.11907,98.8983],[22.59813,44.1093,48.8029],[22.60465,44.08816,186.951],[22.60475,44.07938,206.4489],[22.59297,44.06393,259.7473],[22.57519,44.06139,256.7484],[22.55462,44.06243,189.4897],[22.53416,44.05716,263.7678],[22.52258,44.0447,190.7322],[22.51494,44.03029,290.2234],[22.50367,44.0199,286.5945],[22.48145,44.01943,304.3381],[22.46589,44.01762,302.5915],[22.43432,44.01396,309.5352],[22.41179,44.00693,352.4336],[22.39959,43.99334,334.5941],[22.39732,43.98093,320.6806],[22.3968,43.95194,339.2212],[22.39453,43.93634,337.0214],[22.39195,43.93187,298.2122],[22.38202,43.91856,344.9291],[22.37903,43.9135,346.8743],[22.37706,43.88352,345.3306],[22.36755,43.85275,327.3548],[22.35474,43.8297,416.7283],[22.34947,43.80792,468.8429],[22.36259,43.78084,344.0464],[22.38853,43.75829,682.0956],[22.38957,43.75051,685.3148],[22.38585,43.73382,750.5186],[22.38605,43.7255,711.5199],[22.3905,43.71245,698.1722],[22.39691,43.6994,771.1458],[22.40486,43.68718,822.5732],[22.41396,43.67666,829.0641],[22.42647,43.66821,652.054],[22.45592,43.65641,722.1032],[22.46626,43.64912,616.8314],[22.47287,43.63594,548.3546],[22.4738,43.613,851.8233],[22.48145,43.60065,1109.3158],[22.48176,43.59998,1155.4122],[22.48197,43.59946,1121.2767],[22.48176,43.59894,1155.4122],[22.48145,43.59853,1186.6843],[22.47814,43.59491,1040.5458],[22.47711,43.59129,991.5963],[22.47814,43.58757,1032.6277],[22.48145,43.58414,1034.4312],[22.48269,43.58173,984.163],[22.4831,43.57928,1046.7661],[22.48269,43.5767,1040.5308],[22.48145,43.57411,990.6848],[22.47866,43.56918,1192.1774],[22.47762,43.56416,1111.0084],[22.47845,43.55923,990.3359],[22.49065,43.54088,1109.3748],[22.50935,43.49334,1114.4022],[22.51886,43.47425,1047.2048],[22.53261,43.46484,1327.5369],[22.56578,43.45334,1186.4019],[22.57271,43.44815,1021.6756],[22.58677,43.43443,1261.9087],[22.59627,43.42916,1363.8339],[22.60692,43.4274,1380.3739],[22.62852,43.42825,1766.1359],[22.63782,43.42637,1547.7826],[22.64537,43.4203,1531.5151],[22.65653,43.40319,1823.9415],[22.65893,43.4013,1940.6089],[22.66469,43.39673,1841.3435],[22.6742,43.39415,2077.042],[22.69322,43.39487,2067.0681],[22.70293,43.39404,1969.5776],[22.71937,43.38867,1730.8876],[22.72434,43.38606,1624.4084],[22.77156,43.41725,1470.3157],[22.79802,43.46975,607.2302],[22.7975,43.49089,447.071],[22.81766,43.49915,706.9822],[22.85466,43.50926,508.652],[22.91243,43.51409,560.7382],[22.96866,43.5268,305.1309],[22.97692,43.5436,268.9312],[22.97093,43.56259,263.5252],[22.94902,43.56615,263.4409],[22.93806,43.58106,219.1836],[22.95264,43.63475,223.239],[22.98757,43.67441,195.2556],[23.03594,43.68757,97.4979],[23.04689,43.70167,93.8941],[23.03594,43.72214,119.8615],[23.02943,43.7425,160.8353],[23.0101,43.74842,175.4113],[22.98995,43.75201,140.1933],[22.97517,43.76575,151.1831],[22.99088,43.77991,34.2466],[23.01547,43.77852,33.4587],[23.04018,43.78356,30.129],[23.04813,43.80704,25.0],[23.05255,43.84282,32.5639],[22.91956,43.83422,33.8069],[22.88876,43.83952,28.1424],[22.86344,43.85541,29.0659],[22.85104,43.87435,31.8103],[22.85052,43.89699,29.9735],[22.87471,43.97205,25.0],[22.88587,43.99453,39.1142],[22.90582,44.00398,32.1292],[22.92649,44.00615,34.5626],[22.96628,44.01556,32.1872],[22.98808,44.01768,26.0],[23.02302,44.03163,26.0],[23.04007,44.06232,26.0],[23.03098,44.09307,29.4813],[23.00831,44.10045,31.6827]]]}
,"properties": {"ISO3166-1-Alpha-3": "BGR","country": "Bulgaria","fill": "#FF0","name": "Vidin","area_km2": 3238.658,"hist_schema_id": "Elevation0-9000","hist_area_km2": {"25": 231.678,"50": 258.706,"75": 92.367,"100": 102.859,"125": 115.179,"150": 119.224,"175": 149.393,"200": 209.507,"225": 272.055,"250": 248.411,"275": 223.659,"300": 176.168,"325": 128.056,"350": 100.037,"375": 68.347,"400": 50.902,"425": 46.541,"450": 43.725,"475": 39.987,"500": 37.429,"525": 36.25,"550": 35.56,"575": 33.581,"600": 32.369,"625": 28.825,"650": 27.766,"675": 24.251,"700": 23.545,"725": 21.856,"750": 19.66,"775": 18.049,"800": 15.9,"825": 14.319,"850": 13.013,"875": 12.338,"900": 10.02,"925": 9.575,"950": 7.932,"975": 7.948,"1000": 7.441,"1025": 7.104,"1050": 6.366,"1075": 7.09,"1100": 6.476,"1125": 6.307,"1150": 6.216,"1175": 5.892,"1200": 6.585,"1225": 5.939,"1250": 5.294,"1275": 5.37,"1300": 4.509,"1325": 4.124,"1350": 3.679,"1375": 3.648,"1400": 3.294,"1425": 2.909,"1450": 2.756,"1475": 2.432,"1500": 2.248,"1525": 2.586,"1550": 1.955,"1575": 1.848,"1600": 1.632,"1625": 1.894,"1650": 1.663,"1675": 1.493,"1700": 1.524,"1725": 1.217,"1750": 1.032,"1775": 1.093,"1800": 0.832,"1825": 0.986,"1850": 0.939,"1875": 0.909,"1900": 0.909,"1925": 0.847,"1950": 0.755,"1975": 0.709,"2000": 0.385,"2025": 0.154,"2050": 0.2,"2075": 0.154,"2100": 0.123,"2125": 0.092,"2150": 0.062}}}