{"type": "Feature","bbox": [22.3438,43.3801,23.0474,44.2127],"geometry": {"type": "MultiPolygon","coordinates": [[[[22.7931,43.4909,507.9113],[22.8085,43.4961,593.6182],[22.833,43.5004,688.3452],[22.8533,43.5126,504.7314],[22.8602,43.5193,547.3613],[22.8621,43.5296,521.0722],[22.8772,43.5538,265.5385],[22.8969,43.5709,281.5066],[22.9074,43.5759,274.2761],[22.9129,43.5843,260.3156],[22.9172,43.5957,229.7185],[22.9183,43.617,241.052],[22.9265,43.627,213.4815],[22.9253,43.6387,232.1161],[22.9215,43.648,203.8571],[22.9269,43.6588,228.0427],[22.9231,43.6681,137.4405],[22.924,43.6705,136.4888],[22.9716,43.6832,117.6371],[22.9841,43.6894,116.2723],[22.9913,43.6954,115.2898],[23.0009,43.6993,110.5542],[23.0175,43.7001,106.8649],[23.0301,43.7031,101.2028],[23.0406,43.7085,96.9504],[23.0445,43.713,94.3707],[23.0439,43.7207,113.3033],[23.0415,43.7244,120.7533],[23.0301,43.7375,150.418],[23.0217,43.7441,167.033],[23.0142,43.7479,173.3356],[22.9929,43.754,169.2074],[22.9531,43.7584,115.5976],[22.9507,43.7613,101.5315],[22.9482,43.7726,54.1767],[22.9529,43.7824,96.9698],[22.9613,43.7882,81.8363],[23.0092,43.7874,35.0511],[23.0214,43.7923,25.0],[23.036,43.8031,25.0],[22.9871,43.8099,25.0],[22.986,43.8076,25.0],[22.9778,43.8103,25.0],[22.9767,43.8089,25.0],[22.9555,43.8148,25.0],[22.9543,43.8135,25.0],[22.9485,43.8175,25.0],[22.95,43.8191,25.0],[22.9355,43.8239,25.0],[22.9082,43.8262,25.0],[22.875,43.8354,25.0],[22.8644,43.8413,25.0],[22.8545,43.8508,25.0],[22.8442,43.8641,25.0],[22.8458,43.8647,25.0],[22.8434,43.8731,25.0],[22.8404,43.875,25.0],[22.8398,43.887,25.0],[22.8492,43.9046,25.0],[22.8493,43.9095,25.0],[22.8525,43.9092,25.0],[22.8636,43.9242,25.0],[22.8651,43.9332,25.0],[22.8618,43.9341,25.0],[22.8698,43.948,25.0],[22.8748,43.9664,25.0],[22.879,43.9775,25.0],[22.882,43.981,25.0],[22.8803,43.9819,25.0],[22.8933,43.9921,25.0],[22.8949,43.991,25.0],[22.9112,43.9948,25.0],[22.9304,44.0016,25.0],[22.9713,44.0089,26.0],[22.9723,44.0061,26.0],[22.9801,44.0067,26.0],[23.0116,44.0138,26.0],[23.0181,44.019,26.0],[23.0154,44.0209,26.0],[23.0286,44.0323,26.0],[23.0393,44.045,26.0],[23.0472,44.0582,26.0],[23.0474,44.0641,26.0],[23.0388,44.0799,26.0],[23.0259,44.0897,26.0],[23.0147,44.094,26.0],[22.9931,44.0981,26.0],[22.9375,44.1001,26.5],[22.927,44.1025,26.5],[22.9005,44.115,27.0],[22.8725,44.1335,27.0],[22.8422,44.1468,27.5],[22.8147,44.1542,27.5],[22.8022,44.1608,28.0],[22.7837,44.1722,28.0],[22.751,44.1982,28.5],[22.7321,44.2021,28.5],[22.696,44.2048,29.0],[22.6851,44.2099,29.0],[22.6858,44.2078,29.0],[22.6844,44.2078,29.0],[22.6809,44.2127,29.0],[22.6731,44.208,34.0379],[22.6726,44.205,33.9345],[22.6705,44.2038,34.2238],[22.6685,44.2036,33.7637],[22.6674,44.2057,35.0051],[22.6625,44.2081,35.1301],[22.6605,44.2078,39.9873],[22.66,44.2063,37.8416],[22.6631,44.203,36.2019],[22.66,44.1968,33.915],[22.6555,44.1912,40.76],[22.6519,44.1908,33.773],[22.6497,44.1888,41.0993],[22.6508,44.1872,47.1357],[22.6556,44.1863,51.4892],[22.6558,44.1839,51.273],[22.6496,44.1796,51.6016],[22.6449,44.1823,55.0386],[22.6406,44.1813,54.9689],[22.6474,44.1759,49.9511],[22.6462,44.1724,44.1593],[22.6386,44.1717,39.2369],[22.6385,44.1691,40.5377],[22.6352,44.1674,39.3035],[22.6322,44.1705,39.4844],[22.6291,44.1704,40.3632],[22.6259,44.1676,40.721],[22.6252,44.1631,42.048],[22.6215,44.1623,44.1036],[22.6245,44.158,44.6187],[22.6307,44.1594,46.5162],[22.6315,44.1551,43.4225],[22.6367,44.1545,48.6602],[22.6335,44.1476,44.425],[22.634,44.1438,43.7605],[22.6281,44.142,44.2766],[22.6225,44.1333,44.8457],[22.6122,44.1047,111.0306],[22.6116,44.1002,127.9835],[22.6133,44.0966,126.5848],[22.6202,44.0922,151.8854],[22.6188,44.0779,221.823],[22.6174,44.0751,252.2003],[22.6136,44.0731,230.5393],[22.6155,44.0698,247.0119],[22.6223,44.0672,249.7275],[22.6166,44.0632,243.7902],[22.6177,44.0572,210.9438],[22.5765,44.0543,279.5267],[22.5736,44.046,235.0685],[22.5513,44.0487,269.5784],[22.5452,44.0445,284.4122],[22.5228,44.0415,212.4111],[22.5199,44.0383,237.9347],[22.5298,44.034,253.4587],[22.5312,44.0322,270.8636],[22.5269,44.0283,308.6987],[22.5327,44.0239,307.8564],[22.5296,44.0211,304.7437],[22.528,44.0157,276.2925],[22.5213,44.0149,237.625],[22.5197,44.0105,164.9651],[22.5162,44.0095,212.6638],[22.4952,44.0071,234.3145],[22.4777,44.0109,261.5706],[22.4637,44.0055,276.8504],[22.4415,44.007,313.4277],[22.4388,44.0066,315.0142],[22.4375,44.0006,328.2258],[22.4186,43.9957,346.9547],[22.4044,43.9943,350.5574],[22.4071,43.9877,351.3276],[22.405,43.9857,349.4179],[22.4107,43.9809,349.1309],[22.4025,43.9751,343.6122],[22.4038,43.9729,343.969],[22.4026,43.9695,339.246],[22.4056,43.9678,344.9102],[22.4044,43.9625,341.7892],[22.406,43.9591,355.6112],[22.4031,43.9493,359.7601],[22.4026,43.9418,365.1492],[22.3973,43.9354,323.0257],[22.3988,43.9258,296.2696],[22.3832,43.9169,346.3961],[22.3783,43.912,347.7038],[22.3787,43.9084,351.6387],[22.3823,43.9027,360.3634],[22.381,43.8993,367.5732],[22.3828,43.894,380.7698],[22.3789,43.8861,360.7657],[22.3762,43.8651,343.6144],[22.3664,43.8337,642.5095],[22.3667,43.8303,567.077],[22.3597,43.8203,472.3273],[22.3556,43.8108,455.5367],[22.347,43.8055,460.7732],[22.3463,43.7984,416.5934],[22.3438,43.793,382.3554],[22.3474,43.7887,325.1505],[22.3489,43.7824,245.4661],[22.3523,43.7798,377.5314],[22.356,43.7714,506.0439],[22.368,43.7549,422.211],[22.3795,43.7466,611.2894],[22.3872,43.7465,652.5814],[22.383,43.7405,559.2071],[22.3842,43.7266,702.8591],[22.3797,43.7191,654.1084],[22.3859,43.713,645.9485],[22.3879,43.7067,642.4482],[22.3876,43.7015,691.7669],[22.3908,43.6954,744.1994],[22.3907,43.6867,750.574],[22.4023,43.6767,712.8298],[22.4027,43.6737,797.9869],[22.4057,43.6713,747.4276],[22.4224,43.6657,706.4001],[22.4281,43.6591,532.633],[22.4338,43.6556,609.4959],[22.4418,43.6517,645.9974],[22.4626,43.6482,580.8828],[22.4665,43.6436,704.9398],[22.4674,43.6382,573.7228],[22.4724,43.6352,542.3911],[22.4743,43.6322,577.7339],[22.4738,43.6272,641.9448],[22.4634,43.6174,581.9068],[22.4703,43.6099,745.4052],[22.4724,43.5998,1115.9491],[22.4752,43.5945,991.7387],[22.4683,43.5844,937.902],[22.4704,43.5803,877.5311],[22.4764,43.5766,932.027],[22.477,43.5745,978.0138],[22.4693,43.5602,895.4349],[22.47,43.5478,832.3182],[22.4733,43.5457,869.5987],[22.4749,43.5413,927.7626],[22.4822,43.5317,868.827],[22.4808,43.5203,930.8031],[22.4842,43.5136,935.2405],[22.4851,43.5077,814.7493],[22.4925,43.5009,994.0085],[22.4924,43.497,875.0385],[22.4953,43.4933,1012.9215],[22.5025,43.4879,917.071],[22.5039,43.4767,951.6643],[22.5112,43.4691,1076.7843],[22.5126,43.4617,913.0334],[22.5314,43.4529,1206.6638],[22.5396,43.4551,1375.1638],[22.5521,43.4551,1449.6476],[22.5622,43.4447,924.1435],[22.5651,43.4394,843.5206],[22.5659,43.4322,894.042],[22.5722,43.4273,1032.4163],[22.5981,43.4206,1095.4817],[22.6032,43.4215,1167.7439],[22.6114,43.427,1443.5894],[22.6301,43.4201,1373.969],[22.6319,43.4129,1191.6783],[22.6376,43.4047,1554.2567],[22.6379,43.3963,1782.809],[22.6465,43.3885,1517.7764],[22.6515,43.3871,1435.6151],[22.6635,43.3885,1696.7343],[22.669,43.3871,1737.5796],[22.6885,43.3899,2006.2689],[22.7008,43.3831,1714.4822],[22.7096,43.3821,1543.5687],[22.7138,43.3801,1373.1885],[22.7287,43.3911,1872.1018],[22.7395,43.4019,1281.064],[22.7548,43.4078,1175.3577],[22.7671,43.4156,1406.3811],[22.7893,43.4373,1227.0668],[22.7912,43.4448,1062.7046],[22.7907,43.4507,852.0845],[22.7832,43.4722,477.3664],[22.7837,43.4791,482.4235],[22.7931,43.4909,507.9113]]]]}
,"properties": {"GID_1": "BGR.26_1","GID_0": "BGR","country": "Bulgaria","state": "Vidin","VARNAME_1": "NA","NL_NAME_1": "Видин","TYPE_1": "Oblast","ENGTYPE_1": "Province","CC_1": "NA","HASC_1": "BG.VD","ISO_1": "BG-05","name": "Vidin.state","area_km2": 3059.389,"hist_schema_id": "Elevation0-9000","hist_area_km2": {"25": 167.73,"50": 229.462,"75": 90.61,"100": 93.958,"125": 111.411,"150": 115.948,"175": 143.084,"200": 199.686,"225": 254.384,"250": 233.201,"275": 204.968,"300": 163.027,"325": 117.502,"350": 90.852,"375": 65.182,"400": 49.745,"425": 45.694,"450": 43.14,"475": 38.942,"500": 36.691,"525": 35.464,"550": 34.959,"575": 33.548,"600": 32.412,"625": 29.222,"650": 28.578,"675": 25.37,"700": 24.464,"725": 22.698,"750": 20.334,"775": 18.57,"800": 16.667,"825": 14.994,"850": 13.551,"875": 13.245,"900": 11.342,"925": 10.989,"950": 9.792,"975": 9.716,"1000": 9.594,"1025": 8.857,"1050": 8.104,"1075": 8.628,"1100": 7.814,"1125": 7.307,"1150": 7.308,"1175": 6.815,"1200": 7.478,"1225": 6.57,"1250": 5.801,"1275": 6.047,"1300": 5.017,"1325": 4.678,"1350": 4.156,"1375": 4.048,"1400": 3.633,"1425": 3.402,"1450": 3.064,"1475": 2.925,"1500": 2.802,"1525": 2.956,"1550": 2.448,"1575": 2.294,"1600": 1.971,"1625": 2.294,"1650": 2.017,"1675": 1.848,"1700": 1.91,"1725": 1.648,"1750": 1.432,"1775": 1.463,"1800": 1.278,"1825": 1.432,"1850": 1.371,"1875": 1.309,"1900": 1.217,"1925": 1.109,"1950": 0.97,"1975": 0.894,"2000": 0.647,"2025": 0.385,"2050": 0.37,"2075": 0.339,"2100": 0.277,"2125": 0.154,"2150": 0.169}}}