{"type": "Feature","bbox": [24.0167,43.3698,24.2518,43.6256],"geometry": {"type": "MultiPolygon","coordinates": [[[[24.2441,43.4386,59.2674],[24.2405,43.4474,59.6924],[24.2342,43.452,61.4541],[24.2318,43.4559,55.0787],[24.2358,43.4635,61.8841],[24.2356,43.4704,59.1368],[24.2405,43.4736,59.8909],[24.2393,43.4813,60.0092],[24.2412,43.4821,58.6767],[24.2499,43.4798,99.2553],[24.2518,43.4829,118.8943],[24.25,43.4862,130.4097],[24.2268,43.4891,52.3073],[24.2186,43.4919,59.0835],[24.1895,43.4938,118.7181],[24.1824,43.4966,129.3188],[24.1784,43.5003,130.5034],[24.1777,43.5157,130.4741],[24.1899,43.5647,129.0723],[24.1823,43.5722,144.5132],[24.1611,43.5872,118.3283],[24.149,43.5986,139.0458],[24.1469,43.6069,152.1514],[24.1501,43.6123,154.6344],[24.1448,43.6148,154.7596],[24.1302,43.6149,155.3441],[24.1215,43.6242,156.6068],[24.1144,43.6256,156.5128],[24.1092,43.6242,155.3454],[24.1017,43.6187,154.3251],[24.0959,43.618,153.0885],[24.08,43.623,152.8535],[24.072,43.6228,153.3753],[24.0661,43.6202,154.3212],[24.0555,43.6105,156.5915],[24.0468,43.607,154.6411],[24.0473,43.5946,156.2394],[24.0395,43.5561,151.003],[24.038,43.5526,145.4292],[24.025,43.5421,145.9809],[24.0232,43.5365,158.2904],[24.0262,43.5299,142.1359],[24.0301,43.5258,112.176],[24.0368,43.5109,154.8714],[24.0415,43.4847,136.6291],[24.0489,43.4757,141.2208],[24.0767,43.4574,156.0279],[24.0798,43.4521,161.0903],[24.0805,43.4452,160.9882],[24.0768,43.4366,163.5781],[24.0658,43.4252,158.5425],[24.0545,43.4194,163.1173],[24.0486,43.4118,162.2234],[24.0391,43.4059,170.1822],[24.027,43.4013,179.0099],[24.0225,43.3969,176.1352],[24.0187,43.3898,169.8195],[24.0167,43.377,178.8728],[24.0383,43.3721,161.871],[24.0499,43.3721,139.5881],[24.0668,43.3751,158.1694],[24.0892,43.3698,108.8107],[24.0968,43.3699,105.8497],[24.1021,43.373,109.2857],[24.1076,43.3832,104.2405],[24.1174,43.3906,109.6488],[24.1194,43.3959,111.9658],[24.1192,43.4057,118.2435],[24.1225,43.4097,106.1218],[24.128,43.4126,115.56],[24.1666,43.423,80.9481],[24.1914,43.4358,70.3983],[24.2077,43.4408,64.9291],[24.2198,43.4403,59.2098],[24.2337,43.4344,57.1125],[24.2381,43.4351,63.7771],[24.2441,43.4386,59.2674]]]]}
,"properties": {"GID_2": "BGR.13.7_1","GID_0": "BGR","country": "Bulgaria","GID_1": "BGR.13_1","state": "Pleven","NL_NAME_1": "Плевенска","county": "Knezha","VARNAME_2": "NA","NL_NAME_2": "Кнежа)","TYPE_2": "Obshtina","ENGTYPE_2": "Municipality","CC_2": "NA","HASC_2": "BG.PV.KN","name": "Knezha.county","area_km2": 293.3834,"hist_schema_id": "Elevation0-9000","hist_area_km2": {"50": 11.2643,"75": 23.0621,"100": 35.2237,"125": 62.1411,"150": 148.5671,"175": 13.1251}}}