{"type":"Feature","properties":{"GID_2":"BGR.24.12_1","GID_0":"BGR","country":"Bulgaria","GID_1":"BGR.24_1","state":"Varna","NL_NAME_1":"Варна","county":"Vetrino","VARNAME_2":"NA","NL_NAME_2":"NA","TYPE_2":"Obshtina","ENGTYPE_2":"Municipality","CC_2":"NA","HASC_2":"BG.VN.VE","name":"Vetrino.county"},
"geometry":{"type": "MultiPolygon","coordinates": [[[[27.29,43.2734,150.3011],[27.3176,43.2717,112.4651],[27.3401,43.2649,107.2965],[27.346,43.2651,117.4755],[27.3556,43.2679,125.4322],[27.3622,43.2806,141.9499],[27.3764,43.288,132.0754],[27.3834,43.2894,131.0025],[27.4175,43.2901,210.9203],[27.4261,43.2936,215.0207],[27.4409,43.3081,203.8996],[27.4532,43.3086,176.9044],[27.4702,43.3048,216.1941],[27.4778,43.2993,215.2686],[27.4837,43.2928,196.4812],[27.4861,43.2877,181.1562],[27.4855,43.2702,184.7586],[27.4869,43.2596,149.123],[27.4892,43.2545,141.3239],[27.4927,43.2511,137.6784],[27.4986,43.2485,130.7876],[27.508,43.2481,145.307],[27.5134,43.2495,154.4196],[27.5148,43.2612,146.9947],[27.5182,43.2661,140.2625],[27.5323,43.2737,150.3733],[27.5377,43.2748,162.5803],[27.5437,43.2792,193.6116],[27.5456,43.2828,207.4056],[27.5481,43.3043,172.958],[27.5382,43.3151,172.8218],[27.5327,43.3251,182.9104],[27.5268,43.3283,188.6362],[27.5222,43.3335,199.8861],[27.5196,43.3411,219.9438],[27.5213,43.3487,212.7218],[27.5139,43.3506,218.5749],[27.5058,43.3563,237.9964],[27.5028,43.3605,243.1996],[27.502,43.3671,257.2256],[27.5107,43.3831,288.9447],[27.5083,43.3876,311.8419],[27.5006,43.3893,305.2357],[27.4926,43.3805,311.3876],[27.4829,43.3768,289.087],[27.4767,43.3773,308.2434],[27.4715,43.3832,302.7933],[27.4619,43.39,317.8859],[27.4347,43.394,279.7809],[27.4275,43.3994,276.9865],[27.4243,43.406,281.8318],[27.4217,43.4181,310.7884],[27.4184,43.4219,314.7164],[27.4093,43.4274,291.6781],[27.4057,43.4329,294.8675],[27.3957,43.4417,274.0612],[27.3812,43.4503,253.8382],[27.3751,43.458,265.3492],[27.361,43.4657,254.9866],[27.3597,43.4626,255.3482],[27.3366,43.4372,295.9575],[27.32,43.4288,278.6071],[27.3121,43.4216,264.7356],[27.3064,43.4133,352.8127],[27.3024,43.3987,365.2434],[27.3052,43.3854,325.5902],[27.315,43.3736,295.7555],[27.3359,43.3645,217.9348],[27.3381,43.3622,206.5378],[27.3386,43.3577,199.1999],[27.3186,43.3289,287.6099],[27.3089,43.3221,198.2392],[27.2962,43.3163,177.6013],[27.2771,43.3159,139.1925],[27.27,43.3108,119.2359],[27.2686,43.3038,114.254],[27.2718,43.2939,136.3039],[27.29,43.2734,150.3011]]]]}}