{"type": "Feature","bbox": [26.0416,41.7099,26.5815,42.0222],"geometry": {"type": "MultiPolygon","coordinates": [[[[26.2173,41.9658,339.1915],[26.2217,41.9554,331.4629],[26.2251,41.9315,323.4298],[26.2218,41.9112,283.4756],[26.2129,41.8948,277.5461],[26.2103,41.8901,201.0875],[26.1894,41.8805,265.8777],[26.1729,41.8687,198.0444],[26.1447,41.8388,121.3535],[26.1414,41.8304,68.2693],[26.1399,41.8229,61.5617],[26.1415,41.816,55.736],[26.1611,41.8096,65.8891],[26.1623,41.8033,55.8034],[26.1586,41.8,54.6577],[26.1539,41.7989,54.098],[26.1282,41.7994,54.2846],[26.1048,41.7933,76.4823],[26.0876,41.7956,101.5235],[26.0776,41.7944,88.8624],[26.072,41.7896,101.1278],[26.0677,41.7817,114.698],[26.0654,41.7723,121.9132],[26.066,41.7628,129.737],[26.0648,41.7586,142.0989],[26.0593,41.7538,156.3752],[26.043,41.745,272.259],[26.0416,41.7415,352.5378],[26.044,41.7357,310.5198],[26.0507,41.7319,379.1618],[26.0837,41.7238,296.9294],[26.1144,41.7218,135.073],[26.1241,41.7295,117.8923],[26.1425,41.7346,100.9099],[26.1502,41.7394,83.4161],[26.1743,41.748,49.2363],[26.1773,41.748,49.3594],[26.1788,41.7424,49.1192],[26.1831,41.7393,50.4128],[26.1967,41.7344,50.4234],[26.2172,41.7312,47.1368],[26.2243,41.7365,48.2419],[26.2266,41.7457,48.0996],[26.2302,41.7446,48.9474],[26.2306,41.7479,48.6981],[26.235,41.7467,50.6869],[26.2341,41.7402,47.9354],[26.248,41.7281,49.1141],[26.2506,41.7224,44.6512],[26.2598,41.7215,47.8861],[26.264,41.7184,45.6629],[26.286,41.7119,45.8858],[26.2926,41.7127,46.4888],[26.3011,41.7105,45.7076],[26.3157,41.7105,42.6548],[26.3285,41.7165,43.8983],[26.3346,41.7176,43.0755],[26.346,41.7127,42.4512],[26.3616,41.7124,46.2454],[26.3621,41.7099,46.5826],[26.3653,41.7106,46.5945],[26.3702,41.712,45.9138],[26.365,41.7203,57.0777],[26.3414,41.7481,88.7909],[26.3396,41.7589,109.8229],[26.3484,41.7832,126.4843],[26.3774,41.8327,253.1011],[26.3839,41.8362,263.7794],[26.538,41.8373,137.3913],[26.5509,41.8451,183.9017],[26.5572,41.858,66.9185],[26.5688,41.8699,59.3414],[26.5815,41.8781,75.428],[26.573,41.887,114.1643],[26.5743,41.8903,52.4701],[26.5815,41.8973,83.6632],[26.5801,41.8978,69.4057],[26.5755,41.8984,106.0178],[26.5702,41.8958,114.954],[26.5603,41.8833,161.7262],[26.5538,41.8807,173.9591],[26.5459,41.8801,169.682],[26.5236,41.8938,202.7894],[26.514,41.9066,208.033],[26.5064,41.9041,239.0248],[26.4979,41.9059,259.7672],[26.4899,41.9052,246.1316],[26.4814,41.9017,262.559],[26.4751,41.9029,255.1131],[26.4715,41.9052,248.7894],[26.4705,41.9199,291.4659],[26.4627,41.9301,286.6861],[26.4619,41.9333,287.0318],[26.4622,41.9516,279.2448],[26.4605,41.9622,263.0616],[26.4529,41.9727,279.113],[26.4472,41.9777,217.8795],[26.4247,41.9811,257.3233],[26.4089,41.992,255.432],[26.3976,41.9934,304.4559],[26.3957,41.9916,286.6445],[26.3952,41.9849,270.3828],[26.4064,41.9635,304.4607],[26.4052,41.9582,314.819],[26.4031,41.9567,301.9235],[26.3827,41.9587,380.0602],[26.3778,41.9605,399.8352],[26.3416,41.9917,787.2732],[26.3195,42.0055,629.8579],[26.2992,42.0222,534.0799],[26.2899,42.0214,535.3657],[26.2758,42.0127,664.7269],[26.2665,42.0102,599.0399],[26.2617,41.9943,686.48],[26.2491,41.986,599.4222],[26.2277,41.9775,432.7368],[26.2224,41.9738,396.8088],[26.2173,41.9658,339.1915]]]]}
,"properties": {"GID_2": "BGR.6.10_1","GID_0": "BGR","country": "Bulgaria","GID_1": "BGR.6_1","state": "Haskovo","NL_NAME_1": "Хасково","county": "Svilengrad","VARNAME_2": "NA","NL_NAME_2": "Свиленград","TYPE_2": "Obshtina","ENGTYPE_2": "Municipality","CC_2": "NA","HASC_2": "BG.KK.SV","name": "Svilengrad.county","area_km2": 686.0931,"hist_schema_id": "Elevation0-9000","hist_area_km2": {"50": 56.8755,"75": 38.3765,"100": 47.2427,"125": 51.5777,"150": 55.5623,"175": 46.7292,"200": 40.163,"225": 38.3708,"250": 42.558,"275": 46.1949,"300": 37.1989,"325": 28.392,"350": 27.189,"375": 24.2337,"400": 18.8051,"425": 14.733,"450": 13.0284,"475": 10.4715,"500": 8.4363,"525": 5.7392,"550": 4.1934,"575": 4.193,"600": 3.4991,"625": 3.1836,"650": 3.2621,"675": 3.4038,"700": 3.7345,"725": 3.183,"750": 2.5055,"775": 1.2923,"800": 0.8983,"825": 0.6776,"850": 0.1891}}}