{"type":"Feature","properties":{"GID_2":"BGR.23.4_1","GID_0":"BGR","country":"Bulgaria","GID_1":"BGR.23_1","state":"Targovishte","NL_NAME_1":"Търговищка","county":"Popovo","VARNAME_2":"NA","NL_NAME_2":"Попово","TYPE_2":"Obshtina","ENGTYPE_2":"Municipality","CC_2":"NA","HASC_2":"BG.TU.PO","name":"Popovo.county"},
"geometry":{"type": "MultiPolygon","coordinates": [[[[26.4689,43.4599,387.2666],[26.456,43.4654,357.6016],[26.4447,43.4653,348.8802],[26.3964,43.4563,270.3133],[26.3813,43.4569,267.2681],[26.3723,43.4601,243.7258],[26.3613,43.4687,261.3039],[26.3582,43.4753,327.8955],[26.358,43.4858,392.0421],[26.3602,43.4994,431.5156],[26.3591,43.504,391.2543],[26.3552,43.5086,380.7552],[26.3291,43.515,351.5266],[26.3236,43.5199,395.0762],[26.3147,43.532,371.9335],[26.3117,43.5402,348.3012],[26.2688,43.5529,365.6828],[26.2495,43.5723,296.6301],[26.229,43.5742,304.7759],[26.2243,43.5731,299.4441],[26.2193,43.5686,303.8153],[26.2069,43.554,134.8116],[26.2059,43.5497,149.1381],[26.2125,43.5444,214.3507],[26.2181,43.5357,259.3394],[26.2234,43.5204,361.871],[26.2124,43.505,317.452],[26.2085,43.4952,356.4786],[26.2088,43.4791,390.1308],[26.2153,43.4573,267.9774],[26.2148,43.4481,371.7625],[26.2113,43.443,383.6916],[26.2005,43.4381,327.3036],[26.1908,43.4363,160.9551],[26.1757,43.4305,352.9786],[26.1608,43.4278,377.7871],[26.1471,43.431,326.6863],[26.1268,43.4409,309.1377],[26.1151,43.4446,278.2821],[26.1059,43.444,348.1806],[26.0916,43.4344,382.7703],[26.0802,43.4471,307.1359],[26.0677,43.4552,353.8314],[26.0475,43.4535,330.2806],[26.041,43.4538,366.3796],[26.0333,43.4565,367.9219],[26.0139,43.4567,351.4416],[26.0102,43.452,365.2893],[26.0039,43.4373,378.9909],[25.9937,43.4277,248.9795],[25.9723,43.4188,274.8417],[25.9574,43.4165,289.6984],[25.9553,43.4132,279.1992],[25.9625,43.4058,341.3257],[25.9777,43.3949,302.3665],[26.0097,43.3838,430.8138],[26.0272,43.3718,427.2528],[26.0292,43.363,425.2372],[26.0247,43.3423,323.964],[26.0269,43.328,313.9951],[26.0497,43.3259,343.9438],[26.0624,43.3212,352.2571],[26.0938,43.3054,381.2284],[26.0983,43.3003,333.2918],[26.1022,43.2947,269.9423],[26.1004,43.289,304.0874],[26.0912,43.2826,301.9023],[26.0735,43.2746,256.5699],[26.0694,43.2676,148.1453],[26.0713,43.2639,240.0351],[26.0916,43.2567,265.8065],[26.0947,43.2525,252.3427],[26.0955,43.2468,305.7301],[26.1069,43.233,337.376],[26.1229,43.2278,324.0521],[26.1403,43.2399,306.8557],[26.155,43.2452,318.0999],[26.1674,43.241,335.7672],[26.1784,43.2338,385.0209],[26.1884,43.2301,338.2542],[26.1957,43.2307,347.3964],[26.2253,43.2418,370.0144],[26.2419,43.2417,367.5111],[26.2525,43.2395,391.0735],[26.2745,43.2258,421.917],[26.2939,43.2244,269.7871],[26.3041,43.2271,342.2287],[26.3329,43.2404,266.6705],[26.3438,43.2368,303.0569],[26.346,43.2553,338.9872],[26.3495,43.2618,258.3616],[26.3617,43.2661,377.4477],[26.3756,43.2685,344.8868],[26.3884,43.2766,401.9431],[26.3809,43.2803,392.7482],[26.371,43.2926,270.3304],[26.3698,43.2977,250.643],[26.372,43.3021,273.1588],[26.381,43.3055,349.1791],[26.3911,43.3062,386.0326],[26.3987,43.3112,385.5961],[26.3975,43.3189,408.9707],[26.3839,43.3216,275.1336],[26.3759,43.329,256.8698],[26.354,43.3292,321.723],[26.3465,43.3316,299.3409],[26.3411,43.3407,453.3089],[26.3395,43.3481,471.6587],[26.3348,43.3538,454.2411],[26.3336,43.36,375.2515],[26.3539,43.3652,328.8413],[26.3622,43.3696,300.4645],[26.3794,43.3691,315.328],[26.3885,43.3795,314.8708],[26.4024,43.3839,247.2237],[26.4189,43.3928,321.2262],[26.4315,43.3976,270.5281],[26.4389,43.403,301.3626],[26.4445,43.4098,366.9154],[26.4639,43.4232,474.1137],[26.4679,43.4283,458.4358],[26.4663,43.4342,402.3783],[26.4604,43.4417,363.493],[26.4603,43.4446,385.1528],[26.4615,43.4511,354.455],[26.4683,43.4569,396.1621],[26.4689,43.4599,387.2666]]]]}}