{"type": "Feature","bbox": [26.3057,43.4513,26.7176,43.7543],"geometry": {"type": "MultiPolygon","coordinates": [[[[26.7023,43.6834,251.2797],[26.6871,43.6904,211.4398],[26.6771,43.6919,243.6107],[26.6574,43.6861,302.5271],[26.6469,43.6847,308.3304],[26.6222,43.6893,273.7075],[26.5917,43.6887,263.6111],[26.5884,43.6906,295.7686],[26.5882,43.6941,298.6703],[26.5945,43.7021,299.6849],[26.5947,43.7088,270.9689],[26.5844,43.7182,311.8474],[26.5791,43.7258,285.2108],[26.5827,43.7363,278.7651],[26.5818,43.7406,266.693],[26.5547,43.7543,246.2156],[26.5507,43.7392,253.4221],[26.5525,43.729,268.7269],[26.5522,43.7159,262.0673],[26.547,43.6999,307.7822],[26.5274,43.6686,262.0593],[26.5098,43.6555,284.0756],[26.4861,43.6489,309.2471],[26.4696,43.6478,279.5494],[26.4176,43.6482,284.165],[26.3698,43.6516,197.5865],[26.3467,43.6509,164.5195],[26.3296,43.649,155.6101],[26.3057,43.6425,221.9769],[26.3255,43.6228,271.8575],[26.3309,43.6135,266.5732],[26.3351,43.5964,289.4064],[26.3345,43.5793,314.0847],[26.3293,43.5638,332.0347],[26.3252,43.5588,336.1135],[26.3205,43.548,387.9111],[26.3117,43.5402,348.3012],[26.312,43.5369,354.2339],[26.3214,43.5226,380.0262],[26.3291,43.515,351.5266],[26.3429,43.5126,387.4762],[26.3552,43.5086,380.7552],[26.3579,43.506,385.6171],[26.3602,43.4994,431.5156],[26.3579,43.4775,337.6457],[26.3613,43.4687,261.3039],[26.3687,43.4621,275.0213],[26.3813,43.4569,267.2681],[26.4064,43.4571,263.574],[26.4222,43.4615,321.8503],[26.4467,43.4654,344.648],[26.4582,43.4649,362.4509],[26.4689,43.4599,387.2666],[26.484,43.4595,338.5353],[26.4934,43.4626,341.3505],[26.5001,43.4695,355.5523],[26.5132,43.4762,438.1377],[26.5187,43.474,461.137],[26.526,43.4587,439.6946],[26.5307,43.4535,437.3004],[26.5417,43.4513,410.6521],[26.5499,43.4536,375.6112],[26.579,43.4677,389.1319],[26.6022,43.4721,321.1302],[26.609,43.4768,288.2244],[26.6164,43.4879,293.1113],[26.6206,43.4907,265.5203],[26.6455,43.5,285.5036],[26.6616,43.5186,348.1379],[26.6741,43.5209,402.3339],[26.6863,43.5197,401.0649],[26.6905,43.5332,420.0492],[26.698,43.5413,417.112],[26.7052,43.5464,413.0545],[26.7111,43.5543,381.9821],[26.7148,43.5664,334.5125],[26.7139,43.569,348.7935],[26.6985,43.5773,359.8403],[26.6953,43.5826,344.1166],[26.6984,43.5879,328.1721],[26.7121,43.5986,336.9445],[26.7148,43.6035,330.5005],[26.7175,43.6149,293.0595],[26.7176,43.624,310.459],[26.715,43.6312,297.6011],[26.7107,43.636,255.044],[26.689,43.6536,258.1446],[26.6872,43.6613,256.9072],[26.6907,43.6715,261.5394],[26.7023,43.6834,251.2797]]]]}
,"properties": {"GID_2": "BGR.15.4_1","GID_0": "BGR","country": "Bulgaria","GID_1": "BGR.15_1","state": "Razgrad","NL_NAME_1": "Разград","county": "Razgrad","VARNAME_2": "NA","NL_NAME_2": "Разград","TYPE_2": "City","ENGTYPE_2": "City","CC_2": "NA","HASC_2": "BG.RG.RA","name": "Razgrad.county","area_km2": 661.8164,"hist_schema_id": "Elevation0-9000","hist_area_km2": {"150": 1.9795,"175": 14.897,"200": 23.3055,"225": 41.1386,"250": 72.3677,"275": 116.7884,"300": 141.8095,"325": 98.2432,"350": 68.7603,"375": 44.0874,"400": 22.2777,"425": 11.9018,"450": 4.152,"475": 0.1077}}}