{"type": "Feature","bbox": [24.4386,43.5434,24.8248,43.7652],"geometry": {"type": "MultiPolygon","coordinates": [[[[24.7004,43.5434,187.9407],[24.7081,43.5491,183.8135],[24.7149,43.5617,130.4534],[24.7193,43.5668,77.2149],[24.7467,43.5697,192.9357],[24.7615,43.5733,166.5401],[24.7799,43.572,160.6753],[24.7865,43.5732,139.5836],[24.7958,43.5778,102.7668],[24.8037,43.5789,127.5286],[24.8128,43.585,115.4033],[24.8213,43.5858,133.9916],[24.8163,43.5904,95.4407],[24.8155,43.593,59.6977],[24.8191,43.6167,134.3427],[24.8185,43.6274,112.9039],[24.8079,43.6499,111.7522],[24.8087,43.6551,137.662],[24.813,43.6623,116.1066],[24.8142,43.6694,111.5719],[24.8248,43.6852,63.8223],[24.8177,43.7127,18.0],[24.8,43.7096,18.0],[24.8007,43.7082,18.0],[24.7811,43.6983,18.0],[24.754,43.6874,18.0],[24.7359,43.6854,18.0],[24.722,43.6884,18.0],[24.7063,43.6941,18.5],[24.685,43.7053,18.5],[24.6694,43.7165,18.5],[24.6707,43.7177,18.5],[24.6327,43.7393,19.0],[24.6123,43.7464,19.0],[24.590699999999998,43.7515,19.0],[24.5717,43.7552,19.5],[24.5614,43.7563,19.5],[24.5607,43.7552,19.5],[24.5257,43.7603,19.5],[24.5142,43.7628,19.5],[24.5144,43.7652,19.5],[24.4998,43.7619,19.5],[24.4554,43.7451,19.5],[24.4596,43.7366,24.8991],[24.4583,43.7253,25.1628],[24.4541,43.7166,26.2824],[24.4447,43.7076,25.6348],[24.4386,43.693,26.838],[24.4462,43.6791,27.9354],[24.4485,43.6665,69.4045],[24.4534,43.6622,102.5883],[24.476,43.6585,169.032],[24.4818,43.6553,206.6129],[24.5045,43.6127,173.1868],[24.5118,43.6026,147.6788],[24.52,43.6002,153.1345],[24.5303,43.6023,156.0697],[24.5506,43.618,159.5879],[24.5641,43.6219,118.1976],[24.608,43.626,134.6836],[24.6198,43.6299,88.7828],[24.6526,43.6261,57.5339],[24.6623,43.6167,46.2783],[24.6762,43.6074,30.2073],[24.6794,43.6019,30.3974],[24.6836,43.5889,107.4285],[24.6899,43.5794,149.0934],[24.6894,43.5557,152.4585],[24.7004,43.5434,187.9407]]]]}
,"properties": {"GID_2": "BGR.13.5_1","GID_0": "BGR","country": "Bulgaria","GID_1": "BGR.13_1","state": "Pleven","NL_NAME_1": "Плевенска","county": "Gulyantsi","VARNAME_2": "NA","NL_NAME_2": "NA","TYPE_2": "Obshtina","ENGTYPE_2": "Municipality","CC_2": "NA","HASC_2": "BG.PV.GU","name": "Gulyantsi.county","area_km2": 406.8194,"hist_schema_id": "Elevation0-9000","hist_area_km2": {"25": 233.1497,"50": 22.903,"75": 14.394,"100": 17.5265,"125": 31.277,"150": 44.2907,"175": 30.5744,"200": 11.2316,"225": 1.4726}}}