{"type":"Feature","properties":{"GID_2":"BGR.16.7_1","GID_0":"BGR","country":"Bulgaria","GID_1":"BGR.16_1","state":"Ruse","NL_NAME_1":"Русенска","county":"Tsenovo","VARNAME_2":"NA","NL_NAME_2":"NA","TYPE_2":"Obshtina","ENGTYPE_2":"Municipality","CC_2":"NA","HASC_2":"BG.RS.CE","name":"Tsenovo.county"},
"geometry":{"type": "MultiPolygon","coordinates": [[[[25.645,43.6796,14.0],[25.6421,43.6778,14.0],[25.6427,43.6769,14.0],[25.6115,43.6675,14.0],[25.5725,43.6474,14.0],[25.5648,43.6452,14.0],[25.5466,43.6447,14.0],[25.5462,43.6433,14.0],[25.516,43.6454,14.0],[25.5154,43.6467,14.0],[25.5109,43.6452,14.0],[25.5098,43.6472,14.0],[25.5039,43.6459,14.0],[25.527,43.6288,17.7465],[25.5313,43.6221,17.5058],[25.5324,43.6142,17.8403],[25.5256,43.6058,75.4064],[25.5012,43.5949,142.9861],[25.4948,43.5887,91.9412],[25.4945,43.58,47.192],[25.5041,43.5621,67.2673],[25.5171,43.5534,114.0708],[25.5231,43.532,176.8633],[25.5259,43.5288,159.3767],[25.5352,43.5254,159.0499],[25.5437,43.5135,119.4128],[25.5438,43.5103,112.052],[25.5474,43.508,111.0369],[25.566,43.5035,54.5741],[25.5886,43.504,60.0449],[25.621,43.522,123.3307],[25.6306,43.5247,127.7889],[25.642,43.5251,115.1566],[25.6511,43.5203,76.2831],[25.6535,43.5165,79.002],[25.6608,43.4928,64.606],[25.6649,43.4906,60.7342],[25.6736,43.4896,31.1487],[25.6909,43.4952,46.1517],[25.696,43.5005,45.2235],[25.6963,43.5137,26.4745],[25.7012,43.5202,26.2869],[25.7108,43.5211,47.3704],[25.7214,43.519,136.2899],[25.7267,43.5198,114.5569],[25.7411,43.5288,208.9897],[25.7518,43.5399,258.186],[25.7476,43.5456,259.9598],[25.746,43.5524,239.2103],[25.749,43.5634,220.7136],[25.7536,43.5694,185.0371],[25.7549,43.58,222.4158],[25.7608,43.5885,199.6058],[25.7612,43.5932,227.6225],[25.7581,43.5977,234.7216],[25.747,43.605,229.2265],[25.7362,43.6094,180.4295],[25.7151,43.6152,115.8021],[25.6922,43.6303,188.3269],[25.6713,43.6472,103.5536],[25.6684,43.6583,140.6604],[25.6598,43.6645,17.042],[25.645,43.6796,14.0]]]]}}