{"type": "Feature","bbox": [27.266,41.8996,27.7705,42.2029],"geometry": {"type": "MultiPolygon","coordinates": [[[[27.304,42.2005,375.2659],[27.2785,42.1975,365.6274],[27.2705,42.193,346.8297],[27.2666,42.1858,332.2816],[27.266,42.1749,344.308],[27.2793,42.1504,411.7422],[27.2825,42.1396,376.1876],[27.2814,42.1122,416.0655],[27.2757,42.1051,471.369],[27.2857,42.099,457.4528],[27.2987,42.0964,425.8811],[27.3095,42.0904,425.9865],[27.3294,42.0841,365.6661],[27.3356,42.0781,279.2834],[27.3387,42.0716,322.9269],[27.3396,42.0657,300.0822],[27.3381,42.064,279.4742],[27.3396,42.0622,317.7744],[27.3548,42.0607,384.3267],[27.3647,42.0581,416.3073],[27.3716,42.0544,390.7486],[27.3769,42.0495,429.1862],[27.3842,42.0344,463.4441],[27.387,42.0248,492.7798],[27.3943,42.0133,586.7633],[27.4108,41.9998,556.0904],[27.4159,41.9901,457.8781],[27.4197,41.9889,466.506],[27.4282,41.9899,529.2583],[27.4319,41.9869,536.739],[27.4361,41.9748,649.803],[27.4414,41.9699,642.7007],[27.4528,41.9685,623.1022],[27.4605,41.9696,662.7186],[27.4635,41.9683,645.0026],[27.4709,41.9592,518.3641],[27.4807,41.9524,561.8984],[27.4899,41.9511,479.8355],[27.5053,41.9532,440.482],[27.509,41.9507,410.6175],[27.5216,41.9367,383.2425],[27.5354,41.9131,442.0815],[27.5514,41.8996,330.7037],[27.5639,41.9014,337.4434],[27.5674,41.9063,310.901],[27.5654,41.9103,336.38],[27.5574,41.9122,380.7786],[27.5574,41.9136,380.7786],[27.569,41.9178,292.458],[27.5686,41.9204,288.5482],[27.5608,41.922,332.2417],[27.5687,41.9315,281.9676],[27.5686,41.9366,351.1584],[27.5716,41.9366,293.1957],[27.5774,41.9315,347.8775],[27.5807,41.9309,353.7045],[27.5969,41.9442,288.2597],[27.6023,41.9424,286.7051],[27.6026,41.9361,321.1748],[27.6081,41.9376,265.5758],[27.6226,41.9452,258.543],[27.6147,41.9509,271.866],[27.6141,41.9532,298.7325],[27.6166,41.9543,316.9927],[27.625,41.9518,244.0422],[27.6323,41.9544,241.0527],[27.634,41.9504,355.3605],[27.6429,41.9554,232.7925],[27.6496,41.9566,296.7138],[27.6512,41.9521,311.2702],[27.6536,41.9516,314.0409],[27.6632,41.9577,213.59],[27.6654,41.9522,246.8938],[27.6685,41.9526,231.4479],[27.6704,41.9575,204.8472],[27.6738,41.9584,273.3322],[27.6761,41.9649,219.7153],[27.6813,41.9669,215.5849],[27.6936,41.9649,212.6604],[27.6961,41.9665,264.4599],[27.692,41.9709,176.4038],[27.6926,41.973,142.1183],[27.7152,41.9707,270.0712],[27.7223,41.967,295.3565],[27.7251,41.9679,219.6147],[27.7291,41.9727,117.0552],[27.7404,41.9677,179.8896],[27.7349,41.9625,278.9685],[27.7375,41.9603,331.1081],[27.7541,41.9598,266.3051],[27.7621,41.9657,125.4815],[27.7683,41.9749,240.273],[27.7705,41.9807,239.8296],[27.7673,41.9903,247.7434],[27.7601,42.0037,260.6401],[27.7495,42.0155,200.4862],[27.7448,42.0196,100.2947],[27.7253,42.0275,73.726],[27.7134,42.0341,62.3482],[27.7054,42.0435,108.3515],[27.702,42.0509,143.32],[27.6936,42.0593,180.1934],[27.6881,42.0617,173.1847],[27.6676,42.0648,263.6993],[27.6642,42.0665,250.0737],[27.6605,42.08,212.9564],[27.6458,42.0915,263.2608],[27.6379,42.1046,292.8517],[27.6382,42.1108,287.8144],[27.642,42.1187,265.8708],[27.65,42.1277,155.7696],[27.6542,42.1381,163.7092],[27.6497,42.1563,226.6698],[27.6279,42.1606,301.6453],[27.6219,42.1642,291.5267],[27.6148,42.1787,291.708],[27.6095,42.1839,317.9172],[27.6026,42.1877,309.3804],[27.5903,42.1896,230.6067],[27.5932,42.1783,279.5731],[27.5918,42.1746,352.4811],[27.5743,42.1612,402.8612],[27.572,42.1482,375.1044],[27.5669,42.1446,370.9432],[27.5607,42.1431,353.1224],[27.5519,42.1455,438.321],[27.5347,42.1547,352.3832],[27.5285,42.1675,384.0102],[27.5234,42.1742,393.9348],[27.5064,42.1811,418.7203],[27.486,42.1838,366.3397],[27.4722,42.1874,358.3831],[27.4535,42.1863,410.0926],[27.4389,42.1873,322.4293],[27.423,42.1915,344.1673],[27.4137,42.1912,320.3643],[27.3939,42.1874,332.2253],[27.3716,42.2029,369.283],[27.353,42.2004,338.2156],[27.3352,42.1927,373.0098],[27.3301,42.1926,359.8607],[27.3165,42.2006,366.075],[27.304,42.2005,375.2659]]]]}
,"properties": {"GID_2": "BGR.2.5_1","GID_0": "BGR","country": "Bulgaria","GID_1": "BGR.2_1","state": "Burgas","NL_NAME_1": "Бургас","county": "MalkoTarnovo","VARNAME_2": "NA","NL_NAME_2": "МалкоТърново","TYPE_2": "Obshtina","ENGTYPE_2": "Municipality","CC_2": "NA","HASC_2": "BG.BR.MT","name": "MalkoTarnovo.county","area_km2": 742.1541,"hist_schema_id": "Elevation0-9000","hist_area_km2": {"50": 2.8664,"75": 4.9452,"100": 9.953,"125": 13.6682,"150": 20.4352,"175": 29.6406,"200": 43.125,"225": 59.9892,"250": 76.728,"275": 78.0096,"300": 82.2824,"325": 86.4265,"350": 70.1726,"375": 46.8459,"400": 34.5165,"425": 26.6008,"450": 20.1304,"475": 12.8563,"500": 7.3589,"525": 4.4599,"550": 3.6564,"575": 3.2153,"600": 2.0333,"625": 1.1191,"650": 0.7409,"675": 0.3468,"700": 0.0315}}}