{"type": "Feature","bbox": [23.6191,43.3513,23.841,43.5435],"geometry": {"type": "MultiPolygon","coordinates": [[[[23.7627,43.5435,118.7358],[23.7515,43.5398,140.5726],[23.7464,43.5366,153.0337],[23.7392,43.5171,139.656],[23.7263,43.5113,148.8345],[23.7147,43.5094,151.8526],[23.6999,43.5112,146.1408],[23.667,43.5243,144.8632],[23.6486,43.5287,159.3125],[23.6426,43.5256,158.4099],[23.6324,43.5147,169.2532],[23.6191,43.4926,161.1042],[23.636,43.4782,173.0229],[23.6458,43.4538,197.7698],[23.6492,43.4491,202.2883],[23.6863,43.4295,205.466],[23.6959,43.4097,217.0498],[23.7284,43.3919,226.1959],[23.745,43.3743,253.64],[23.7773,43.3513,220.2039],[23.7953,43.3645,237.9194],[23.8232,43.3742,163.6588],[23.8366,43.3852,160.7041],[23.8373,43.3887,168.9632],[23.8356,43.3955,180.2032],[23.84,43.4083,183.3096],[23.839,43.4117,183.183],[23.8348,43.4164,175.2876],[23.8183,43.4213,184.5052],[23.8141,43.4269,187.0701],[23.8139,43.4306,189.2202],[23.8215,43.4497,177.266],[23.8385,43.461,164.7591],[23.841,43.4642,153.706],[23.840699999999998,43.4703,160.8792],[23.8357,43.4795,145.4946],[23.8347,43.4847,151.5367],[23.8233,43.5026,142.85],[23.8179,43.5068,136.6215],[23.8043,43.5124,142.16],[23.7894,43.5244,129.6088],[23.7812,43.5277,126.2898],[23.7757,43.5352,119.292],[23.7627,43.5435,118.7358]]]]}
,"properties": {"GID_2": "BGR.27.1_1","GID_0": "BGR","country": "Bulgaria","GID_1": "BGR.27_1","state": "Vratsa","NL_NAME_1": "Враца","county": "Borovan","VARNAME_2": "NA","NL_NAME_2": "NA","TYPE_2": "Obshtina","ENGTYPE_2": "Municipality","CC_2": "NA","HASC_2": "BG.VR.BO","name": "Borovan.county","area_km2": 220.6154,"hist_schema_id": "Elevation0-9000","hist_area_km2": {"100": 0.2921,"125": 8.1799,"150": 58.6908,"175": 82.2535,"200": 62.6783,"225": 7.0565,"250": 0.9865,"275": 0.262,"300": 0.1387,"325": 0.0771}}}