{"type": "Feature","bbox": [24.1232,42.6047,24.341,42.7729],"geometry": {"type": "MultiPolygon","coordinates": [[[[24.1917,42.7729,1383.3544],[24.1698,42.7438,1202.3179],[24.1248,42.6649,742.1418],[24.1232,42.6551,634.809],[24.1297,42.6448,828.7037],[24.128,42.6251,1024.1088],[24.1298,42.6185,1030.8434],[24.1422,42.6047,1328.2511],[24.1651,42.6108,1209.7],[24.2224,42.6217,1327.6062],[24.229,42.6215,1377.6195],[24.2537,42.6118,1371.3586],[24.263,42.6104,1377.9509],[24.2796,42.6117,1269.7034],[24.2805,42.6174,1418.2357],[24.2956,42.6324,1406.9142],[24.2975,42.6369,1347.8271],[24.2932,42.6476,1145.8079],[24.295,42.6552,1029.3661],[24.3234,42.6698,1168.4464],[24.341,42.6872,914.5927],[24.3066,42.6959,910.7834],[24.2993,42.7017,786.6531],[24.2919,42.7136,856.613],[24.2853,42.717,819.0023],[24.2725,42.7161,764.3893],[24.2624,42.7132,738.95],[24.2372,42.7114,727.1581],[24.2223,42.712,739.7018],[24.2177,42.7143,756.2784],[24.2148,42.717,763.9384],[24.2132,42.7217,787.9374],[24.2174,42.7366,972.4015],[24.2202,42.7696,1780.8306],[24.2131,42.7693,1615.728],[24.1917,42.7729,1383.3544]]]]}
,"properties": {"GID_2": "BGR.21.17_1","GID_0": "BGR","country": "Bulgaria","GID_1": "BGR.21_1","state": "Sofia","NL_NAME_1": "Sofija","county": "Pirdop","VARNAME_2": "NA","NL_NAME_2": "NA","TYPE_2": "Obshtina","ENGTYPE_2": "Municipality","CC_2": "NA","HASC_2": "BG.SF.PI","name": "Pirdop.county","area_km2": 180.4963,"hist_schema_id": "Elevation0-9000","hist_area_km2": {"550": 0.0312,"575": 0.6861,"600": 1.5591,"625": 1.9329,"650": 4.9411,"675": 7.512,"700": 12.3281,"725": 11.4071,"750": 10.3479,"775": 9.2885,"800": 8.1196,"825": 8.6657,"850": 6.4528,"875": 4.8169,"900": 4.1002,"925": 5.0982,"950": 4.6618,"975": 4.8021,"1000": 4.8803,"1025": 4.9585,"1050": 5.2545,"1075": 4.9428,"1100": 4.4438,"1125": 4.475,"1150": 3.8982,"1175": 3.0718,"1200": 3.2123,"1225": 3.4929,"1250": 3.415,"1275": 3.4929,"1300": 3.2592,"1325": 3.3529,"1350": 3.3532,"1375": 3.603,"1400": 2.6828,"1425": 0.8573,"1450": 0.5451,"1475": 0.3736,"1500": 0.3892,"1525": 0.3736,"1550": 0.4203,"1575": 0.3269,"1600": 0.2802,"1625": 0.3425,"1650": 0.2802,"1675": 0.4359,"1700": 0.3736,"1725": 0.2958,"1750": 0.4358,"1775": 0.3269,"1800": 0.2646,"1825": 0.2802,"1850": 0.2802,"1875": 0.2335,"1900": 0.2024,"1925": 0.2024,"1950": 0.2335,"1975": 0.1868,"2000": 0.0156}}}