{"type": "Feature","id": "2259","bbox": [27.20013,43.35309,28.60353,43.99334],"geometry": {"type": "Polygon","coordinates": [[[28.43457,43.73521,61.1067],[28.22125,43.76198,151.4233],[28.01481,43.83004,204.1624],[27.98101,43.84934,160.4291],[27.93584,43.9644,173.297],[27.91207,43.99323,158.9297],[27.91207,43.99334,158.9297],[27.85647,43.98863,158.2817],[27.78733,43.96042,188.203],[27.7217,43.94874,132.6461],[27.68251,43.98726,104.6309],[27.68217,43.98726,104.6309],[27.65519,43.98786,155.3824],[27.63659,43.97639,85.1748],[27.64144,43.95422,131.6333],[27.62315,43.9392,146.1089],[27.60475,43.93866,165.0817],[27.61044,43.92709,119.5993],[27.60744,43.90802,177.3645],[27.57799,43.90373,200.1247],[27.55577,43.9184,200.0741],[27.53086,43.91347,209.2206],[27.51897,43.88308,200.0299],[27.52145,43.85205,202.3177],[27.48125,43.83086,189.4344],[27.43019,43.8444,200.5993],[27.39888,43.83975,181.3972],[27.37376,43.82508,163.2912],[27.38606,43.77604,211.4751],[27.34224,43.77536,209.562],[27.29635,43.80247,217.6824],[27.2764,43.79469,155.0078],[27.264,43.77474,215.8232],[27.21553,43.7427,200.984],[27.21294,43.69793,208.6503],[27.23703,43.67072,266.4052],[27.21956,43.66563,256.5262],[27.20013,43.66891,216.4077],[27.25625,43.6353,235.2125],[27.27692,43.60494,238.1293],[27.30586,43.59486,280.8978],[27.34544,43.60385,260.1418],[27.38565,43.60935,253.385],[27.4088,43.59863,237.6919],[27.41893,43.57124,257.36],[27.45851,43.56272,223.6158],[27.48838,43.53212,243.7783],[27.49499,43.50804,286.1528],[27.5199,43.49915,239.4149],[27.53055,43.5037,214.2262],[27.53851,43.50985,215.9768],[27.55866,43.51179,227.2159],[27.57788,43.51853,204.3608],[27.58832,43.53776,187.9929],[27.60382,43.54194,245.573],[27.63824,43.50592,274.1012],[27.67803,43.4789,306.37],[27.71514,43.47332,209.4807],[27.74087,43.45678,254.4579],[27.75927,43.43177,284.9405],[27.80867,43.38769,338.1997],[27.86768,43.36542,278.3438],[27.88815,43.37053,188.9058],[27.90448,43.38428,134.5624],[27.93383,43.3943,164.5646],[27.96546,43.39283,266.8164],[27.99295,43.37255,257.7504],[28.01352,43.35309,82.5441],[28.04876,43.35322,30.025],[28.0839,43.35622,0.0],[28.087,43.35523,0.0],[28.08701,43.35525,0.0],[28.09156,43.36396,0.0],[28.11883,43.39155,85.7288],[28.15724,43.40778,53.6719],[28.17799,43.40998,181.05],[28.24317,43.40778,44.8556],[28.26157,43.41096,42.4235],[28.29916,43.42503,140.9371],[28.32163,43.42829,78.3789],[28.36866,43.42178,114.612],[28.39381,43.41429,105.5922],[28.40496,43.40469,95.9993],[28.41456,43.39887,86.7164],[28.45948,43.38068,62.0485],[28.47316,43.36685,0.0],[28.47389,43.38426,32.5498],[28.47926,43.3968,51.0843],[28.48862,43.40644,49.2289],[28.535,43.43863,48.9478],[28.54518,43.44253,43.071],[28.56031,43.45384,4.9227],[28.57846,43.48078,4.9739],[28.59457,43.51252,13.248],[28.60353,43.53815,8.8494],[28.60271,43.55272,9.8783],[28.59588,43.56371,0.0],[28.5857,43.57583,0.0],[28.57553,43.59333,0.0],[28.57309,43.60615,0.0],[28.57618,43.72753,0.0],[28.57838,43.74128,8.4935],[28.43457,43.73521,61.1067]]]}
,"properties": {"ISO3166-1-Alpha-3": "BGR","country": "Bulgaria","fill": "#F0F","name": "Dobrich","area_km2": 4649.61,"hist_schema_id": "Elevation0-9000","hist_area_km2": {"0": 43.643,"25": 120.966,"50": 138.505,"75": 199.109,"100": 227.966,"125": 254.398,"150": 306.582,"175": 505.61,"200": 797.97,"225": 960.743,"250": 722.113,"275": 251.119,"300": 92.638,"325": 23.58,"350": 4.668}}}