{"type": "Feature","bbox": [27.2183,43.3007,28.609,44.0085],"geometry": {"type": "MultiPolygon","coordinates": [[[[28.2349,43.404,11.2396],[28.2429,43.4054,0.0],[28.2454,43.4021,2.3457],[28.2512,43.4043,3.6261],[28.254,43.4082,0.0],[28.2668,43.4093,1.7678],[28.2757,43.4135,4.3275],[28.286,43.4121,8.8852],[28.2899,43.4151,0.0],[28.3088,43.4179,9.8423],[28.3282,43.4165,0.0],[28.3451,43.4115,0.0],[28.3565,43.4132,0.6668],[28.359,43.4107,29.7793],[28.3676,43.4079,0.0],[28.3738,43.4076,28.7524],[28.3907,43.4029,24.7411],[28.4057,43.3913,0.0],[28.4154,43.3871,30.1896],[28.4263,43.3838,19.7686],[28.4343,43.3846,27.0314],[28.4529,43.3796,7.2709],[28.4621,43.3701,0.0],[28.4643,43.3654,10.1444],[28.464,43.3601,0.0],[28.4662,43.3596,0.0],[28.4665,43.3676,0.0],[28.471,43.3815,6.9954],[28.4813,43.3896,0.0],[28.4851,43.396,13.3267],[28.4951,43.404,4.3867],[28.4982,43.411,35.5078],[28.5026,43.411,2.9709],[28.5088,43.4151,0.0],[28.514,43.4137,0.0],[28.5154,43.4154,0.0],[28.5174,43.4151,0.0],[28.5179,43.4168,0.0],[28.531,43.424,2.8783],[28.5357,43.4293,15.6261],[28.5393,43.4299,0.0],[28.5449,43.4349,0.0],[28.5468,43.4393,12.2253],[28.5493,43.4399,0.9198],[28.559,43.4532,1.9578],[28.5588,43.4562,4.9416],[28.564,43.4646,7.6007],[28.5749,43.4754,0.0],[28.5863,43.4901,2.1441],[28.586,43.4938,3.2905],[28.5893,43.5004,0.0],[28.594,43.5043,0.0],[28.594,43.5065,2.6709],[28.5982,43.5107,0.0],[28.5999,43.5176,1.2245],[28.6032,43.5204,0.2115],[28.6021,43.5238,0.7174],[28.604,43.5268,0.0],[28.6029,43.5293,3.0683],[28.6057,43.5329,0.0],[28.606,43.5379,0.0],[28.609,43.5393,0.0],[28.609,43.5418,0.0],[28.6038,43.5468,0.0],[28.6046,43.5524,0.0],[28.6029,43.5546,1.975],[28.5993,43.5568,3.8467],[28.5987,43.559,0.0],[28.5968,43.559,0.0],[28.5963,43.561,0.0],[28.5904,43.5635,1.7196],[28.5888,43.5671,0.0],[28.5871,43.5671,12.4705],[28.586,43.5701,4.572],[28.5757,43.581,1.4399],[28.5682,43.6015,13.3472],[28.5704,43.6074,0.0],[28.5704,43.6146,1.2453],[28.576,43.6179,0.0],[28.5737,43.6196,1.6773],[28.5729,43.6285,0.0],[28.5793,43.6376,0.0],[28.5676,43.6538,11.0543],[28.5668,43.6707,0.0],[28.5637,43.6779,1.1198],[28.5632,43.6904,0.0],[28.5654,43.696,1.259],[28.5771,43.701,0.0],[28.5785,43.7085,0.0],[28.5757,43.7113,3.471],[28.5726,43.7243,4.0669],[28.5749,43.7326,2.0593],[28.5788,43.7346,0.0],[28.5799,43.7404,0.0],[28.5034,43.7385,64.8632],[28.47,43.7356,73.365],[28.4359,43.7387,70.9435],[28.4371,43.7359,74.5041],[28.3802,43.7467,93.0774],[28.3787,43.7498,89.8361],[28.3501,43.7555,111.842],[28.227,43.7702,149.0067],[28.1914,43.7806,157.5698],[28.1752,43.782,164.0089],[28.1344,43.7936,176.895],[28.1333,43.7924,176.895],[28.1292,43.7937,176.0491],[28.0173,43.8372,199.2604],[27.9957,43.8432,197.4042],[27.9777,43.9012,194.7653],[27.9555,43.9404,189.3346],[27.9457,43.9851,190.0289],[27.9183,44.0085,191.417],[27.845,43.9667,169.5205],[27.7557,43.9586,120.2775],[27.7393,43.9538,99.8507],[27.7113,43.9589,178.1988],[27.7011,43.966,173.687],[27.6838,43.9855,111.7577],[27.66,43.9856,139.2975],[27.6426,43.9812,105.1574],[27.6252,43.9791,92.2156],[27.6116,43.9678,176.1146],[27.6046,43.956,176.3285],[27.6034,43.9478,142.9532],[27.5927,43.9391,194.6186],[27.5877,43.9373,197.0084],[27.5849,43.9327,199.645],[27.5866,43.9245,197.7351],[27.5948,43.9164,187.4486],[27.5936,43.91,197.6296],[27.58,43.9038,189.0],[27.5579,43.8995,191.6304],[27.5426,43.9054,211.8365],[27.5321,43.9129,209.5466],[27.527,43.9147,208.0796],[27.5199,43.9125,190.427],[27.516,43.9053,209.5496],[27.5102,43.8791,211.1172],[27.5005,43.8603,185.8375],[27.5,43.8564,158.9457],[27.4847,43.8458,212.769],[27.4736,43.8466,171.8585],[27.4687,43.8498,171.8299],[27.4504,43.8695,109.6881],[27.4424,43.8702,125.9285],[27.4241,43.8669,171.7176],[27.4053,43.8542,155.7096],[27.3794,43.8297,174.4976],[27.3693,43.8222,147.5008],[27.3516,43.8144,225.7883],[27.333,43.8153,180.0227],[27.3159,43.8135,203.0163],[27.296,43.7927,164.1547],[27.2777,43.7774,213.1656],[27.2742,43.7714,236.9614],[27.2697,43.7681,220.5111],[27.2337,43.7592,163.8431],[27.2268,43.756,204.3276],[27.2203,43.7455,221.1431],[27.2209,43.7321,232.7805],[27.2183,43.7194,216.3329],[27.2216,43.7154,211.0351],[27.2423,43.7039,255.4743],[27.2519,43.6966,243.7692],[27.2546,43.6876,235.4474],[27.2525,43.6821,232.2346],[27.2472,43.6766,240.1465],[27.2355,43.6746,262.1125],[27.2595,43.663,258.1021],[27.285,43.6602,233.8802],[27.2967,43.6561,228.3902],[27.3022,43.6496,211.3045],[27.3162,43.6215,248.1977],[27.3213,43.6152,249.2124],[27.3262,43.6137,250.2197],[27.3403,43.6136,262.6951],[27.3571,43.6171,237.7415],[27.3891,43.6283,250.3998],[27.4015,43.6312,254.38],[27.4093,43.6303,247.9673],[27.4226,43.6209,256.3657],[27.44,43.5986,206.4959],[27.4463,43.5958,193.92],[27.4561,43.5943,238.4017],[27.4729,43.5967,264.2477],[27.4907,43.5827,222.1277],[27.4991,43.5714,248.0049],[27.5032,43.5616,243.3954],[27.5035,43.5571,232.1149],[27.4983,43.5364,263.9704],[27.4983,43.5252,279.2944],[27.5024,43.5162,291.368],[27.5092,43.5133,290.7148],[27.5394,43.5122,253.5108],[27.5539,43.5152,248.4034],[27.5622,43.5231,232.7372],[27.5739,43.5422,171.1373],[27.5815,43.545,187.2926],[27.5899,43.543,213.3806],[27.6014,43.5349,205.2431],[27.6111,43.5237,219.5378],[27.6076,43.5013,201.0642],[27.6128,43.4928,197.0424],[27.6346,43.4823,252.5209],[27.65,43.4846,256.1668],[27.6669,43.4838,291.7596],[27.678,43.4785,306.4297],[27.6866,43.4771,288.3892],[27.6993,43.4791,258.8082],[27.7074,43.4765,225.3353],[27.711,43.4707,208.7092],[27.7197,43.4466,312.6832],[27.7271,43.4372,311.2852],[27.7508,43.424,288.2805],[27.7531,43.421,290.2607],[27.7658,43.4173,279.7178],[27.7886,43.4146,303.7908],[27.791,43.4023,318.5472],[27.8083,43.3865,338.3163],[27.814,43.3778,350.3456],[27.8433,43.3584,318.46],[27.851,43.3571,298.0902],[27.8614,43.3603,310.3125],[27.8923,43.3842,208.8366],[27.9137,43.394,120.2037],[27.9378,43.3982,106.2146],[27.9677,43.397,184.375],[27.9739,43.395,164.3029],[27.9769,43.3901,267.4974],[27.9894,43.3801,268.0636],[27.9984,43.3669,220.7367],[28.0139,43.3512,100.3003],[28.0185,43.3402,177.3594],[28.0228,43.3215,63.0825],[28.0326,43.3007,265.5352],[28.0422,43.3023,121.7211],[28.0518,43.3015,2.0706],[28.0576,43.3101,0.0],[28.0588,43.3143,4.3876],[28.0699,43.3279,0.0],[28.0674,43.3343,3.2012],[28.0693,43.3413,0.0],[28.0724,43.3454,0.0],[28.0729,43.3501,0.7243],[28.0765,43.3537,3.9123],[28.0843,43.3679,1.8294],[28.0932,43.3768,19.3326],[28.1035,43.3787,0.0],[28.106,43.3812,4.3129],[28.1099,43.381,0.0],[28.119,43.3868,0.0],[28.1199,43.3887,9.4195],[28.134,43.3949,0.0],[28.1338,43.3968,0.198],[28.1521,43.4046,3.1795],[28.1601,43.4054,0.3317],[28.1604,43.4038,0.3317],[28.1626,43.4032,0.0],[28.1618,43.4049,0.0],[28.1649,43.4049,0.0],[28.1671,43.4032,0.6071],[28.1654,43.4015,0.0],[28.1699,43.4035,0.0],[28.1737,43.4004,6.7182],[28.1724,43.3982,0.0],[28.1749,43.399,6.7182],[28.1765,43.3971,0.0],[28.2257,43.3988,0.0],[28.2313,43.4035,0.0],[28.2346,43.4024,0.0],[28.2335,43.4035,0.0],[28.2349,43.404,11.2396]]]]}
,"properties": {"GID_1": "BGR.3_1","GID_0": "BGR","country": "Bulgaria","state": "Dobrich","VARNAME_1": "Tolbukhin","NL_NAME_1": "Добрич","TYPE_1": "Oblast","ENGTYPE_1": "Province","CC_1": "NA","HASC_1": "BG.DO","ISO_1": "BG-08","name": "Dobrich.state","area_km2": 4712.351,"hist_schema_id": "Elevation0-9000","hist_area_km2": {"0": 41.449,"25": 128.856,"50": 148.209,"75": 209.882,"100": 242.068,"125": 271.268,"150": 329.136,"175": 533.631,"200": 813.227,"225": 947.397,"250": 680.157,"275": 236.557,"300": 96.657,"325": 27.232,"350": 6.626}}}