{"type": "Feature","bbox": [26.0536,43.5316,26.3351,43.6741],"geometry": {"type": "MultiPolygon","coordinates": [[[[26.3057,43.6425,221.9769],[26.3033,43.6407,235.1192],[26.2966,43.6409,250.7281],[26.2644,43.6604,182.2298],[26.248,43.6674,200.2017],[26.2262,43.6695,162.9715],[26.2169,43.6687,184.436],[26.2077,43.6656,191.9039],[26.2006,43.6659,160.2872],[26.1833,43.6717,171.6601],[26.1654,43.6741,141.5189],[26.1505,43.6696,168.1902],[26.1445,43.6616,147.7736],[26.138,43.6568,134.1198],[26.1074,43.6552,156.5115],[26.1024,43.6533,185.5847],[26.0951,43.6467,217.0256],[26.09,43.6443,223.5212],[26.0588,43.6433,129.0217],[26.0536,43.6402,147.5896],[26.0543,43.6345,172.5851],[26.0585,43.6268,112.1909],[26.0676,43.6168,147.796],[26.0721,43.6084,132.7214],[26.0705,43.6021,196.7032],[26.0601,43.5946,247.6528],[26.0599,43.5912,253.8558],[26.0636,43.5882,210.2514],[26.0793,43.5822,241.08],[26.092,43.5733,259.3545],[26.0988,43.5636,244.6543],[26.1028,43.5538,294.6086],[26.1173,43.5394,304.383],[26.1187,43.5352,310.4676],[26.1229,43.5328,314.2998],[26.133,43.5316,339.8497],[26.1476,43.5364,252.645],[26.1615,43.5363,336.3317],[26.1776,43.5423,321.4031],[26.1913,43.5402,207.9589],[26.2004,43.5421,161.3838],[26.2063,43.5491,149.1381],[26.2069,43.554,134.8116],[26.222,43.5714,302.5236],[26.2263,43.5739,302.2384],[26.2341,43.5745,292.3359],[26.2495,43.5723,296.6301],[26.2609,43.5598,354.1036],[26.272,43.5515,363.1078],[26.3011,43.5443,360.2893],[26.3117,43.5402,348.3012],[26.3205,43.548,387.9111],[26.3252,43.5588,336.1135],[26.3293,43.5638,332.0347],[26.3345,43.5793,314.0847],[26.3351,43.5964,289.4064],[26.3309,43.6135,266.5732],[26.3255,43.6228,271.8575],[26.3057,43.6425,221.9769]]]]}
,"properties": {"GID_2": "BGR.15.6_1","GID_0": "BGR","country": "Bulgaria","GID_1": "BGR.15_1","state": "Razgrad","NL_NAME_1": "Разград","county": "TsarKaloyan","VARNAME_2": "NA","NL_NAME_2": "ЦарКалоян","TYPE_2": "Obshtina","ENGTYPE_2": "Municipality","CC_2": "NA","HASC_2": "BG.RG.CK","name": "TsarKaloyan.county","area_km2": 248.1327,"hist_schema_id": "Elevation0-9000","hist_area_km2": {"75": 0.5831,"100": 4.6961,"125": 10.0081,"150": 10.5746,"175": 17.6189,"200": 31.1733,"225": 45.3742,"250": 47.2538,"275": 36.5617,"300": 23.9913,"325": 11.9847,"350": 6.1311,"375": 2.182}}}