{"type": "Feature","bbox": [25.8422,43.4165,26.1182,43.6522],"geometry": {"type": "MultiPolygon","coordinates": [[[[26.0602,43.5942,247.6528],[26.048,43.5887,255.896],[26.0333,43.5852,259.8543],[26.0211,43.5868,226.6918],[26.0083,43.5855,222.8664],[25.9993,43.5879,241.6907],[25.9829,43.5965,80.0444],[25.9684,43.601,115.2152],[25.9681,43.6141,93.5239],[25.9454,43.6302,218.721],[25.9395,43.6433,192.6292],[25.9343,43.6451,188.087],[25.9257,43.6449,150.1168],[25.915,43.6522,167.4155],[25.8864,43.6485,176.6599],[25.8638,43.6501,131.5201],[25.8666,43.644,137.0554],[25.8678,43.6317,184.3456],[25.8547,43.6071,178.2831],[25.85,43.5876,177.5774],[25.8519,43.5721,213.6833],[25.844,43.5613,226.7001],[25.8422,43.5492,266.4821],[25.8467,43.5382,284.2171],[25.8581,43.52,250.9903],[25.8591,43.5129,277.3737],[25.8642,43.5016,246.8407],[25.8789,43.49,254.5599],[25.8793,43.485,213.3048],[25.8736,43.4708,222.9957],[25.8776,43.4621,180.9985],[25.8952,43.4513,129.563],[25.9189,43.4452,157.2828],[25.9345,43.4367,242.1949],[25.9574,43.4165,289.6984],[25.9723,43.4188,274.8417],[25.9937,43.4277,248.9795],[26.0039,43.4373,378.9909],[26.0102,43.452,365.2893],[26.0145,43.4576,341.7159],[26.036,43.479,358.1527],[26.0401,43.4891,320.3804],[26.0383,43.509,181.1642],[26.0441,43.5226,118.9199],[26.0533,43.5265,128.2605],[26.0702,43.5276,179.9987],[26.0887,43.5331,190.6468],[26.1182,43.5371,302.4025],[26.1028,43.5538,294.6086],[26.0988,43.5636,244.6543],[26.092,43.5733,259.3545],[26.0793,43.5822,241.08],[26.0619,43.589,228.2826],[26.0599,43.5912,253.8558],[26.0602,43.5942,247.6528]]]]}
,"properties": {"GID_2": "BGR.16.3_1","GID_0": "BGR","country": "Bulgaria","GID_1": "BGR.16_1","state": "Ruse","NL_NAME_1": "Русенска","county": "DveMogili","VARNAME_2": "NA","NL_NAME_2": "NA","TYPE_2": "Obshtina","ENGTYPE_2": "Municipality","CC_2": "NA","HASC_2": "BG.RS.DM","name": "DveMogili.county","area_km2": 319.6663,"hist_schema_id": "Elevation0-9000","hist_area_km2": {"75": 0.3378,"100": 11.2349,"125": 19.4791,"150": 22.3436,"175": 35.8134,"200": 41.1932,"225": 50.3853,"250": 52.8668,"275": 38.6014,"300": 21.4528,"325": 15.1389,"350": 8.4643,"375": 2.3394,"400": 0.0154}}}