{"type":"Feature","properties":{"GID_2":"BGR.17.1_1","GID_0":"BGR","country":"Bulgaria","GID_1":"BGR.17_1","state":"Shumen","NL_NAME_1":"Шумен","county":"GaraHitrino","VARNAME_2":"Hitrino","NL_NAME_2":"NA","TYPE_2":"Obshtina","ENGTYPE_2":"Municipality","CC_2":"NA","HASC_2":"BG.SH.HI","name":"GaraHitrino.county"},
"geometry":{"type": "MultiPolygon","coordinates": [[[[26.8012,43.3913,422.4355],[26.8105,43.3867,393.901],[26.8265,43.3855,347.4542],[26.8474,43.399,338.22],[26.856,43.3998,387.5358],[26.8859,43.3924,390.1445],[26.8925,43.377,324.0405],[26.9007,43.3752,327.1439],[26.9072,43.3779,354.2297],[26.908,43.3861,381.4597],[26.9135,43.3904,394.755],[26.957,43.3835,275.2128],[26.9745,43.3839,272.5957],[26.9801,43.3866,280.695],[26.9846,43.3912,284.0017],[26.9856,43.3949,280.2355],[26.9836,43.4003,268.4871],[26.9772,43.4091,234.1943],[26.9779,43.413,262.3682],[26.9911,43.4142,266.6069],[27.0196,43.4084,256.3869],[27.0444,43.4119,256.6122],[27.0625,43.4244,280.2034],[27.0738,43.4378,371.1822],[27.076,43.4436,450.3835],[27.078,43.476,394.8464],[27.0818,43.4772,419.8745],[27.0893,43.4723,398.749],[27.0915,43.4724,397.9825],[27.0948,43.4759,421.2667],[27.0916,43.4845,303.664],[27.0859,43.4932,291.8129],[27.0844,43.5248,381.0858],[27.0777,43.5293,389.1704],[27.0687,43.532,364.869],[27.048,43.5336,301.3814],[27.0361,43.5311,334.8344],[27.0278,43.5258,385.8996],[27.02,43.5149,416.4245],[27.0112,43.5126,410.7678],[26.9903,43.5143,369.0391],[26.9765,43.5124,440.282],[26.9731,43.5105,405.0694],[26.9651,43.5003,361.7791],[26.9532,43.4961,391.4966],[26.9442,43.4906,447.3691],[26.9424,43.4877,474.4818],[26.9433,43.4686,392.9358],[26.9399,43.4628,374.3043],[26.9342,43.4598,352.3541],[26.9214,43.4608,353.2252],[26.8862,43.4804,401.6395],[26.8594,43.4888,423.9941],[26.8426,43.5062,454.2702],[26.8367,43.5101,489.2366],[26.8339,43.5062,493.0071],[26.8271,43.5015,509.5343],[26.8137,43.4963,498.5496],[26.8088,43.496,496.4494],[26.7985,43.5001,460.4607],[26.7884,43.4999,425.1786],[26.781,43.4974,384.6992],[26.7763,43.4918,418.8079],[26.7769,43.4776,488.8042],[26.7755,43.474,489.229],[26.7682,43.4721,482.7462],[26.7491,43.4718,410.2034],[26.7453,43.4686,399.9145],[26.7456,43.4663,350.5732],[26.7569,43.449,393.7993],[26.7574,43.4433,377.86],[26.754,43.4323,371.2136],[26.7603,43.428,383.9194],[26.7887,43.421,368.2709],[26.7961,43.4161,405.8742],[26.8031,43.4037,446.4265],[26.8012,43.3913,422.4355]]]]}}