{"type": "Feature","bbox": [22.9482,43.7337,23.4864,43.8531],"geometry": {"type": "MultiPolygon","coordinates": [[[[23.148,43.7353,76.8405],[23.1719,43.7337,56.5356],[23.2053,43.7353,160.8286],[23.2485,43.7459,162.2451],[23.3035,43.7544,159.6384],[23.3248,43.7619,156.1691],[23.3297,43.7649,154.3228],[23.3495,43.7876,111.0634],[23.3645,43.7957,90.2818],[23.3749,43.7969,85.9731],[23.3887,43.7943,82.5501],[23.4067,43.795,86.8445],[23.4237,43.7928,80.7509],[23.4289,43.7942,81.3374],[23.4478,43.8093,77.4749],[23.4785,43.8183,27.3385],[23.4856,43.8247,27.3951],[23.4864,43.8373,22.5],[23.4658,43.8404,23.0],[23.4377,43.8504,23.0],[23.4167,43.8531,23.0],[23.3892,43.8508,23.5],[23.375,43.8479,23.5],[23.3377,43.8504,23.5],[23.277,43.8482,24.0],[23.2604,43.8448,24.0],[23.2405,43.8375,24.0],[23.2305,43.8377,24.5],[23.2144,43.8333,24.5],[23.1323,43.8057,25.0],[23.0553,43.7959,25.0],[23.0446,43.7966,25.0],[23.0453,43.7985,25.0],[23.0357,43.8019,25.0],[23.0214,43.7923,25.0],[23.0092,43.7874,35.0511],[22.9613,43.7882,81.8363],[22.9529,43.7824,96.9698],[22.9482,43.7726,54.1767],[22.9507,43.7613,101.5315],[22.9531,43.7584,115.5976],[22.9757,43.7568,113.8214],[23.0035,43.751,186.0876],[23.032,43.7629,77.8682],[23.0418,43.7653,38.1107],[23.0671,43.7649,106.9691],[23.0848,43.7583,132.2368],[23.1007,43.7486,109.3671],[23.105,43.7471,107.2099],[23.1294,43.7453,99.9711],[23.1422,43.7356,78.2602],[23.148,43.7353,76.8405]]]]}
,"properties": {"GID_2": "BGR.10.6_1","GID_0": "BGR","country": "Bulgaria","GID_1": "BGR.10_1","state": "Montana","NL_NAME_1": "Монтана","county": "Lom","VARNAME_2": "NA","NL_NAME_2": "Лом","TYPE_2": "Obshtina","ENGTYPE_2": "Municipality","CC_2": "NA","HASC_2": "BG.MT.LO","name": "Lom.county","area_km2": 291.9003,"hist_schema_id": "Elevation0-9000","hist_area_km2": {"25": 57.0428,"50": 31.6052,"75": 37.2385,"100": 48.2876,"125": 39.85,"150": 56.0832,"175": 21.0277,"200": 0.7652}}}