{"type": "Feature","id": "2234","bbox": [23.76251,41.68634,24.51574,42.62967],"geometry": {"type": "Polygon","coordinates": [[[24.36568,42.56456,814.8019],[24.35038,42.56515,893.1615],[24.3386,42.57781,1215.6676],[24.31948,42.58185,1348.6351],[24.3018,42.588,1448.3254],[24.29622,42.60585,1282.4099],[24.28496,42.62127,1396.2955],[24.25747,42.62823,1340.1296],[24.22894,42.62967,1285.6102],[24.21158,42.62427,1312.4055],[24.19411,42.62177,1185.887],[24.15752,42.61073,1285.849],[24.12962,42.58161,1153.3665],[24.10657,42.57316,1024.6818],[24.08146,42.57288,929.1413],[24.03474,42.55337,719.5383],[24.00983,42.55823,563.2893],[23.98802,42.57203,549.3756],[23.96136,42.57929,673.6231],[23.93366,42.57738,820.6642],[23.904,42.56952,901.3798],[23.89811,42.54702,1129.0367],[23.90751,42.52583,939.2618],[23.92136,42.50751,754.5103],[23.93769,42.4979,775.1331],[23.9502,42.48397,583.1765],[23.98813,42.45873,414.7099],[24.03867,42.4649,712.361],[24.05469,42.44503,656.3073],[24.03836,42.40801,488.7933],[23.9996,42.39576,453.0481],[23.9594,42.3923,675.5809],[23.94152,42.3468,737.451],[23.95754,42.30959,898.981],[23.97335,42.2999,814.6237],[23.97407,42.28326,711.0868],[23.95805,42.26804,843.5212],[23.93717,42.27313,668.0936],[23.92415,42.28326,608.2977],[23.91247,42.296,750.9172],[23.8885,42.2907,494.4291],[23.88064,42.26148,554.7358],[23.84808,42.22574,1226.208],[23.80085,42.21127,1682.6096],[23.79413,42.20208,1982.5049],[23.79568,42.18869,2228.8994],[23.7807,42.18099,2513.1328],[23.76313,42.17761,2416.5249],[23.77264,42.1582,1989.0142],[23.79217,42.1467,2006.5537],[23.80964,42.13288,2245.8613],[23.81605,42.11231,1713.5808],[23.81325,42.09624,1574.1736],[23.80096,42.08464,1800.1287],[23.80127,42.0627,1613.0361],[23.82049,42.04534,1384.9949],[23.79186,42.02069,1449.1539],[23.76664,41.97646,1627.6719],[23.76788,41.95641,1570.4547],[23.76251,41.93987,1589.054],[23.77439,41.92191,1508.1233],[23.78959,41.90597,1553.9441],[23.79568,41.86091,1484.5469],[23.82173,41.82383,1673.5665],[23.84643,41.81202,1667.6232],[23.86824,41.79538,1835.3164],[23.88581,41.79244,1749.2198],[23.90555,41.79654,1507.1329],[23.91774,41.78453,1629.8625],[23.92818,41.76898,1736.025],[24.04197,41.71043,1230.2393],[24.05417,41.69317,1557.812],[24.07257,41.68634,1530.7211],[24.10233,41.70939,1439.4744],[24.09965,41.74205,1558.8303],[24.08466,41.75699,1636.4836],[24.06637,41.76794,1697.697],[24.06306,41.792,1605.1158],[24.09965,41.79706,1570.3083],[24.14957,41.79114,1628.8525],[24.18925,41.76409,1572.5406],[24.18471,41.74575,1607.4008],[24.17716,41.72813,1616.2566],[24.19504,41.72712,1567.7417],[24.21426,41.74071,1491.125],[24.27131,41.74195,1416.0671],[24.31462,41.77104,1129.7546],[24.31524,41.8174,1582.115],[24.35772,41.86148,1331.2656],[24.38686,41.87543,1086.8025],[24.42397,41.88951,531.0],[24.43988,41.92152,659.9255],[24.45115,41.94943,617.8703],[24.46262,41.99596,651.5795],[24.44701,42.04327,484.5117],[24.44143,42.07087,222.1591],[24.45353,42.0934,258.3322],[24.45032,42.1349,186.8461],[24.47337,42.14856,185.5524],[24.50096,42.15371,185.934],[24.51574,42.1688,188.6459],[24.49983,42.18288,194.2215],[24.48308,42.19236,197.3054],[24.48381,42.21236,202.4675],[24.48877,42.24088,208.3559],[24.48112,42.26814,213.6182],[24.46489,42.28564,227.6447],[24.46355,42.30036,241.9708],[24.47833,42.32651,247.49],[24.45518,42.3561,313.9156],[24.43709,42.36163,322.0761],[24.4373,42.38098,430.6399],[24.42758,42.4032,526.2887],[24.42655,42.42547,407.3823],[24.42841,42.43539,466.3883],[24.41611,42.46079,389.193],[24.39441,42.4641,424.5104],[24.39668,42.51441,640.3206],[24.40815,42.56208,1122.8519],[24.38697,42.56761,801.7458],[24.36568,42.56456,814.8019]]]}
,"properties": {"ISO3166-1-Alpha-3": "BGR","country": "Bulgaria","fill": "#FF0","name": "Pazardzhik","area_km2": 4304.552,"hist_schema_id": "Elevation0-9000","hist_area_km2": {"175": 4.621,"200": 166.139,"225": 237.252,"250": 158.542,"275": 106.016,"300": 91.159,"325": 81.751,"350": 80.172,"375": 72.292,"400": 73.559,"425": 80.493,"450": 81.714,"475": 90.99,"500": 80.003,"525": 76.892,"550": 75.654,"575": 76.412,"600": 73.37,"625": 72.788,"650": 70.709,"675": 66.124,"700": 59.711,"725": 57.544,"750": 67.169,"775": 57.709,"800": 55.601,"825": 51.197,"850": 48.245,"875": 46.259,"900": 42.685,"925": 41.131,"950": 37.227,"975": 36.116,"1000": 38.064,"1025": 38.047,"1050": 40.688,"1075": 41.748,"1100": 66.196,"1125": 51.193,"1150": 48.506,"1175": 47.8,"1200": 59.885,"1225": 50.573,"1250": 50.781,"1275": 52.645,"1300": 53.889,"1325": 56.539,"1350": 58.335,"1375": 59.186,"1400": 55.885,"1425": 55.285,"1450": 55.784,"1475": 53.869,"1500": 56.827,"1525": 69.52,"1550": 69.133,"1575": 65.004,"1600": 60.67,"1625": 56.108,"1650": 51.089,"1675": 46.368,"1700": 43.589,"1725": 37.857,"1750": 31.981,"1775": 26.168,"1800": 19.313,"1825": 15.808,"1850": 14.119,"1875": 11.246,"1900": 10.629,"1925": 14.205,"1950": 10.419,"1975": 9.978,"2000": 7.94,"2025": 5.668,"2050": 4.503,"2075": 3.226,"2100": 2.502,"2125": 1.7,"2150": 1.605,"2175": 1.085,"2200": 0.676,"2225": 0.723,"2250": 0.534,"2275": 0.409,"2300": 0.299,"2325": 0.33,"2350": 0.189,"2375": 0.157,"2400": 0.204,"2425": 0.094,"2450": 0.173,"2475": 0.11,"2500": 0.11,"2525": 0.063,"2575": 0.047}}}