{"type":"Feature","properties":{"GID_1":"BGR.11_1","GID_0":"BGR","country":"Bulgaria","state":"Pazardzhik","VARNAME_1":"Pazardjik|TatarPazardžik|Bazarg","NL_NAME_1":"Пазарджик","TYPE_1":"Oblast","ENGTYPE_1":"Province","CC_1":"NA","HASC_1":"BG.PZ","ISO_1":"BG-13","name":"Pazardzhik.state"},
"geometry":{"type": "MultiPolygon","coordinates": [[[[23.8039,41.8307,1688.8593],[23.823,41.8195,1776.1443],[23.8393,41.8133,1670.834],[23.8564,41.8043,1851.1621],[23.8854,41.7989,1733.724],[23.9004,41.7919,1719.2902],[23.9089,41.7872,1636.0367],[23.9153,41.7809,1679.4089],[23.962,41.7532,1592.6848],[23.9801,41.7469,1543.1777],[23.9869,41.7404,1678.9165],[23.9917,41.7244,1600.2422],[24.0388,41.6932,1541.1458],[24.0645,41.6722,1605.5884],[24.0731,41.6672,1626.5673],[24.0861,41.6637,1550.3149],[24.090699999999998,41.6711,1568.9172],[24.0951,41.6842,1194.5],[24.1082,41.6975,1355.6993],[24.1137,41.7055,1529.7626],[24.1116,41.7194,1548.6748],[24.1134,41.7236,1547.4596],[24.1442,41.7246,1562.9368],[24.1668,41.728,1513.2419],[24.18,41.7283,1629.4412],[24.2014,41.7352,1471.1188],[24.2096,41.7348,1521.7601],[24.2221,41.7294,1486.3724],[24.2386,41.7272,1582.0654],[24.2636,41.7196,1459.1743],[24.2677,41.72,1363.4465],[24.2829,41.7307,1349.7446],[24.2914,41.7327,1212.9958],[24.3074,41.7449,1224.6895],[24.3216,41.7502,1062.4709],[24.3353,41.7577,1008.4583],[24.3253,41.7655,1147.7314],[24.3208,41.7754,1348.1573],[24.3189,41.7909,1216.1326],[24.3221,41.8065,1306.7084],[24.3363,41.8215,1438.2288],[24.3463,41.8385,1310.8447],[24.3604,41.8481,1333.2126],[24.3883,41.8622,927.093],[24.4081,41.879,910.043],[24.418,41.8945,787.9069],[24.4181,41.9069,797.6246],[24.4157,41.9108,925.7339],[24.4169,41.9176,749.1186],[24.4214,41.9247,740.6643],[24.4338,41.9357,530.5],[24.4429,41.9485,770.38],[24.4547,41.9703,516.4463],[24.4654,42.0009,841.9933],[24.4646,42.0153,774.3814],[24.461,42.0247,639.989],[24.4527,42.0327,639.4764],[24.4373,42.0438,463.3646],[24.434,42.0539,415.088],[24.4397,42.0653,229.3835],[24.4492,42.0764,218.7588],[24.4488,42.0798,219.3516],[24.4535,42.0964,320.5556],[24.4484,42.1099,248.926],[24.4438,42.1142,237.7268],[24.4441,42.122,327.7581],[24.4473,42.1269,286.1316],[24.4671,42.1417,185.7569],[24.4849,42.1503,184.5722],[24.4993,42.1541,186.2531],[24.5128,42.1555,183.2024],[24.52,42.1584,185.4566],[24.5307,42.1685,186.579],[24.5187,42.1829,190.9689],[24.4982,42.1868,194.9337],[24.4827,42.1867,195.5901],[24.4755,42.1911,198.1836],[24.4762,42.2009,200.7582],[24.4843,42.2239,204.726],[24.4827,42.2243,205.1866],[24.4779,42.2349,209.0015],[24.4643,42.2566,217.7777],[24.4619,42.265,219.4571],[24.4569,42.271,224.2864],[24.4504,42.2755,228.3869],[24.4453,42.2828,234.8509],[24.4466,42.2852,237.1047],[24.4628,42.2924,237.1515],[24.4665,42.299,239.6803],[24.4736,42.3065,240.4415],[24.4743,42.3115,236.7665],[24.4668,42.3196,253.3799],[24.465699999999998,42.3292,250.7492],[24.4604,42.3338,258.1301],[24.4367,42.3413,265.1297],[24.4277,42.3471,286.7834],[24.4272,42.3653,327.4479],[24.4211,42.3725,359.0136],[24.4087,42.3823,399.2365],[24.405,42.3915,441.4061],[24.406,42.3975,490.2213],[24.4083,42.401,533.3386],[24.424,42.4129,522.2893],[24.427,42.4171,497.3448],[24.4233,42.4213,475.761],[24.4107,42.4276,453.0789],[24.4016,42.4412,557.8898],[24.3798,42.4536,528.6154],[24.3707,42.4703,457.6964],[24.3694,42.4766,485.4474],[24.373,42.4838,501.0466],[24.3803,42.4931,597.9411],[24.3947,42.5044,685.4191],[24.4038,42.5137,680.0116],[24.4125,42.5275,800.7777],[24.4141,42.5425,1094.3619],[24.4078,42.5497,1095.4131],[24.3947,42.5565,910.4927],[24.375,42.5586,790.5341],[24.3678,42.556399999999996,731.7911],[24.3597,42.5494,739.5076],[24.347,42.5417,616.7218],[24.3355,42.5421,616.5276],[24.3295,42.5502,685.9033],[24.329,42.5579,785.5834],[24.327,42.5614,840.3012],[24.3069,42.5803,1287.0847],[24.3013,42.5944,1310.8435],[24.2938,42.6036,1231.9871],[24.2796,42.6117,1269.7034],[24.263,42.6104,1377.9509],[24.2537,42.6118,1371.3586],[24.2255,42.6217,1328.1152],[24.2178,42.6214,1300.9762],[24.1961,42.6158,1199.1265],[24.1651,42.6108,1209.7],[24.1422,42.6047,1328.2511],[24.1336,42.5963,1203.7693],[24.1317,42.5911,1080.4872],[24.1317,42.5758,1334.9929],[24.1282,42.5652,1204.0924],[24.1215,42.5611,1073.3669],[24.1125,42.5611,1007.933],[24.0904,42.5683,923.2849],[24.0694,42.5599,955.3823],[24.0464,42.5395,777.9473],[24.0324,42.5395,704.1161],[24.0148,42.5486,629.8276],[23.9838,42.5696,476.1025],[23.9768,42.5714,547.7402],[23.9563,42.5645,741.0493],[23.9053,42.5578,1002.0148],[23.9008,42.5553,1032.2845],[23.8944,42.548,1152.4917],[23.8943,42.5408,1127.6591],[23.896,42.5372,1088.3397],[23.9104,42.5194,735.3755],[23.9144,42.4941,989.4833],[23.9166,42.4889,1004.4255],[23.9235,42.482,908.951],[23.9353,42.476,739.2844],[23.9689,42.451,619.245],[23.9845,42.4431,594.5668],[23.9979,42.4406,423.1422],[24.0115,42.4405,489.8008],[24.0275,42.4454,607.4203],[24.0384,42.4531,659.1697],[24.0475,42.4564,657.0466],[24.0604,42.4562,852.7723],[24.0722,42.451,709.7062],[24.0707,42.449,727.2772],[24.0721,42.4388,738.1516],[24.0703,42.43,675.2803],[24.0571,42.4098,543.7104],[24.0548,42.3998,466.3629],[24.0442,42.3857,319.7449],[24.0316,42.3773,423.2718],[24.0239,42.375,514.0956],[23.9951,42.3712,563.4437],[23.9867,42.3715,617.5873],[23.964,42.3674,815.2419],[23.9614,42.3528,874.7331],[23.9588,42.3482,849.4971],[23.9507,42.3406,767.1833],[23.9477,42.3339,671.5677],[23.9468,42.319,915.7193],[23.9433,42.3106,891.49],[23.943,42.3059,843.6526],[23.9449,42.3019,821.7614],[23.9545,42.2943,694.6375],[23.9748,42.2952,713.6614],[23.9919,42.2907,744.968],[23.9965,42.2862,621.566],[23.9977,42.2812,659.376],[23.9951,42.273,567.8256],[23.9842,42.2687,668.3771],[23.958,42.249,595.2313],[23.947,42.2451,459.4369],[23.9387,42.2444,419.7948],[23.935,42.2443,413.9108],[23.9177,42.2517,422.9787],[23.9115,42.2589,435.4703],[23.8998,42.2668,501.8674],[23.8879,42.2661,569.5162],[23.8815,42.2638,548.6988],[23.8758,42.2566,572.7059],[23.87,42.2385,828.1454],[23.8657,42.231,962.8107],[23.8528,42.2209,1187.293],[23.8415,42.2156,1413.2793],[23.8165,42.2091,1716.6404],[23.813,42.2044,1938.4496],[23.7953,42.1978,2172.4822],[23.7796,42.1836,2495.8918],[23.7649,42.1759,2462.5728],[23.7564,42.1648,2152.6523],[23.7549,42.1584,2068.8711],[23.7568,42.1478,2002.5789],[23.7618,42.1424,1984.4498],[23.7776,42.1324,1783.4641],[23.7843,42.1232,1858.8433],[23.7846,42.1164,1813.7543],[23.7783,42.1042,1713.387],[23.7926,42.076,1670.056],[23.7892,42.0433,1318.4142],[23.79,42.0371,1297.382],[23.7922,42.0342,1216.8181],[23.7982,42.0313,1313.5062],[23.8141,42.0269,1284.9453],[23.8171,42.0248,1180.7887],[23.8179,42.022,1132.7671],[23.8147,42.0176,1227.9205],[23.7872,41.9986,1353.892],[23.7604,41.9734,1671.6343],[23.7579,41.9701,1600.8367],[23.7541,41.9586,1481.3531],[23.7564,41.9559,1522.9723],[23.7637,41.9347,1558.9976],[23.7657,41.9083,1505.2623],[23.7703,41.9009,1523.7285],[23.7739,41.898,1554.0837],[23.7855,41.8777,1534.3508],[23.7887,41.8524,1502.0797],[23.7934,41.8383,1558.2595],[23.8039,41.8307,1688.8593]]]]}}