{"type":"Feature","properties":{"featurecla":"River","scalerank":7,"rivernum":442,"dissolve":"442River","name":"Evros","name_alt":"Maritsa","note":null,"min_zoom":6.0,"strokeweig":0.2,"name_en":"Maritsa","min_label":7.0},
"geometry":{"type": "LineString","coordinates": [[23.675927734375023,42.27753327030662,978.0965],[23.69091796875,42.289667059369116,836.0453],[23.724755859375023,42.30963776249412,717.574],[23.740966796875,42.321893621869116,707.0886],[23.756103515625,42.32538483280662,729.012],[23.82666015625,42.31842682499412,533.7835],[23.858056640625023,42.31989166874412,520.0269],[23.86767578125,42.31842682499412,590.8303],[23.874169921875023,42.314227606244117,595.0742],[23.886474609375,42.30084869999412,585.2661],[23.891845703125,42.297967840619116,573.6633],[23.901123046875,42.29559967655662,562.0605],[23.90869140625,42.28974030155662,609.1674],[23.91357421875,42.282001043744117,584.509],[23.917724609375,42.26471588749412,548.4996],[23.923974609375023,42.258563543744117,544.7601],[24.003076171875023,42.225360418744117,435.6107],[24.022216796875,42.22223541874412,445.332],[24.035546875000023,42.22357819218162,402.4211],[24.048095703125,42.226825262494117,308.0325],[24.070556640625,42.23590729374412,256.6119]]}}