{"type": "Feature","bbox": [25.3901,41.7408,25.8576,42.0178],"geometry": {"type": "MultiPolygon","coordinates": [[[[25.4328,41.9718,200.5075],[25.4297,41.9548,260.7452],[25.4309,41.9518,267.0848],[25.4362,41.9446,268.37],[25.4551,41.9334,233.4423],[25.4611,41.9251,250.9018],[25.4596,41.9133,235.7258],[25.4437,41.8868,283.85],[25.4378,41.8818,292.2681],[25.4295,41.8616,257.3762],[25.416,41.852,247.0],[25.3928,41.8461,247.0],[25.3901,41.8353,265.0352],[25.3961,41.8338,247.0],[25.4046,41.8276,293.6611],[25.4086,41.82,296.9418],[25.412,41.7998,399.328],[25.4183,41.7897,424.8044],[25.4267,41.7821,491.6588],[25.4483,41.7814,537.9451],[25.4572,41.7791,475.2209],[25.4804,41.7634,503.8564],[25.518,41.7531,392.417],[25.5352,41.7419,402.4553],[25.5442,41.7408,382.9037],[25.5603,41.7437,318.4568],[25.5842,41.7522,247.3457],[25.585,41.7732,270.4511],[25.5906,41.7827,244.4605],[25.6005,41.7903,227.2193],[25.6292,41.8055,196.4437],[25.6399,41.8157,193.8928],[25.6477,41.8292,163.7784],[25.6541,41.8319,164.7265],[25.6644,41.829,189.6872],[25.677,41.8097,183.1024],[25.6827,41.8052,218.72],[25.6903,41.8015,250.8765],[25.697,41.8007,239.6787],[25.7142,41.8024,222.2029],[25.7379,41.8104,223.0541],[25.7506,41.8118,187.4664],[25.7524,41.8172,216.2024],[25.7596,41.8246,200.6218],[25.771,41.8277,211.6812],[25.7885,41.8277,200.127],[25.798,41.8246,184.1727],[25.8016,41.8214,176.6271],[25.812,41.8168,156.5663],[25.8203,41.8143,141.5547],[25.8286,41.814,137.1305],[25.8386,41.8182,133.0964],[25.8493,41.8377,160.3376],[25.8576,41.8588,173.7093],[25.8571,41.8646,191.6708],[25.8519,41.8711,207.7418],[25.8305,41.8823,253.2321],[25.8241,41.8884,222.9178],[25.8286,41.9065,260.4901],[25.8278,41.9117,242.7504],[25.8241,41.9148,222.7132],[25.8193,41.9246,157.1969],[25.8207,41.9329,191.1288],[25.8197,41.9383,206.019],[25.8153,41.9414,197.0668],[25.8052,41.944,163.0444],[25.7984,41.9476,157.6856],[25.7933,41.9541,179.5544],[25.7877,41.9656,175.1643],[25.7769,41.9598,189.2537],[25.7699,41.9601,187.7279],[25.77,41.9653,198.8719],[25.7747,41.9727,193.4738],[25.777,41.9807,171.8526],[25.777,41.9955,193.9984],[25.7821,42.0029,122.2125],[25.7434,42.0165,84.4792],[25.7379,42.0178,84.5076],[25.7302,42.0167,90.2115],[25.724,42.0131,98.4209],[25.7154,42.0014,177.2994],[25.7092,41.9963,210.8172],[25.684,41.9827,217.5318],[25.6663,41.9772,181.932],[25.6496,41.9796,179.0284],[25.6404,41.9758,179.4846],[25.6309,41.9744,177.6652],[25.5988,41.9796,178.491],[25.5832,41.9797,179.9903],[25.5722,41.9827,181.8016],[25.5661,41.9819,180.7992],[25.5603,41.9747,180.3468],[25.5567,41.9743,180.8809],[25.5483,41.9816,177.7682],[25.5374,41.9863,158.6467],[25.5161,41.9833,169.0035],[25.492,41.9888,147.9985],[25.4871,41.9877,154.2584],[25.4773,41.9807,167.6851],[25.4536,41.9801,226.3019],[25.4328,41.9718,200.5075]]]]}
,"properties": {"GID_2": "BGR.6.3_1","GID_0": "BGR","country": "Bulgaria","GID_1": "BGR.6_1","state": "Haskovo","NL_NAME_1": "Хасково","county": "Haskovo","VARNAME_2": "NA","NL_NAME_2": "Хасково","TYPE_2": "City","ENGTYPE_2": "City","CC_2": "NA","HASC_2": "BG.KK.HS","name": "Haskovo.county","area_km2": 710.6564,"hist_schema_id": "Elevation0-9000","hist_area_km2": {"75": 0.6301,"100": 1.5911,"125": 9.161,"150": 46.2284,"175": 146.3134,"200": 139.6859,"225": 143.0255,"250": 94.7236,"275": 47.1588,"300": 23.2102,"325": 16.1036,"350": 13.2299,"375": 9.2316,"400": 6.1655,"425": 4.5691,"450": 3.1146,"475": 2.8775,"500": 2.1977,"525": 0.9171,"550": 0.3953,"575": 0.0791,"600": 0.0474}}}