{"type":"Feature","properties":{"GID_2":"BGR.27.10_1","GID_0":"BGR","country":"Bulgaria","GID_1":"BGR.27_1","state":"Vratsa","NL_NAME_1":"Враца","county":"Vratsa","VARNAME_2":"Vratsa|Vraca|Ivraca","NL_NAME_2":"Враца","TYPE_2":"City","ENGTYPE_2":"City","CC_2":"NA","HASC_2":"BG.VR.VR","name":"Vratsa.county"},
"geometry":{"type": "MultiPolygon","coordinates": [[[[23.4206,43.1586,1063.0302],[23.4948,43.1518,1197.7781],[23.4973,43.15,1221.2037],[23.4992,43.1444,1168.5909],[23.4965,43.1309,1036.9368],[23.5169,43.1266,1086.9404],[23.5516,43.1127,644.8632],[23.5713,43.1127,908.309],[23.5952,43.106,764.6226],[23.6136,43.1091,643.7773],[23.6266,43.1183,293.81],[23.6388,43.1243,519.845],[23.6433,43.1291,432.4139],[23.643,43.1382,418.7736],[23.6403,43.1472,357.5291],[23.6326,43.1553,341.9606],[23.6167,43.1671,336.9976],[23.6142,43.1722,345.6052],[23.6144,43.1779,328.9281],[23.6168,43.1857,347.3963],[23.6276,43.2033,374.0845],[23.6381,43.2102,399.7215],[23.6577,43.2123,435.5778],[23.6642,43.2177,446.2203],[23.6653,43.2197,463.734],[23.6642,43.2255,579.5829],[23.6558,43.238,588.248],[23.6565,43.2461,429.7349],[23.6682,43.2502,358.0892],[23.6987,43.2516,319.8293],[23.714,43.264,266.4322],[23.7226,43.2653,270.6987],[23.7249,43.2628,282.4373],[23.7229,43.2532,309.0995],[23.7253,43.2486,326.8569],[23.7369,43.2458,320.3246],[23.7558,43.2465,357.1498],[23.7687,43.2493,340.4015],[23.7757,43.2557,284.5369],[23.786,43.2593,315.882],[23.7967,43.2665,306.9288],[23.805,43.2686,268.1737],[23.8149,43.2669,319.823],[23.8224,43.2857,274.8766],[23.8185,43.3134,275.6297],[23.7919,43.3403,312.3748],[23.745,43.3743,253.64],[23.7284,43.3919,226.1959],[23.6959,43.4097,217.0498],[23.6863,43.4295,205.466],[23.6492,43.4491,202.2883],[23.6458,43.4538,197.7698],[23.636,43.4782,173.0229],[23.6191,43.4926,161.1042],[23.6066,43.4794,176.0544],[23.5846,43.4638,200.9187],[23.5661,43.439,220.4313],[23.5648,43.4352,229.8288],[23.5659,43.4267,220.4922],[23.5707,43.4144,230.037],[23.5803,43.3989,236.9561],[23.5818,43.3901,239.9085],[23.5817,43.386,241.723],[23.5766,43.3762,244.0412],[23.5699,43.3685,262.5388],[23.5665,43.3663,267.2664],[23.552,43.3652,247.8703],[23.5369,43.37,252.5074],[23.5222,43.3715,242.7918],[23.509,43.3595,218.0302],[23.5013,43.3552,191.9611],[23.4906,43.3536,143.7279],[23.4843,43.35,151.1614],[23.4809,43.3474,165.5025],[23.4741,43.3365,200.5208],[23.4524,43.3329,232.4818],[23.4468,43.3272,178.4178],[23.4472,43.3187,236.5294],[23.4496,43.311,241.214],[23.4489,43.3075,255.8094],[23.4419,43.3007,261.8423],[23.4354,43.2969,267.1412],[23.429,43.2896,293.6208],[23.427,43.2835,266.8217],[23.4273,43.2623,680.5079],[23.4392,43.2584,651.8388],[23.4528,43.2468,876.1868],[23.4586,43.238,960.0315],[23.4604,43.2312,1024.2528],[23.46,43.2252,945.1562],[23.4579,43.2186,989.7357],[23.4548,43.2155,1057.3],[23.4474,43.2132,917.9727],[23.426,43.2144,483.2653],[23.416,43.2132,473.4973],[23.4108,43.2107,394.4691],[23.4045,43.2025,372.0934],[23.4029,43.1991,446.6242],[23.4036,43.1837,638.1825],[23.4089,43.1741,808.1586],[23.4192,43.1625,799.765],[23.4206,43.1586,1063.0302]]]]}}