{"type":"Feature","properties":{"GID_2":"BGR.21.15_1","GID_0":"BGR","country":"Bulgaria","GID_1":"BGR.21_1","state":"Sofia","NL_NAME_1":"Sofija","county":"Kostinbrod","VARNAME_2":"NA","NL_NAME_2":"Костинброд","TYPE_2":"Obshtina","ENGTYPE_2":"Municipality","CC_2":"NA","HASC_2":"BG.SF.KB","name":"Kostinbrod.county"},
"geometry":{"type": "MultiPolygon","coordinates": [[[[23.307,42.8794,759.4261],[23.3019,42.8816,816.7931],[23.2979,42.887,884.3799],[23.3002,42.897,947.4749],[23.2991,42.9041,1073.4816],[23.2797,42.9192,1054.0739],[23.2748,42.925,999.1724],[23.2735,42.932,916.3715],[23.2749,42.9426,934.6432],[23.2716,42.9451,838.0821],[23.2613,42.945,855.8754],[23.2419,42.9407,980.5601],[23.2328,42.9417,1029.4814],[23.2292,42.9454,1103.7927],[23.2263,42.9586,814.9031],[23.221,42.9671,675.5369],[23.2109,42.9715,726.8358],[23.1994,42.9704,861.8966],[23.1761,42.9581,925.7908],[23.1628,42.9565,866.1952],[23.1586,42.9591,828.7444],[23.1578,42.9629,821.4878],[23.1591,42.9657,829.8947],[23.1718,42.9761,743.4126],[23.172,42.981,696.1382],[23.1648,42.9839,752.4044],[23.1433,42.982,741.2914],[23.1257,42.984,759.3441],[23.1107,42.9722,801.7419],[23.0955,42.9663,895.2781],[23.0974,42.9619,978.6239],[23.1064,42.9545,856.7643],[23.1128,42.9515,826.144],[23.1165,42.946,797.3304],[23.1161,42.9377,900.9644],[23.1106,42.9247,922.1591],[23.1143,42.9088,871.7288],[23.1129,42.9032,775.0782],[23.1055,42.8995,766.7841],[23.0866,42.9023,872.2028],[23.0737,42.9006,815.8788],[23.0752,42.8867,669.2845],[23.0726,42.8685,578.5015],[23.076,42.8568,687.312],[23.0837,42.8461,579.4944],[23.0981,42.8351,559.8229],[23.1111,42.8217,594.727],[23.1308,42.806399999999996,584.6707],[23.1404,42.8043,577.1597],[23.1583,42.8065,563.9684],[23.1682,42.8039,556.7988],[23.1823,42.7944,556.7211],[23.2078,42.7695,546.1111],[23.2111,42.7673,544.9371],[23.2232,42.7658,539.7772],[23.2464,42.7842,530.8774],[23.252,42.8092,527.0853],[23.2631,42.8161,541.6611],[23.266,42.8195,546.6785],[23.2689,42.8436,617.9015],[23.2847,42.8522,705.6772],[23.2968,42.8772,860.0239],[23.307,42.8794,759.4261]]]]}}