{"type":"Feature","properties":{"GID_2":"BGR.13.4_1","GID_0":"BGR","country":"Bulgaria","GID_1":"BGR.13_1","state":"Pleven","NL_NAME_1":"Плевенска","county":"DolniDabnik","VARNAME_2":"NA","NL_NAME_2":"ДолниДъбник","TYPE_2":"Obshtina","ENGTYPE_2":"Municipality","CC_2":"NA","HASC_2":"BG.PV.DD","name":"DolniDabnik.county"},
"geometry":{"type": "MultiPolygon","coordinates": [[[[24.4125,43.284,226.5356],[24.4336,43.2937,264.7186],[24.4527,43.2966,255.7638],[24.459,43.2957,253.0166],[24.4679,43.2905,252.4841],[24.4827,43.2789,301.9154],[24.4921,43.2766,299.4406],[24.5048,43.2774,316.4464],[24.5071,43.2825,302.0598],[24.5063,43.2855,294.1464],[24.5045,43.2877,293.2585],[24.4916,43.2917,278.0568],[24.4916,43.2951,297.1212],[24.5064,43.2953,282.7829],[24.5206,43.2979,280.7892],[24.528,43.3035,297.4258],[24.5395,43.3083,260.9665],[24.5486,43.3154,248.7161],[24.5598,43.3393,207.8194],[24.5614,43.3473,219.6503],[24.5605,43.3502,221.553],[24.555,43.355,194.7511],[24.5384,43.3569,149.1166],[24.5292,43.3621,102.8887],[24.5133,43.3748,91.5682],[24.4938,43.3833,68.1979],[24.4702,43.3901,76.1747],[24.4627,43.3955,95.7134],[24.4668,43.4015,87.8227],[24.4796,43.4052,73.9022],[24.4911,43.4125,71.4015],[24.4935,43.419,71.9839],[24.4931,43.4293,79.3694],[24.4909,43.4476,91.7435],[24.4877,43.4506,95.8184],[24.4572,43.4618,92.2815],[24.4379,43.4652,114.3005],[24.3672,43.4636,152.9159],[24.3468,43.4678,165.213],[24.3399,43.4613,167.3634],[24.3329,43.4464,167.6496],[24.3325,43.4295,168.1322],[24.3151,43.421,161.7304],[24.3087,43.4156,170.0512],[24.3007,43.4036,173.6863],[24.297,43.3925,182.5323],[24.2914,43.3872,179.2413],[24.2752,43.3825,178.1978],[24.2739,43.3809,180.3423],[24.2738,43.3719,186.0484],[24.2991,43.359,164.0],[24.3079,43.3496,183.4074],[24.3049,43.3287,194.3914],[24.3075,43.3155,207.3891],[24.304,43.308,208.4484],[24.3051,43.2998,194.8409],[24.3137,43.2956,163.2431],[24.3298,43.2842,194.1224],[24.371,43.294,113.9776],[24.3864,43.2943,201.9517],[24.3975,43.2932,225.7799],[24.4125,43.284,226.5356]]]]}}