{"type": "Feature","bbox": [23.6073,43.64,23.8556,43.8044],"geometry": {"type": "MultiPolygon","coordinates": [[[[23.6073,43.6916,142.4026],[23.6128,43.6857,138.0396],[23.6176,43.6831,137.7807],[23.6438,43.6816,139.7143],[23.6521,43.6716,94.0694],[23.6543,43.6654,116.7713],[23.6591,43.6617,108.0678],[23.6824,43.6614,92.7723],[23.6878,43.6577,87.2016],[23.691,43.64,74.4063],[23.7116,43.643,63.7508],[23.7332,43.6564,57.8215],[23.7587,43.6572,58.2432],[23.7735,43.6661,56.0725],[23.7924,43.6739,41.8437],[23.8002,43.6811,39.787],[23.8187,43.6842,28.583],[23.8414,43.6946,30.2341],[23.8439,43.7021,29.3595],[23.8393,43.7105,29.724],[23.8465,43.7273,27.7227],[23.8438,43.7359,28.8558],[23.8441,43.7419,25.5882],[23.8556,43.7585,20.5],[23.8326,43.7662,21.0],[23.8337,43.7678,21.0],[23.8119,43.7759,21.0],[23.811,43.7743,21.0],[23.7832,43.78,21.0],[23.7667,43.7862,21.0],[23.7552,43.7982,21.0],[23.757,43.8004,21.0],[23.7514,43.8016,21.25],[23.7023,43.8044,21.5],[23.6965,43.803,21.5],[23.6875,43.8033,21.5],[23.6712,43.8009,21.5],[23.6329,43.7917,21.5],[23.6228,43.7914,21.5],[23.6273,43.7732,95.6096],[23.6337,43.7623,113.4487],[23.6352,43.7516,83.9972],[23.6338,43.7438,112.6872],[23.6314,43.7399,127.1945],[23.6215,43.7307,152.0635],[23.6161,43.7226,141.586],[23.6073,43.6916,142.4026]]]]}
,"properties": {"GID_2": "BGR.27.4_1","GID_0": "BGR","country": "Bulgaria","GID_1": "BGR.27_1","state": "Vratsa","NL_NAME_1": "Враца","county": "Kozloduy","VARNAME_2": "NA","NL_NAME_2": "Козлодуй","TYPE_2": "Obshtina","ENGTYPE_2": "Municipality","CC_2": "NA","HASC_2": "BG.VR.KO","name": "Kozloduy.county","area_km2": 246.7814,"hist_schema_id": "Elevation0-9000","hist_area_km2": {"25": 54.421,"50": 31.3894,"75": 72.29,"100": 29.3924,"125": 27.4151,"150": 31.8736}}}