{"type":"Feature","properties":{"GID_2":"BGR.20.4_1","GID_0":"BGR","country":"Bulgaria","GID_1":"BGR.20_1","state":"Smolyan","NL_NAME_1":"Смолян","county":"Devin","VARNAME_2":"NA","NL_NAME_2":"Девин","TYPE_2":"Obshtina","ENGTYPE_2":"Municipality","CC_2":"NA","HASC_2":"BG.SM.DE","name":"Devin.county"},
"geometry":{"type": "MultiPolygon","coordinates": [[[[24.3353,41.7577,1008.4583],[24.3401,41.7516,970.4625],[24.3402,41.742,1324.7946],[24.3495,41.7269,1281.571],[24.3531,41.7164,1655.4165],[24.3524,41.7078,1409.4558],[24.3436,41.6934,1272.5242],[24.3442,41.6829,1092.8757],[24.3484,41.6771,1056.0613],[24.3646,41.662,1043.8367],[24.3728,41.6511,1209.6495],[24.3764,41.6407,1410.1448],[24.3751,41.6305,1238.5754],[24.3572,41.607,1514.406],[24.3524,41.5942,1431.7942],[24.3524,41.5866,1430.9545],[24.356,41.5781,1562.0776],[24.3563,41.5586,1626.197],[24.3598,41.5397,1581.8293],[24.3668,41.5329,1557.3032],[24.3718,41.5307,1551.8466],[24.3767,41.5332,1573.9399],[24.3823,41.532,1595.6338],[24.3831,41.5344,1605.2783],[24.3852,41.5352,1606.5732],[24.3915,41.5344,1591.1337],[24.3957,41.5362,1412.8409],[24.4001,41.5339,1349.0319],[24.4002,41.5283,1231.4866],[24.4041,41.5258,1385.8098],[24.4141,41.5261,1372.3938],[24.4212,41.5231,1381.3547],[24.4285,41.5258,1334.6906],[24.4365,41.5191,1181.1498],[24.4429,41.5204,1254.2319],[24.4474,41.5245,1541.0361],[24.4508,41.5251,1487.79],[24.4519,41.5315,1545.1079],[24.4507,41.5341,1482.8496],[24.454,41.5383,1540.1217],[24.4595,41.5401,1755.7383],[24.462,41.5435,1781.7437],[24.4665,41.5437,1763.8348],[24.4702,41.5464,1838.0452],[24.4703,41.5489,1779.7856],[24.4743,41.5514,1881.5936],[24.4805,41.5525,1822.7711],[24.4812,41.5555,1805.7091],[24.4879,41.5554,1800.7061],[24.4918,41.5519,1860.3953],[24.4969,41.5571,1889.6404],[24.5035,41.556,1838.5946],[24.5041,41.5606,1870.2288],[24.4975,41.5682,1789.0961],[24.4773,41.5831,1767.7275],[24.4741,41.5886,1725.6489],[24.4696,41.6037,1738.7168],[24.4589,41.6151,1632.7104],[24.4507,41.6191,1602.7278],[24.4223,41.62,1258.8723],[24.4182,41.6225,1334.0151],[24.4187,41.6285,1502.7611],[24.4245,41.6331,1542.1135],[24.4275,41.6401,1525.3898],[24.4263,41.6471,1717.9147],[24.4217,41.6542,1580.724],[24.4214,41.6592,1418.1219],[24.4231,41.6615,1276.6077],[24.4317,41.6652,1465.5071],[24.4387,41.6649,1593.1742],[24.4481,41.6613,1671.011],[24.4611,41.6607,1676.9919],[24.4817,41.6677,1599.9326],[24.4914,41.6665,1569.3191],[24.5012,41.6595,1625.1432],[24.5056,41.6602,1600.0171],[24.5118,41.6678,1534.5652],[24.5186,41.684,1226.6833],[24.5376,41.6991,1048.6541],[24.5558,41.7038,1429.85],[24.5607,41.7065,1425.0072],[24.5678,41.7118,1509.6689],[24.5816,41.7278,1641.2465],[24.5862,41.739,1818.5425],[24.5866,41.7577,1632.5049],[24.5747,41.7711,1517.8533],[24.5751,41.789,1576.5242],[24.5661,41.8075,1704.7826],[24.5648,41.8141,1684.2827],[24.5653,41.8179,1687.5519],[24.5711,41.8292,1726.3037],[24.5734,41.8399,1635.6621],[24.5709,41.8549,1407.4441],[24.575,41.8666,1377.2902],[24.574,41.8812,1570.1727],[24.5584,41.8808,1732.6321],[24.532,41.8901,1787.7986],[24.5235,41.8977,1801.2975],[24.5139,41.9128,1555.834],[24.5034,41.9223,1534.2727],[24.4929,41.9233,1500.7516],[24.476,41.9179,1177.0034],[24.4623,41.9179,921.6984],[24.4461,41.9225,789.578],[24.4305,41.9332,608.3508],[24.4214,41.9247,740.6643],[24.4169,41.9176,749.1186],[24.4157,41.9108,925.7339],[24.4181,41.9069,797.6246],[24.418,41.8945,787.9069],[24.4081,41.879,910.043],[24.3883,41.8622,927.093],[24.3604,41.8481,1333.2126],[24.3463,41.8385,1310.8447],[24.3363,41.8215,1438.2288],[24.3221,41.8065,1306.7084],[24.3189,41.7909,1216.1326],[24.3208,41.7754,1348.1573],[24.3253,41.7655,1147.7314],[24.3353,41.7577,1008.4583]]]]}}