{"type":"Feature","properties":{"GID_2":"BGR.11.1_1","GID_0":"BGR","country":"Bulgaria","GID_1":"BGR.11_1","state":"Pazardzhik","NL_NAME_1":"Пазарджик","county":"Batak","VARNAME_2":"NA","NL_NAME_2":"Батак","TYPE_2":"Obshtina","ENGTYPE_2":"Municipality","CC_2":"NA","HASC_2":"BG.PZ.BA","name":"Batak.county"},
"geometry":{"type": "MultiPolygon","coordinates": [[[[24.2846,41.9603,1376.6455],[24.2578,41.9655,1395.8425],[24.2486,41.9739,1137.0327],[24.237,41.9797,1140.353],[24.2217,41.9911,1349.8501],[24.2019,42.0124,1103.0],[24.1888,42.0008,1120.0496],[24.1846,41.9872,1103.0],[24.1797,41.9797,1106.9791],[24.1625,41.9631,1103.0],[24.1516,41.9326,1318.8865],[24.141,41.9148,1660.8905],[24.1295,41.9088,1778.1301],[24.1074,41.9119,1800.9795],[24.0966,41.9102,1736.7152],[24.0938,41.9078,1716.0135],[24.0845,41.8887,1627.3154],[24.0775,41.8838,1649.0471],[24.0685,41.883,1706.2219],[24.0392,41.8863,2016.0088],[24.0299,41.8844,2099.0027],[24.0237,41.8797,2009.4644],[24.0199,41.8701,2021.7583],[24.0209,41.8608,2040.3138],[24.0159,41.8518,1964.7268],[23.9987,41.8397,1853.1855],[23.9958,41.8348,1883.5524],[23.9953,41.8223,1758.3888],[23.9979,41.8132,1721.2169],[24.0015,41.808,1709.7723],[24.0191,41.7947,1725.4307],[24.0352,41.7878,1629.1461],[24.0427,41.7822,1686.8107],[24.069,41.7481,1686.7556],[24.0769,41.7432,1597.4089],[24.1002,41.7337,1565.9384],[24.1123,41.7229,1547.4596],[24.18,41.7283,1629.4412],[24.2014,41.7352,1471.1188],[24.2096,41.7348,1521.7601],[24.2221,41.7294,1486.3724],[24.2386,41.7272,1582.0654],[24.2636,41.7196,1459.1743],[24.2708,41.7215,1393.3005],[24.2829,41.7307,1349.7446],[24.2914,41.7327,1212.9958],[24.3074,41.7449,1224.6895],[24.3216,41.7502,1062.4709],[24.3353,41.7577,1008.4583],[24.3253,41.7655,1147.7314],[24.3208,41.7754,1348.1573],[24.3189,41.7909,1216.1326],[24.3221,41.8065,1306.7084],[24.3363,41.8215,1438.2288],[24.3463,41.8385,1310.8447],[24.3604,41.8481,1333.2126],[24.3883,41.8622,927.093],[24.4023,41.873,1038.6262],[24.4165,41.8919,726.5275],[24.4186,41.8979,844.6809],[24.4181,41.9069,797.6246],[24.3837,41.896,990.733],[24.3607,41.8936,1123.5801],[24.3003,41.9037,1509.1957],[24.2949,41.9089,1523.7902],[24.301,41.9236,1534.7177],[24.2999,41.93,1514.3733],[24.2962,41.938,1326.6261],[24.2953,41.9526,1248.9459],[24.293,41.9558,1254.1758],[24.2846,41.9603,1376.6455]]]]}}