{"type": "Feature","bbox": [24.1777,43.3719,24.3533,43.6057],"geometry": {"type": "MultiPolygon","coordinates": [[[[24.2738,43.3719,186.0484],[24.2739,43.3809,180.3423],[24.2752,43.3825,178.1978],[24.2914,43.3872,179.2413],[24.297,43.3925,182.5323],[24.3007,43.4036,173.6863],[24.3087,43.4156,170.0512],[24.3151,43.421,161.7304],[24.3325,43.4295,168.1322],[24.3329,43.4464,167.6496],[24.3399,43.4613,167.3634],[24.3468,43.4678,165.213],[24.339,43.4745,167.8593],[24.3358,43.4813,170.0353],[24.3357,43.485,169.1608],[24.3426,43.5104,169.3275],[24.3533,43.5395,167.7913],[24.3528,43.5524,155.4799],[24.3497,43.5556,151.7599],[24.3484,43.5632,148.5913],[24.344,43.567,128.838],[24.3243,43.5685,70.914],[24.3188,43.571,44.7906],[24.3183,43.573,38.2507],[24.323,43.5789,39.2784],[24.3324,43.5853,37.9753],[24.338,43.5913,37.8864],[24.3291,43.5955,49.322],[24.3211,43.6057,103.3287],[24.3176,43.6049,105.8758],[24.315,43.5952,109.6376],[24.3116,43.5916,106.5319],[24.296,43.5834,58.3481],[24.2856,43.5797,99.486],[24.2673,43.5805,107.8446],[24.2496,43.5742,102.6783],[24.2138,43.5727,106.5594],[24.1895,43.5658,137.7546],[24.1887,43.5571,99.316],[24.1777,43.5157,130.4741],[24.1784,43.5003,130.5034],[24.1867,43.4947,122.9579],[24.2186,43.4919,59.0835],[24.2268,43.4891,52.3073],[24.2471,43.487,80.2126],[24.2516,43.4843,138.9326],[24.2499,43.4798,99.2553],[24.2412,43.4821,58.6767],[24.2393,43.4813,60.0092],[24.2405,43.4736,59.8909],[24.2356,43.4704,59.1368],[24.2358,43.4635,61.8841],[24.2318,43.4559,55.0787],[24.2342,43.452,61.4541],[24.2414,43.4461,58.9854],[24.2461,43.429,60.5504],[24.2349,43.3923,81.2813],[24.2346,43.3804,165.1084],[24.2396,43.3739,189.8181],[24.2502,43.3732,172.8004],[24.2617,43.3749,153.9587],[24.2738,43.3719,186.0484]]]]}
,"properties": {"GID_2": "BGR.13.6_1","GID_0": "BGR","country": "Bulgaria","GID_1": "BGR.13_1","state": "Pleven","NL_NAME_1": "Плевенска","county": "Iskar","VARNAME_2": "NA","NL_NAME_2": "NA","TYPE_2": "Obshtina","ENGTYPE_2": "Municipality","CC_2": "NA","HASC_2": "BG.PV.IS","name": "Iskar.county","area_km2": 210.6777,"hist_schema_id": "Elevation0-9000","hist_area_km2": {"25": 0.169,"50": 45.0729,"75": 17.0517,"100": 32.639,"125": 43.2457,"150": 35.8962,"175": 35.7403,"200": 0.8629}}}