{"type": "Feature","bbox": [23.5152,42.5084,23.9013,42.8276],"geometry": {"type": "MultiPolygon","coordinates": [[[[23.611,42.509,985.7098],[23.6189,42.5183,926.7045],[23.6245,42.5359,868.0738],[23.6417,42.5484,876.3796],[23.65,42.5567,810.9695],[23.6556,42.569,807.1254],[23.6537,42.5832,706.8309],[23.6547,42.589,711.1783],[23.6568,42.5913,699.2189],[23.6663,42.5957,643.5336],[23.6845,42.5977,744.8303],[23.6936,42.6022,691.8466],[23.7039,42.6045,654.4802],[23.7117,42.604,658.4481],[23.7258,42.5996,751.3748],[23.7823,42.5996,702.0576],[23.8,42.5969,792.7267],[23.8074,42.5907,791.4684],[23.8168,42.5737,938.6614],[23.8331,42.5616,959.3362],[23.8553,42.5541,1064.0117],[23.8783,42.5504,1184.9374],[23.8824,42.5607,1088.3398],[23.8882,42.5675,1089.6677],[23.8912,42.5737,1063.9297],[23.8881,42.5785,981.8917],[23.8878,42.5833,944.5809],[23.8965,42.5912,915.2231],[23.8969,42.596,972.4014],[23.8942,42.6006,988.3111],[23.8942,42.6034,970.202],[23.9013,42.6195,853.9011],[23.9,42.6269,854.6237],[23.8979,42.6286,851.4637],[23.8823,42.6326,841.4178],[23.8667,42.6238,837.7795],[23.8531,42.6229,832.5431],[23.8492,42.6244,825.1609],[23.8411,42.6332,786.7526],[23.8362,42.6363,717.2319],[23.8222,42.6382,703.6081],[23.8011,42.6483,676.5123],[23.7936,42.6492,662.7144],[23.7873,42.6464,677.7934],[23.7728,42.6265,690.7423],[23.7606,42.6212,687.6149],[23.7555,42.6215,670.1523],[23.7432,42.625,646.151],[23.7323,42.6319,635.4541],[23.7081,42.6554,580.2164],[23.7,42.6566,601.2637],[23.6717,42.6483,555.3427],[23.6652,42.6507,553.043],[23.6677,42.6632,551.8633],[23.6646,42.6744,553.85],[23.6665,42.6781,555.7072],[23.6747,42.6853,558.3097],[23.6959,42.695,607.0193],[23.7018,42.7014,647.4371],[23.705,42.7094,654.0594],[23.7078,42.7334,751.0145],[23.7144,42.7427,778.3411],[23.7463,42.7669,1079.988],[23.7975,42.777,968.2238],[23.8008,42.7811,970.8378],[23.8045,42.7921,823.7668],[23.8154,42.8013,624.173],[23.8045,42.8001,957.4351],[23.7836,42.8009,1253.7035],[23.7476,42.8114,1227.9275],[23.7279,42.8215,1263.3384],[23.7099,42.8267,1138.2701],[23.6845,42.8276,1434.7531],[23.6464,42.8265,1205.3069],[23.647,42.8199,1410.399],[23.6511,42.8123,1296.8248],[23.6514,42.7999,1104.4166],[23.6436,42.7805,1001.945],[23.6436,42.7656,792.5984],[23.64,42.7577,746.0643],[23.6295,42.7427,632.7609],[23.6267,42.7169,606.0966],[23.6226,42.7088,589.0055],[23.6102,42.702,576.5212],[23.5873,42.6991,561.5562],[23.5775,42.6961,555.7115],[23.5741,42.6936,550.2007],[23.5609,42.6754,535.1161],[23.5477,42.6707,532.9155],[23.5267,42.6666,534.0709],[23.5213,42.6619,533.4052],[23.5187,42.6462,538.7557],[23.5152,42.6399,542.5073],[23.5155,42.6297,553.8245],[23.5261,42.6239,564.7042],[23.5535,42.6213,562.6255],[23.5579,42.618,576.3461],[23.5618,42.6107,618.9082],[23.5623,42.6047,654.6125],[23.5565,42.5745,1065.2261],[23.559,42.5552,1035.2677],[23.5548,42.5472,978.0731],[23.5466,42.5393,975.3857],[23.5468,42.5321,838.0354],[23.5723,42.513,968.5021],[23.5822,42.5084,989.3003],[23.611,42.509,985.7098]]]]}
,"properties": {"GID_2": "BGR.21.8_1","GID_0": "BGR","country": "Bulgaria","GID_1": "BGR.21_1","state": "Sofia","NL_NAME_1": "Sofija","county": "ElinPelin","VARNAME_2": "Novoseltsi","NL_NAME_2": "ЕлинПелин","TYPE_2": "Obshtina","ENGTYPE_2": "Municipality","CC_2": "NA","HASC_2": "BG.SF.EP","name": "ElinPelin.county","area_km2": 413.4884,"hist_schema_id": "Elevation0-9000","hist_area_km2": {"525": 9.5888,"550": 73.1627,"575": 32.7631,"600": 18.9343,"625": 19.2472,"650": 13.727,"675": 12.8993,"700": 14.8161,"725": 12.5839,"750": 12.4426,"775": 12.7394,"800": 14.6597,"825": 15.0534,"850": 15.7242,"875": 14.2414,"900": 13.1165,"925": 13.3847,"950": 14.4791,"975": 12.2144,"1000": 9.7302,"1025": 7.3581,"1050": 7.121,"1075": 6.8863,"1100": 5.0616,"1125": 4.3593,"1150": 4.0005,"1175": 3.3773,"1200": 2.9095,"1225": 2.6289,"1250": 2.4732,"1275": 2.1776,"1300": 1.9132,"1325": 1.8509,"1350": 1.3065,"1375": 1.3064,"1400": 0.9331,"1425": 0.5754,"1450": 0.3888,"1475": 0.4199,"1500": 0.2022,"1525": 0.2799,"1550": 0.1555,"1575": 0.1711,"1600": 0.1244}}}