{"type": "Feature","bbox": [23.3544,41.6918,23.823,41.8596],"geometry": {"type": "MultiPolygon","coordinates": [[[[23.5936,41.8596,724.7546],[23.5893,41.8564,784.5906],[23.5689,41.8487,1015.4125],[23.5366,41.8415,893.8545],[23.5198,41.8431,858.7112],[23.4918,41.8527,872.1006],[23.4721,41.8524,881.4799],[23.453,41.8461,909.4374],[23.4324,41.8365,1039.0989],[23.4146,41.8226,1606.4255],[23.4092,41.8142,2010.8765],[23.4075,41.8036,2418.1226],[23.4053,41.8009,2438.1865],[23.395,41.7916,2479.0825],[23.3873,41.7873,2786.2556],[23.3893,41.7849,2784.552],[23.3932,41.7696,2500.0852],[23.3926,41.7637,2500.7266],[23.388,41.7548,2305.8411],[23.3813,41.7482,2314.3938],[23.3741,41.744,2214.4058],[23.3544,41.738,1910.3813],[23.3675,41.7361,2230.3281],[23.3721,41.7331,2470.8406],[23.3785,41.7244,2255.1699],[23.3798,41.7116,2044.1239],[23.3824,41.7086,1936.4407],[23.3869,41.7068,1925.4534],[23.3916,41.7079,1883.9116],[23.4228,41.7338,2320.3599],[23.4327,41.7385,2515.5737],[23.4417,41.7381,2242.8657],[23.4501,41.7349,2371.0308],[23.4555,41.7301,2524.9385],[23.4692,41.7073,2321.6411],[23.4872,41.7013,2571.4258],[23.4934,41.696,2631.895],[23.5085,41.6918,2381.6699],[23.5383,41.6992,2239.9626],[23.56,41.7017,2049.7866],[23.6224,41.7132,1131.1438],[23.6439,41.7129,955.0734],[23.6712,41.7094,801.6199],[23.6871,41.7096,830.5466],[23.6883,41.7104,797.666],[23.6866,41.7166,795.8761],[23.68,41.7243,921.0895],[23.6818,41.7298,717.1397],[23.6875,41.7322,646.0121],[23.7132,41.7351,963.6323],[23.7254,41.7394,1030.917],[23.7379,41.7497,1306.6443],[23.7568,41.7703,1345.954],[23.764,41.7742,1619.6372],[23.7847,41.7792,1521.446],[23.7955,41.7871,1469.0045],[23.8108,41.7917,1498.0134],[23.8166,41.8006,1649.1418],[23.823,41.8195,1776.1443],[23.7934,41.8383,1558.2595],[23.7619,41.838,1621.1713],[23.7253,41.8475,1334.9318],[23.7058,41.8496,1347.0842],[23.6924,41.8483,1342.7909],[23.6882,41.8462,1420.0327],[23.6813,41.836,1244.2568],[23.6727,41.8334,1196.6862],[23.6551,41.8232,927.807],[23.6384,41.8209,950.9141],[23.6316,41.824,820.6736],[23.6248,41.8247,713.2377],[23.618,41.8303,736.472],[23.5983,41.8412,797.9322],[23.5993,41.8522,867.0312],[23.5936,41.8596,724.7546]]]]}
,"properties": {"GID_2": "BGR.1.1_1","GID_0": "BGR","country": "Bulgaria","GID_1": "BGR.1_1","state": "Blagoevgrad","NL_NAME_1": "Благоевград","county": "Bansko","VARNAME_2": "NA","NL_NAME_2": "Банско","TYPE_2": "Obshtina","ENGTYPE_2": "Municipality","CC_2": "NA","HASC_2": "BG.BL.BA","name": "Bansko.county","area_km2": 448.2234,"hist_schema_id": "Elevation0-9000","hist_area_km2": {"600": 0.1424,"625": 0.965,"650": 1.5974,"675": 2.7353,"700": 3.7151,"725": 3.9364,"750": 4.1261,"775": 4.4899,"800": 5.2328,"825": 7.0185,"850": 10.7632,"875": 15.4706,"900": 15.8183,"925": 11.8379,"950": 10.7646,"975": 9.6433,"1000": 8.9956,"1025": 8.1893,"1050": 8.2999,"1075": 9.2958,"1100": 9.8813,"1125": 10.7666,"1150": 11.1149,"1175": 9.9454,"1200": 9.8505,"1225": 9.1865,"1250": 8.7438,"1275": 8.8229,"1300": 7.6521,"1325": 6.3716,"1350": 5.5177,"1375": 5.6914,"1400": 4.8056,"1425": 5.0744,"1450": 6.1492,"1475": 8.5676,"1500": 8.1403,"1525": 8.2823,"1550": 7.6499,"1575": 7.365,"1600": 6.3381,"1625": 5.1846,"1650": 4.1261,"1675": 4.0787,"1700": 4.0946,"1725": 4.0471,"1750": 3.0042,"1775": 2.7514,"1800": 2.467,"1825": 2.6726,"1850": 2.7359,"1875": 2.7518,"1900": 2.7202,"1925": 2.7676,"1950": 2.9418,"1975": 3.195,"2000": 3.053,"2025": 3.4323,"2050": 3.3218,"2075": 3.2584,"2100": 3.1162,"2125": 3.2112,"2150": 3.1639,"2175": 3.5117,"2200": 3.5436,"2225": 4.0974,"2250": 4.1768,"2275": 3.9077,"2300": 4.1135,"2325": 4.1451,"2350": 4.2716,"2375": 4.2718,"2400": 3.9709,"2425": 3.7179,"2450": 3.2274,"2475": 3.275,"2500": 2.7687,"2525": 2.6104,"2550": 2.1199,"2575": 2.0409,"2600": 1.5821,"2625": 1.2971,"2650": 0.9809,"2675": 0.9176,"2700": 0.696,"2725": 0.5536,"2750": 0.3163,"2775": 0.4745,"2800": 0.253,"2825": 0.1423,"2850": 0.0949,"2875": 0.0949}}}