{"type": "Feature","bbox": [25.6539,42.5503,25.9204,42.7876],"geometry": {"type": "MultiPolygon","coordinates": [[[[25.6539,42.7315,754.4838],[25.655,42.7153,638.8774],[25.6797,42.7013,829.7097],[25.6957,42.6944,694.2866],[25.7084,42.6841,679.0843],[25.7153,42.6689,512.0373],[25.7238,42.6399,785.8954],[25.7263,42.635,637.9365],[25.7314,42.6302,506.0832],[25.7377,42.6277,349.7798],[25.7597,42.6279,273.6833],[25.758,42.6357,394.6923],[25.7591,42.6389,490.1349],[25.7633,42.6447,485.7149],[25.7693,42.6471,394.4042],[25.7831,42.6461,290.1597],[25.7951,42.6471,294.9371],[25.8058,42.6377,273.6053],[25.8328,42.638,386.8621],[25.8495,42.625,264.6772],[25.8513,42.6213,260.5],[25.8542,42.6104,260.5],[25.8539,42.5986,320.7063],[25.8633,42.574,451.0571],[25.8643,42.566,474.4923],[25.863,42.5534,593.7266],[25.8719,42.5503,491.8694],[25.9146,42.5663,335.9568],[25.9192,42.5702,322.6968],[25.9204,42.5792,272.563],[25.9179,42.585,284.1666],[25.9138,42.5889,321.8833],[25.8965,42.5984,279.9251],[25.8869,42.6121,359.8544],[25.8818,42.6241,333.7653],[25.879,42.6559,283.7109],[25.8741,42.6769,317.6127],[25.8649,42.6908,359.0942],[25.8564,42.6991,469.2669],[25.8479,42.7341,926.6045],[25.8396,42.7587,1189.708],[25.8402,42.776,1165.6438],[25.8451,42.7835,1005.0449],[25.841,42.7861,1012.3997],[25.8286,42.7866,937.7607],[25.8087,42.7809,1129.2367],[25.799,42.7823,1140.2507],[25.7882,42.7865,1081.7715],[25.7781,42.7876,965.8152],[25.7619,42.7831,935.4927],[25.7477,42.7815,762.9241],[25.7379,42.7786,764.4696],[25.7309,42.7741,573.2938],[25.7185,42.77,572.463],[25.6774,42.7502,753.5081],[25.6745,42.7416,606.3354],[25.6692,42.7369,508.8678],[25.6599,42.7322,691.3309],[25.6539,42.7315,754.4838]]]]}
,"properties": {"GID_2": "BGR.22.4_1","GID_0": "BGR","country": "Bulgaria","GID_1": "BGR.22_1","state": "StaraZagora","NL_NAME_1": "СтараЗагора","county": "Gurkovo","VARNAME_2": "NA","NL_NAME_2": "Гурково","TYPE_2": "Obshtina","ENGTYPE_2": "Municipality","CC_2": "NA","HASC_2": "BG.SZ.GU","name": "Gurkovo.county","area_km2": 247.7463,"hist_schema_id": "Elevation0-9000","hist_area_km2": {"250": 13.8557,"275": 12.9622,"300": 15.5815,"325": 10.9165,"350": 7.8126,"375": 6.3309,"400": 5.8468,"425": 5.7059,"450": 6.3912,"475": 6.7339,"500": 7.0606,"525": 7.9174,"550": 7.9484,"575": 8.1648,"600": 7.9622,"625": 7.4474,"650": 7.4784,"675": 7.026,"700": 6.5741,"725": 6.7763,"750": 5.6706,"775": 5.3429,"800": 4.751,"825": 3.5201,"850": 3.4731,"875": 3.6754,"900": 4.1735,"925": 4.4067,"950": 4.1573,"975": 4.4684,"1000": 4.7952,"1025": 4.9818,"1050": 5.0287,"1075": 4.7484,"1100": 4.5148,"1125": 3.783,"1150": 3.6118,"1175": 2.0708,"1200": 1.5417,"1225": 1.059,"1250": 1.059,"1275": 0.3893,"1300": 0.0311}}}