{"type": "Feature","bbox": [23.9732,42.9842,24.2438,43.1395],"geometry": {"type": "MultiPolygon","coordinates": [[[[24.0566,43.1205,339.0314],[24.0515,43.118,394.7576],[24.0332,43.1154,380.6649],[24.0136,43.1139,313.3613],[23.9809,43.1149,336.3853],[23.9737,43.1118,356.9844],[23.9732,43.1054,272.5922],[23.9813,43.085,564.6733],[23.9832,43.0744,462.373],[23.9781,43.0579,690.8442],[24.0023,43.0568,559.5502],[24.0459,43.0682,419.0963],[24.0611,43.0693,347.9879],[24.0644,43.0661,379.5425],[24.0653,43.0618,441.1838],[24.062,43.0454,809.0401],[24.0661,43.0338,662.1083],[24.0808,43.0185,482.344],[24.0866,43.0074,430.273],[24.0977,43.0074,501.1642],[24.108,43.0115,532.3912],[24.1154,43.0105,485.3766],[24.1215,43.0015,483.499],[24.1259,42.9888,582.9225],[24.1307,42.9842,537.5135],[24.1385,42.985,580.1036],[24.1447,42.9876,562.3725],[24.1549,42.9859,598.5796],[24.1614,42.9881,509.2959],[24.1597,42.9933,516.2551],[24.1528,43.002,490.7441],[24.1427,43.0284,522.8714],[24.1457,43.0412,498.9244],[24.15,43.0488,492.6436],[24.1576,43.0568,391.652],[24.1741,43.0619,340.8146],[24.1802,43.0611,324.0756],[24.1963,43.0548,350.6503],[24.2082,43.0583,305.0635],[24.2222,43.059,322.3498],[24.2342,43.0669,328.1366],[24.2438,43.0762,315.5031],[24.2363,43.0825,316.8246],[24.2337,43.0879,382.1836],[24.2339,43.0977,337.5329],[24.238,43.1128,302.9454],[24.2362,43.1204,318.1257],[24.2272,43.1299,276.2843],[24.214,43.138,213.7721],[24.2061,43.1395,198.1538],[24.1899,43.1395,199.8394],[24.1719,43.1364,204.8535],[24.1506,43.1351,162.4811],[24.1326,43.1371,239.4625],[24.1264,43.1358,294.5327],[24.1177,43.1239,287.492],[24.1052,43.1241,297.2858],[24.0921,43.1206,342.6348],[24.0806,43.1217,370.6564],[24.0647,43.1171,362.7067],[24.0566,43.1205,339.0314]]]]}
,"properties": {"GID_2": "BGR.9.8_1","GID_0": "BGR","country": "Bulgaria","GID_1": "BGR.9_1","state": "Lovech","NL_NAME_1": "Ловеч","county": "Yablanitsa","VARNAME_2": "Jablanica|Lablanica|Yablanica|","NL_NAME_2": "Ябланица","TYPE_2": "Obshtina","ENGTYPE_2": "Municipality","CC_2": "NA","HASC_2": "BG.LV.YA","name": "Yablanitsa.county","area_km2": 194.7997,"hist_schema_id": "Elevation0-9000","hist_area_km2": {"150": 0.0464,"175": 2.5074,"200": 5.2626,"225": 8.0953,"250": 10.6812,"275": 12.6943,"300": 20.1751,"325": 20.4699,"350": 19.1847,"375": 19.0311,"400": 16.3695,"425": 12.6233,"450": 11.2157,"475": 10.3794,"500": 7.6541,"525": 5.9662,"550": 4.2,"575": 2.309,"600": 1.4876,"625": 0.9453,"650": 0.8522,"675": 0.4803,"700": 0.4957,"725": 0.3719,"750": 0.1859,"775": 0.2324,"800": 0.3874,"825": 0.3254,"850": 0.1704}}}