{"type": "Feature","bbox": [23.641,42.1587,23.9977,42.4178],"geometry": {"type": "MultiPolygon","coordinates": [[[[23.7649,42.1759,2462.5728],[23.7796,42.1836,2495.8918],[23.7953,42.1978,2172.4822],[23.813,42.2044,1938.4496],[23.8165,42.2091,1716.6404],[23.8415,42.2156,1413.2793],[23.8528,42.2209,1187.293],[23.8657,42.231,962.8107],[23.87,42.2385,828.1454],[23.8758,42.2566,572.7059],[23.8815,42.2638,548.6988],[23.8879,42.2661,569.5162],[23.8998,42.2668,501.8674],[23.9115,42.2589,435.4703],[23.9177,42.2517,422.9787],[23.935,42.2443,413.9108],[23.9387,42.2444,419.7948],[23.947,42.2451,459.4369],[23.958,42.249,595.2313],[23.9842,42.2687,668.3771],[23.9951,42.273,567.8256],[23.9977,42.2812,659.376],[23.9965,42.2862,621.566],[23.9919,42.2907,744.968],[23.9748,42.2952,713.6614],[23.9545,42.2943,694.6375],[23.9449,42.3019,821.7614],[23.943,42.3059,843.6526],[23.9433,42.3106,891.49],[23.9468,42.319,915.7193],[23.9477,42.3339,671.5677],[23.9507,42.3406,767.1833],[23.9588,42.3482,849.4971],[23.9614,42.3528,874.7331],[23.964,42.3674,815.2419],[23.9226,42.3669,917.5067],[23.908,42.3696,825.3333],[23.8744,42.3718,784.4709],[23.859,42.3688,900.6415],[23.8352,42.361,749.9221],[23.824,42.3621,703.2347],[23.8178,42.3656,659.5645],[23.8064,42.377,822.8217],[23.8001,42.3796,788.9521],[23.7785,42.3807,782.4302],[23.7695,42.3862,876.8207],[23.7623,42.3863,873.8719],[23.7496,42.3894,909.7645],[23.7265,42.3906,793.453],[23.715,42.3931,800.5275],[23.6834,42.4112,1115.9023],[23.6673,42.4164,1145.3228],[23.657,42.4178,1101.8265],[23.641,42.3952,956.7208],[23.6412,42.3895,967.9034],[23.6449,42.3845,1030.7129],[23.6543,42.3784,1032.6481],[23.67,42.374,893.5079],[23.6899,42.3651,864.5482],[23.6967,42.3595,771.2497],[23.7042,42.3444,847.2308],[23.7125,42.3389,885.3325],[23.7347,42.3374,868.9095],[23.7507,42.3313,783.8632],[23.7714,42.3342,728.7155],[23.7788,42.3324,662.9009],[23.7814,42.3301,663.3674],[23.7824,42.3206,591.9979],[23.7803,42.3026,630.031],[23.7832,42.2971,646.3123],[23.7907,42.2948,646.0577],[23.8125,42.2936,605.1342],[23.8165,42.2913,590.8674],[23.8175,42.2845,625.0188],[23.8116,42.2764,674.6146],[23.7936,42.2672,946.2047],[23.7847,42.2595,1294.7542],[23.78,42.2522,1357.8973],[23.7703,42.2445,1421.5251],[23.7537,42.2393,1630.1439],[23.7446,42.2259,1696.5348],[23.7369,42.2178,2039.1124],[23.7305,42.2146,1944.7351],[23.7189,42.2128,2147.9661],[23.7128,42.2079,2222.1819],[23.7132,42.1959,2388.5847],[23.7027,42.1782,2406.123],[23.7016,42.1726,2481.0972],[23.7029,42.1662,2359.5186],[23.7069,42.1615,2299.6484],[23.7101,42.1592,2317.0283],[23.716,42.1587,2338.0117],[23.7211,42.1592,2344.8193],[23.7219,42.1668,2400.8315],[23.7253,42.1712,2343.6729],[23.7287,42.1728,2367.4448],[23.7649,42.1759,2462.5728]]]]}
,"properties": {"GID_2": "BGR.21.14_1","GID_0": "BGR","country": "Bulgaria","GID_1": "BGR.21_1","state": "Sofia","NL_NAME_1": "Sofija","county": "Kostenets","VARNAME_2": "NA","NL_NAME_2": "Костенец","TYPE_2": "Obshtina","ENGTYPE_2": "Municipality","CC_2": "NA","HASC_2": "BG.SF.KN","name": "Kostenets.county","area_km2": 317.5058,"hist_schema_id": "Elevation0-9000","hist_area_km2": {"400": 0.1883,"425": 0.0471,"450": 0.9257,"475": 3.2627,"500": 5.4422,"525": 12.3253,"550": 18.2521,"575": 18.9575,"600": 18.2039,"625": 17.0115,"650": 15.7714,"675": 17.1959,"700": 17.0694,"725": 16.7079,"750": 15.7505,"775": 13.587,"800": 11.6594,"825": 9.8413,"850": 7.695,"875": 6.0337,"900": 5.6111,"925": 4.5148,"950": 4.0752,"975": 3.6526,"1000": 3.2444,"1025": 2.9787,"1050": 2.9004,"1075": 2.7125,"1100": 1.8982,"1125": 1.9146,"1150": 1.1145,"1175": 0.9575,"1200": 1.0674,"1225": 0.9262,"1250": 0.8477,"1275": 0.9419,"1300": 0.9419,"1325": 0.832,"1350": 0.9106,"1375": 1.0519,"1400": 0.8321,"1425": 0.9263,"1450": 0.942,"1475": 1.0048,"1500": 0.8792,"1525": 0.8635,"1550": 1.1304,"1575": 0.942,"1600": 1.0048,"1625": 1.2404,"1650": 0.9892,"1675": 1.0206,"1700": 1.0677,"1725": 1.209,"1750": 0.895,"1775": 0.7694,"1800": 0.7381,"1825": 0.8794,"1850": 0.691,"1875": 0.9894,"1900": 0.7224,"1925": 0.8323,"1950": 0.8952,"1975": 1.3035,"2000": 1.1465,"2025": 0.9267,"2050": 1.0052,"2075": 0.7853,"2100": 1.0838,"2125": 1.1623,"2150": 0.8482,"2175": 1.0681,"2200": 1.3195,"2225": 0.9896,"2250": 1.2724,"2275": 0.9268,"2300": 1.1625,"2325": 1.2883,"2350": 1.4297,"2375": 1.3982,"2400": 1.2569,"2425": 1.4454,"2450": 1.0055,"2475": 1.0056,"2500": 0.817,"2525": 0.7385,"2550": 0.6127,"2575": 0.3928,"2600": 0.33,"2625": 0.2671,"2650": 0.0314}}}