{"type": "Feature","bbox": [22.9227,41.5305,23.3544,41.7431],"geometry": {"type": "MultiPolygon","coordinates": [[[[22.9918,41.6933,1517.92],[22.9815,41.6796,1371.2234],[22.9807,41.6761,1344.3181],[22.9774,41.6755,1331.0262],[22.9676,41.6664,1268.1742],[22.9635,41.659,1254.8335],[22.9637,41.6568,1282.7637],[22.9615,41.6561,1285.2384],[22.9591,41.6509,1374.5901],[22.9555,41.6495,1348.5804],[22.9558,41.6468,1333.8669],[22.9581,41.6451,1329.141],[22.9575,41.6403,1242.9027],[22.9411,41.64,1272.4631],[22.9346,41.6381,1228.2214],[22.9338,41.6391,1204.5583],[22.9322,41.6354,1249.1394],[22.926,41.6327,1178.8558],[22.9254,41.6268,1245.9031],[22.9227,41.6233,1294.4905],[22.9272,41.6184,1299.6814],[22.9267,41.6132,1187.0991],[22.9287,41.61,1139.3536],[22.9275,41.6034,1014.8186],[22.9253,41.6008,998.7374],[22.9261,41.5941,1040.9425],[22.9237,41.5896,923.9729],[22.9249,41.5802,1022.0665],[22.9271,41.5761,1015.7209],[22.9346,41.5758,1069.9333],[22.9353,41.5729,1091.8212],[22.9401,41.5691,965.4346],[22.939,41.567,999.6875],[22.9413,41.558,1049.7776],[22.9445,41.5551,1134.3413],[22.9466,41.555,1162.2559],[22.9471,41.5515,1231.3286],[22.943,41.5456,1249.964],[22.944,41.5348,1138.7944],[22.9562,41.5399,1165.3248],[22.9656,41.5406,1202.3306],[22.985,41.5374,998.3475],[22.9994,41.5386,1022.5858],[23.0128,41.5337,1127.3474],[23.0228,41.5337,1159.7738],[23.0374,41.5397,972.8802],[23.0476,41.5483,940.4882],[23.0575,41.5496,768.708],[23.0661,41.5474,799.429],[23.0795,41.5343,838.1691],[23.0847,41.5311,696.6705],[23.0935,41.5305,690.9651],[23.1023,41.5331,925.832],[23.115,41.5413,869.0498],[23.1364,41.5462,840.389],[23.159,41.5567,614.5584],[23.1687,41.5582,616.298],[23.1689,41.5609,543.0664],[23.1739,41.5613,641.6061],[23.1859,41.567,582.175],[23.1927,41.5735,430.2227],[23.2035,41.5942,277.6678],[23.2105,41.6035,121.0179],[23.2231,41.6123,150.0527],[23.2311,41.6316,309.834],[23.2378,41.6415,368.0417],[23.2431,41.6533,533.0292],[23.248,41.659,565.4304],[23.2927,41.6894,1171.079],[23.3152,41.6973,1702.8088],[23.326,41.7037,1956.2937],[23.3356,41.7141,2056.1387],[23.341,41.7254,1962.9338],[23.3544,41.738,1910.3813],[23.3333,41.7387,1803.7432],[23.3144,41.7431,1320.9513],[23.3013,41.7416,1074.5991],[23.2841,41.733,817.0543],[23.2651,41.7202,917.7329],[23.2499,41.7081,746.9427],[23.2199,41.6793,361.2152],[23.1977,41.667,233.5118],[23.1848,41.6682,149.4495],[23.1605,41.68,260.6779],[23.1582,41.6792,286.3651],[23.1399,41.6849,407.5452],[23.114,41.684,670.703],[23.101,41.6788,902.7229],[23.09,41.679,914.595],[23.0044,41.6872,1501.0244],[22.9918,41.6933,1517.92]]]]}
,"properties": {"GID_2": "BGR.1.13_1","GID_0": "BGR","country": "Bulgaria","GID_1": "BGR.1_1","state": "Blagoevgrad","NL_NAME_1": "Благоевград","county": "Strumyani","VARNAME_2": "NA","NL_NAME_2": "NA","TYPE_2": "Obshtina","ENGTYPE_2": "Municipality","CC_2": "NA","HASC_2": "BG.BL.SY","name": "Strumyani.county","area_km2": 393.5516,"hist_schema_id": "Elevation0-9000","hist_area_km2": {"125": 11.1398,"150": 4.6901,"175": 4.0565,"200": 4.5633,"225": 4.595,"250": 4.1513,"275": 4.5791,"300": 4.1832,"325": 4.0723,"350": 3.882,"375": 3.391,"400": 3.6445,"425": 3.9773,"450": 4.4528,"475": 4.7382,"500": 5.8474,"525": 5.9269,"550": 6.3866,"575": 6.7669,"600": 6.9098,"625": 6.7195,"650": 7.1484,"675": 6.7996,"700": 7.7359,"725": 8.513,"750": 8.2121,"775": 9.4335,"800": 10.5274,"825": 11.1304,"850": 12.1448,"875": 12.6361,"900": 13.2873,"925": 13.3505,"950": 12.3675,"975": 10.9239,"1000": 11.763,"1025": 11.9057,"1050": 11.2233,"1075": 10.7477,"1100": 10.9056,"1125": 9.954,"1150": 10.366,"1175": 8.1304,"1200": 7.892,"1225": 5.4034,"1250": 5.514,"1275": 5.3865,"1300": 4.6096,"1325": 4.0391,"1350": 3.1836,"1375": 2.1695,"1400": 1.5675,"1425": 1.8524,"1450": 1.4881,"1475": 1.5515,"1500": 0.9814,"1525": 0.459,"1550": 0.6489,"1575": 0.4906,"1600": 0.4431,"1625": 0.5539,"1650": 0.5697,"1675": 0.4748,"1700": 0.5064,"1725": 0.5064,"1750": 0.5222,"1775": 0.364,"1800": 0.4906,"1825": 0.4431,"1850": 0.1899,"1875": 0.4906,"1900": 0.4431,"1925": 0.4431,"1950": 0.4589,"1975": 0.3007,"2000": 0.3007,"2025": 0.4114,"2050": 0.1108,"2075": 0.1899,"2100": 0.0475,"2125": 0.1108,"2150": 0.0317,"2175": 0.0317}}}