{"type": "Feature","bbox": [23.8285,42.8723,24.0991,43.0693],"geometry": {"type": "MultiPolygon","coordinates": [[[[24.0866,43.0074,430.273],[24.0808,43.0185,482.344],[24.0661,43.0338,662.1083],[24.062,43.0454,809.0401],[24.0653,43.0618,441.1838],[24.0644,43.0661,379.5425],[24.0611,43.0693,347.9879],[24.0459,43.0682,419.0963],[24.0023,43.0568,559.5502],[23.9781,43.0579,690.8442],[23.9762,43.0529,806.7361],[23.9745,43.0363,520.2703],[23.9699,43.0301,770.0411],[23.9662,43.0284,900.5722],[23.9508,43.0275,854.9235],[23.9061,43.0426,348.6643],[23.8958,43.0442,255.8462],[23.8787,43.0436,345.5922],[23.855,43.0396,411.4935],[23.8563,43.0295,391.3221],[23.8671,42.9943,441.6125],[23.8664,42.9905,410.7081],[23.8602,42.978,511.0096],[23.8524,42.9686,698.1874],[23.8306,42.953,526.168],[23.8285,42.9496,529.5912],[23.8305,42.9465,479.422],[23.8334,42.9454,450.8697],[23.8459,42.9468,597.4341],[23.862,42.9459,509.3896],[23.8758,42.9303,603.5013],[23.8773,42.9261,619.4781],[23.8763,42.9175,422.9395],[23.8731,42.9114,402.5366],[23.8732,42.9059,422.2282],[23.8854,42.8976,490.5383],[23.8893,42.8916,631.9767],[23.8898,42.8869,663.0598],[23.8819,42.8723,954.0453],[23.9233,42.8758,681.1256],[23.9468,42.886,488.7017],[23.9869,42.8971,816.1754],[24.0121,42.909,576.1414],[24.0226,42.9155,503.5544],[24.0283,42.9212,546.8698],[24.0547,42.9332,460.8191],[24.0696,42.9458,363.8761],[24.0827,42.9509,469.9195],[24.0991,42.9666,442.9458],[24.0906,42.9714,506.0176],[24.0863,42.9905,508.3096],[24.0866,43.0074,430.273]]]]}
,"properties": {"GID_2": "BGR.21.18_1","GID_0": "BGR","country": "Bulgaria","GID_1": "BGR.21_1","state": "Sofia","NL_NAME_1": "Sofija","county": "Pravets","VARNAME_2": "Pravec","NL_NAME_2": "Правец","TYPE_2": "Obshtina","ENGTYPE_2": "Municipality","CC_2": "NA","HASC_2": "BG.SF.PR","name": "Pravets.county","area_km2": 291.4561,"hist_schema_id": "Elevation0-9000","hist_area_km2": {"200": 0.8215,"225": 2.4185,"250": 2.9459,"275": 3.8608,"300": 5.7218,"325": 10.3753,"350": 14.6117,"375": 18.2115,"400": 23.0394,"425": 30.5989,"450": 27.6503,"475": 21.1783,"500": 16.8797,"525": 14.0717,"550": 13.0625,"575": 11.0918,"600": 10.1301,"625": 8.9972,"650": 9.2292,"675": 8.6548,"700": 8.1272,"725": 7.0886,"750": 6.5298,"775": 5.506,"800": 3.4892,"825": 2.45,"850": 1.8764,"875": 1.2096,"900": 0.7909,"925": 0.4806,"950": 0.2016,"975": 0.0622,"1025": 0.0466,"1050": 0.0466}}}