{"type":"Feature","properties":{"GID_2":"BGR.6.8_1","GID_0":"BGR","country":"Bulgaria","GID_1":"BGR.6_1","state":"Haskovo","NL_NAME_1":"Хасково","county":"Simeonovgrad","VARNAME_2":"NA","NL_NAME_2":"Симеоновград","TYPE_2":"Obshtina","ENGTYPE_2":"Municipality","CC_2":"NA","HASC_2":"BG.KK.SI","name":"Simeonovgrad.county"},
"geometry":{"type": "MultiPolygon","coordinates": [[[[25.7821,42.0029,122.2125],[25.777,41.9955,193.9984],[25.777,41.9807,171.8526],[25.7747,41.9727,193.4738],[25.77,41.9653,198.8719],[25.7699,41.9601,187.7279],[25.7769,41.9598,189.2537],[25.7819,41.9615,196.434],[25.795,41.9703,144.5665],[25.8101,41.9757,161.2727],[25.831,41.9769,175.1545],[25.858,41.9721,123.1439],[25.8775,41.9733,135.0141],[25.8842,41.9763,128.4542],[25.9008,41.9946,97.5282],[25.908,41.9994,118.4307],[25.9202,42.0021,141.3378],[25.9464,42.0007,165.9615],[25.9568,42.0037,197.2747],[25.9747,42.0125,210.3008],[25.9871,42.0218,199.6572],[25.9939,42.0311,245.0811],[25.9983,42.0328,221.653],[26.0067,42.0289,248.9262],[26.0121,42.0228,263.0396],[26.0237,42.0267,277.6538],[26.0425,42.0264,318.246],[26.0363,42.0412,273.3774],[26.0295,42.0497,258.4571],[26.0146,42.0629,221.527],[26.0049,42.0754,241.7159],[25.9839,42.0903,207.0981],[25.95,42.0902,165.1345],[25.9217,42.1087,169.6714],[25.9063,42.1075,125.6843],[25.8949,42.1037,106.3594],[25.8908,42.1045,112.1934],[25.8853,42.1089,96.4031],[25.8759,42.1116,82.3946],[25.8692,42.1107,85.7903],[25.8623,42.1055,102.8107],[25.8576,42.0975,92.9344],[25.8555,42.0833,152.2858],[25.8465,42.0656,124.5654],[25.8193,42.06,136.2107],[25.8016,42.0493,133.4279],[25.7918,42.0402,139.7194],[25.7867,42.031,157.0743],[25.7847,42.0234,158.3602],[25.7851,42.0112,83.9656],[25.7821,42.0029,122.2125]]]]}}