{"type": "Feature","bbox": [27.5608,43.7407,27.8559,43.9856],"geometry": {"type": "MultiPolygon","coordinates": [[[[27.7906,43.7988,207.9689],[27.7888,43.8015,213.3152],[27.7887,43.8086,199.8091],[27.7955,43.8156,214.7545],[27.7959,43.824,203.4753],[27.801,43.8327,190.8766],[27.8142,43.8397,182.6744],[27.8175,43.8465,205.0611],[27.8378,43.8537,204.3788],[27.8408,43.8602,183.5094],[27.8415,43.87,192.6288],[27.8512,43.879,200.6154],[27.8559,43.8876,199.0905],[27.8559,43.9041,195.1791],[27.8504,43.9221,185.6217],[27.8367,43.9358,196.0333],[27.8243,43.9647,184.5551],[27.7557,43.9586,120.2775],[27.7364,43.954,99.6088],[27.7113,43.9589,178.1988],[27.7011,43.966,173.687],[27.6838,43.9855,111.7577],[27.66,43.9856,139.2975],[27.6426,43.9812,105.1574],[27.6252,43.9791,92.2156],[27.6116,43.9678,176.1146],[27.6046,43.956,176.3285],[27.6034,43.9478,142.9532],[27.5927,43.9391,194.6186],[27.5877,43.9373,197.0084],[27.5849,43.9327,199.645],[27.5866,43.9245,197.7351],[27.5948,43.9164,187.4486],[27.5936,43.91,197.6296],[27.58,43.9038,189.0],[27.5608,43.9006,195.5307],[27.5634,43.8743,134.146],[27.5674,43.8618,153.0584],[27.5675,43.8461,207.7528],[27.5865,43.827,187.9913],[27.5983,43.8363,171.1449],[27.6064,43.8377,188.9303],[27.6148,43.8363,190.0054],[27.6197,43.8299,209.1687],[27.6224,43.8219,167.9257],[27.6377,43.8144,161.9297],[27.6434,43.8075,210.0109],[27.6621,43.7985,204.3553],[27.6686,43.791,216.0949],[27.6751,43.7568,217.3667],[27.69,43.7433,217.4844],[27.7018,43.7407,231.7033],[27.71,43.7429,237.2462],[27.7153,43.7487,230.3973],[27.7222,43.7662,199.386],[27.7253,43.7702,216.2352],[27.7299,43.7727,223.2633],[27.7357,43.7732,220.336],[27.7528,43.7675,216.6813],[27.7631,43.7707,221.8556],[27.7747,43.7792,222.7006],[27.7906,43.7988,207.9689]]]]}
,"properties": {"GID_2": "BGR.3.6_1","GID_0": "BGR","country": "Bulgaria","GID_1": "BGR.3_1","state": "Dobrich","NL_NAME_1": "Добрич","county": "Krushari","VARNAME_2": "NA","NL_NAME_2": "NA","TYPE_2": "Obshtina","ENGTYPE_2": "Municipality","CC_2": "NA","HASC_2": "BG.DO.KR","name": "Krushari.county","area_km2": 398.487,"hist_schema_id": "Elevation0-9000","hist_area_km2": {"50": 2.8091,"75": 6.8721,"100": 18.3853,"125": 34.5032,"150": 54.8278,"175": 90.2405,"200": 140.6701,"225": 44.9821,"250": 5.1968}}}