{"type":"Feature","properties":{"GID_2":"BGR.6.11_1","GID_0":"BGR","country":"Bulgaria","GID_1":"BGR.6_1","state":"Haskovo","NL_NAME_1":"Хасково","county":"Topolovgrad","VARNAME_2":"NA","NL_NAME_2":"Тополовград","TYPE_2":"Obshtina","ENGTYPE_2":"Municipality","CC_2":"NA","HASC_2":"BG.KK.TO","name":"Topolovgrad.county"},
"geometry":{"type": "MultiPolygon","coordinates": [[[[26.2665,42.0102,599.0399],[26.2758,42.0127,664.7269],[26.2899,42.0214,535.3657],[26.2992,42.0222,534.0799],[26.3195,42.0055,629.8579],[26.3416,41.9917,787.2732],[26.3778,41.9605,399.8352],[26.3885,41.9572,356.1708],[26.4031,41.9567,301.9235],[26.4062,41.9608,291.6619],[26.4051,41.9668,291.6615],[26.3963,41.9809,303.3157],[26.3947,41.9881,247.4601],[26.3976,41.9934,304.4559],[26.4089,41.992,255.432],[26.4247,41.9811,257.3233],[26.4472,41.9777,217.8795],[26.4597,41.9644,256.6727],[26.462,41.9554,262.9124],[26.4627,41.9301,286.6861],[26.4705,41.9199,291.4659],[26.4715,41.9052,248.7894],[26.4751,41.9029,255.1131],[26.4814,41.9017,262.559],[26.4943,41.9058,263.4483],[26.5064,41.9041,239.0248],[26.514,41.9066,208.033],[26.5236,41.8938,202.7894],[26.5438,41.8808,170.1141],[26.5506,41.8801,196.3166],[26.5603,41.8833,161.7262],[26.5651,41.8908,102.563],[26.5728,41.8973,141.1206],[26.5755,41.8984,106.0178],[26.5815,41.8973,83.6632],[26.5858,41.9052,109.7878],[26.5694,41.9238,126.5955],[26.5692,41.9275,132.5454],[26.5789,41.9415,242.2915],[26.5725,41.9438,222.4183],[26.5591,41.937,77.7561],[26.5534,41.942,60.3918],[26.5479,41.9534,126.2098],[26.5248,41.9684,104.5486],[26.5233,41.9718,89.9682],[26.5249,41.9816,79.2519],[26.5104,41.9931,103.0883],[26.5084,42.0087,81.8783],[26.4921,42.0172,79.4738],[26.4906,42.0198,78.1605],[26.4912,42.0265,77.8673],[26.4956,42.0309,131.6513],[26.5169,42.0343,225.9956],[26.5189,42.0369,231.3868],[26.52,42.0534,189.8009],[26.5105,42.0704,94.2597],[26.5064,42.0902,165.2452],[26.5081,42.0948,126.3039],[26.5203,42.1124,100.3667],[26.5229,42.1234,98.8933],[26.531,42.1338,97.9054],[26.5334,42.1416,103.1766],[26.5293,42.1434,96.1688],[26.5079,42.1427,114.5873],[26.5012,42.1477,109.2086],[26.495,42.1587,99.5325],[26.4951,42.1617,100.2758],[26.491,42.164,102.4406],[26.479,42.1628,110.2112],[26.4562,42.1551,183.106],[26.4449,42.157,149.25],[26.4311,42.1676,164.4572],[26.42,42.1703,164.0675],[26.3962,42.162,163.7656],[26.3877,42.1621,165.4703],[26.3778,42.1667,154.7069],[26.3722,42.1739,168.4883],[26.329,42.1794,187.7032],[26.3216,42.1872,197.1264],[26.3137,42.1896,206.5137],[26.3042,42.198,197.4357],[26.2932,42.2021,220.6514],[26.2531,42.2074,215.1708],[26.2366,42.2168,210.9229],[26.2273,42.2202,220.9992],[26.2134,42.2224,243.1131],[26.2081,42.2255,225.6857],[26.1986,42.2279,222.499],[26.1838,42.2054,219.0484],[26.1766,42.1824,258.4529],[26.1659,42.1672,287.1457],[26.1496,42.156,296.4456],[26.1453,42.1485,276.0522],[26.1434,42.1343,227.7552],[26.1443,42.1188,171.1678],[26.1467,42.1137,214.0305],[26.1573,42.1007,248.7027],[26.1605,42.0917,281.5385],[26.1627,42.0791,356.8734],[26.162,42.0555,394.3212],[26.1638,42.0418,505.4587],[26.1717,42.0312,450.8268],[26.1792,42.0246,511.3628],[26.1961,42.0191,480.8982],[26.2142,42.01,495.9914],[26.227,42.0073,477.3929],[26.2665,42.0102,599.0399]]]]}}