{"type":"Feature","properties":{"GID_2":"BGR.27.7_1","GID_0":"BGR","country":"Bulgaria","GID_1":"BGR.27_1","state":"Vratsa","NL_NAME_1":"Враца","county":"Miziya","VARNAME_2":"Mizia","NL_NAME_2":"Мизия","TYPE_2":"Obshtina","ENGTYPE_2":"Municipality","CC_2":"NA","HASC_2":"BG.VR.MI","name":"Miziya.county"},
"geometry":{"type": "MultiPolygon","coordinates": [[[[23.9856,43.612,158.824],[23.9797,43.6152,159.5124],[23.9736,43.6217,156.9695],[23.9728,43.6365,156.8085],[23.9592,43.6386,159.2222],[23.9533,43.6419,159.5979],[23.9526,43.6468,155.0268],[23.955,43.6581,151.3579],[23.9441,43.6727,151.718],[23.9419,43.6783,167.0225],[23.9435,43.6841,172.3792],[23.9493,43.6918,173.223],[23.9483,43.6939,170.2544],[23.939,43.6963,174.9872],[23.9316,43.701,181.6755],[23.93,43.7063,143.8247],[23.9302,43.7162,137.6131],[23.9188,43.72,160.733],[23.9115,43.7315,160.8169],[23.894,43.736,162.0288],[23.8874,43.7396,114.5451],[23.8762,43.7484,23.0544],[23.8725,43.7538,20.25],[23.8556,43.7585,20.5],[23.8441,43.7419,25.5882],[23.8438,43.7359,28.8558],[23.8465,43.7273,27.7227],[23.8393,43.7105,29.724],[23.8439,43.7021,29.3595],[23.8414,43.6946,30.2341],[23.8187,43.6842,28.583],[23.8002,43.6811,39.787],[23.7924,43.6739,41.8437],[23.7735,43.6661,56.0725],[23.7587,43.6572,58.2432],[23.7355,43.6571,63.1447],[23.7223,43.6502,61.6884],[23.715,43.6442,62.1236],[23.691,43.64,74.4063],[23.6864,43.6304,72.1196],[23.6875,43.6239,52.1706],[23.6917,43.6219,46.101],[23.7138,43.62,103.245],[23.7233,43.6147,149.618],[23.7611,43.6062,119.1759],[23.7638,43.6033,118.6631],[23.7658,43.5951,105.9998],[23.7626,43.5884,86.3578],[23.7627,43.5853,85.1068],[23.7675,43.5816,71.9779],[23.816,43.5734,99.8646],[23.8345,43.5763,63.1101],[23.8435,43.5822,67.5296],[23.8505,43.5892,146.2747],[23.8739,43.6011,94.5726],[23.8828,43.6021,83.0852],[23.9144,43.6,161.3346],[23.9274,43.6019,152.0651],[23.9431,43.6075,128.3018],[23.9583,43.6101,159.1324],[23.9797,43.6101,158.9362],[23.9856,43.612,158.824]]]]}}