{"type":"Feature","properties":{"GID_2":"BGR.1.4_1","GID_0":"BGR","country":"Bulgaria","GID_1":"BGR.1_1","state":"Blagoevgrad","NL_NAME_1":"Благоевград","county":"Garmen","VARNAME_2":"NA","NL_NAME_2":"Гърмен","TYPE_2":"Obshtina","ENGTYPE_2":"Municipality","CC_2":"NA","HASC_2":"BG.BL.GA","name":"Garmen.county"},
"geometry":{"type": "MultiPolygon","coordinates": [[[[23.7254,41.7394,1030.917],[23.7266,41.7275,1123.3678],[23.7442,41.6933,930.9948],[23.744,41.68,844.306],[23.7461,41.6667,764.6296],[23.7513,41.6543,728.0164],[23.7523,41.6468,652.1521],[23.7515,41.643,603.1873],[23.7467,41.6362,533.527],[23.7508,41.6217,518.2831],[23.7538,41.6176,517.884],[23.7556,41.6049,511.1606],[23.759,41.5954,505.4447],[23.7654,41.5907,497.2767],[23.7804,41.5859,505.7378],[23.7961,41.5744,490.6031],[23.8252,41.564,508.3988],[23.8306,41.5607,500.7078],[23.8289,41.5567,489.3066],[23.847,41.5417,468.6022],[23.8569,41.5425,493.4437],[23.8756,41.5511,563.4775],[23.8986,41.5529,609.3512],[23.903199999999998,41.5545,641.3679],[23.9146,41.5626,747.9222],[23.9187,41.568,734.9091],[23.9182,41.5704,723.4816],[23.9147,41.573,708.592],[23.9134,41.5779,693.6096],[23.92,41.5822,691.8259],[23.9213,41.5883,759.8359],[23.9264,41.595,865.0521],[23.9216,41.5988,850.8152],[23.9015,41.6008,960.8601],[23.895,41.6045,1002.6014],[23.8938,41.6071,1076.5914],[23.8993,41.6178,1157.105],[23.9159,41.6347,1212.042],[23.9213,41.6471,1344.9774],[23.9225,41.6579,1399.7919],[23.9194,41.6711,1441.859],[23.9168,41.6953,1562.4993],[23.9243,41.7011,1610.2693],[23.9389,41.7061,1671.5387],[23.9611,41.7204,1549.1355],[23.9665,41.7223,1620.3665],[23.9917,41.7244,1600.2422],[23.9869,41.7404,1678.9165],[23.9837,41.7444,1558.9167],[23.9761,41.7486,1579.4612],[23.962,41.7532,1592.6848],[23.9153,41.7809,1679.4089],[23.9042,41.79,1682.05],[23.8854,41.7989,1733.724],[23.8564,41.8043,1851.1621],[23.8393,41.8133,1670.834],[23.823,41.8195,1776.1443],[23.8166,41.8006,1649.1418],[23.8108,41.7917,1498.0134],[23.7955,41.7871,1469.0045],[23.7847,41.7792,1521.446],[23.764,41.7742,1619.6372],[23.7568,41.7703,1345.954],[23.7379,41.7497,1306.6443],[23.7254,41.7394,1030.917]]]]}}