{"type": "Feature","bbox": [27.5751,42.6351,27.9024,42.8975],"geometry": {"type": "MultiPolygon","coordinates": [[[[27.8826,42.8337,4.0805],[27.8453,42.8345,14.1728],[27.8153,42.8236,52.4405],[27.7857,42.8196,82.6329],[27.7776,42.8211,112.5465],[27.7749,42.8266,139.1848],[27.7658,42.8327,108.0564],[27.7589,42.8342,104.7362],[27.7454,42.8336,162.2876],[27.7329,42.8441,109.2638],[27.7274,42.8461,76.3786],[27.7171,42.8562,74.7181],[27.7104,42.8607,93.3423],[27.7045,42.8672,37.9066],[27.7125,42.8784,94.9063],[27.7088,42.884,120.1977],[27.7007,42.8894,152.2307],[27.6389,42.8975,90.2989],[27.6397,42.8927,83.5483],[27.6434,42.8888,104.527],[27.646,42.8806,177.6497],[27.6438,42.8784,150.0973],[27.6327,42.8781,243.8376],[27.6284,42.8758,309.0114],[27.6284,42.8736,261.2715],[27.6386,42.861,163.4618],[27.6388,42.857,244.2222],[27.6341,42.8505,213.8484],[27.6336,42.8415,292.8333],[27.6289,42.8356,283.9108],[27.6175,42.8281,404.2387],[27.5967,42.8094,197.2482],[27.5782,42.8077,208.5714],[27.5754,42.8065,260.3534],[27.5751,42.8047,262.3264],[27.5833,42.7912,121.3878],[27.5824,42.7795,59.8836],[27.5836,42.7766,58.9591],[27.5951,42.7582,46.5109],[27.6165,42.7368,38.3227],[27.6169,42.7317,50.4576],[27.63,42.7165,21.3537],[27.6342,42.7052,37.483],[27.6351,42.6954,49.2083],[27.6426,42.6819,65.2298],[27.6458,42.68,80.1336],[27.6556,42.6527,32.2349],[27.665,42.6387,0.0],[27.6751,42.6379,4.9016],[27.6768,42.6374,9.5328],[27.6771,42.6351,0.0],[27.6849,42.6457,2.4686],[27.6893,42.6499,2.5982],[27.6918,42.6499,0.0],[27.6918,42.6521,7.2896],[27.6993,42.6518,0.0],[27.7107,42.646,1.33],[27.7124,42.6512,8.8176],[27.7179,42.6568,2.4865],[27.7224,42.6582,1.0605],[27.7262,42.6574,0.0],[27.7262,42.6587,0.0],[27.7285,42.659,0.3107],[27.7304,42.6568,0.42],[27.7299,42.6543,0.0],[27.7313,42.6543,0.0],[27.7343,42.6574,11.9532],[27.7415,42.6593,0.0],[27.7393,42.6615,3.9951],[27.7324,42.661,0.0],[27.7304,42.659,1.4645],[27.724,42.6604,14.9237],[27.7201,42.6651,2.2584],[27.7138,42.6671,1.415],[27.7113,42.6732,1.3668],[27.7135,42.6904,1.0627],[27.7154,42.6912,0.0],[27.714,42.6937,3.6243],[27.7215,42.7043,3.8987],[27.7299,42.7093,5.521],[27.7365,42.709,11.9579],[27.7396,42.7068,0.0],[27.7465,42.7088,11.3344],[27.7515,42.7074,2.8657],[27.7657,42.7082,6.1135],[27.7757,42.7051,0.0],[27.7929,42.7035,8.8258],[27.7932,42.7021,13.5736],[27.8051,42.7035,0.0],[27.8082,42.7007,2.64],[27.8121,42.7012,0.0],[27.8154,42.7038,32.2776],[27.8229,42.7046,8.7412],[27.8401,42.7004,0.0],[27.8721,42.7001,0.0],[27.876,42.7012,9.4547],[27.8924,42.6974,10.3717],[27.9001,42.7001,0.0],[27.9013,42.7021,3.4792],[27.8999,42.7057,45.2722],[27.9024,42.7132,0.0],[27.9015,42.7188,15.7569],[27.8932,42.7343,47.568],[27.8885,42.7526,2.6817],[27.8926,42.7557,0.0],[27.8943,42.7624,0.0],[27.8976,42.7632,0.0],[27.9007,42.7663,3.5538],[27.901,42.7721,2.1825],[27.8985,42.7754,8.717],[27.8971,42.7796,15.7129],[27.8979,42.7821,0.0],[27.8913,42.7965,22.0403],[27.8826,42.8337,4.0805]]]]}
,"properties": {"GID_2": "BGR.2.6_1","GID_0": "BGR","country": "Bulgaria","GID_1": "BGR.2_1","state": "Burgas","NL_NAME_1": "Бургас","county": "Nesebar","VARNAME_2": "Nesebăr","NL_NAME_2": "Несебър","TYPE_2": "Obshtina","ENGTYPE_2": "Municipality","CC_2": "NA","HASC_2": "BG.BR.NE","name": "Nesebar.county","area_km2": 417.777,"hist_schema_id": "Elevation0-9000","hist_area_km2": {"0": 37.3131,"25": 45.1537,"50": 32.5051,"75": 25.6473,"100": 24.9251,"125": 26.4494,"150": 25.377,"175": 23.8852,"200": 21.9568,"225": 23.4502,"250": 22.4231,"275": 20.4317,"300": 20.3692,"325": 19.7933,"350": 19.1398,"375": 11.6544,"400": 8.4179,"425": 5.3058,"450": 2.2409,"475": 0.9802,"500": 0.28,"525": 0.0778}}}