{"type": "Feature","bbox": [25.2985,42.0779,25.6045,42.3747],"geometry": {"type": "MultiPolygon","coordinates": [[[[25.6045,42.185,159.7475],[25.5956,42.1894,146.8349],[25.5866,42.1912,158.5373],[25.5648,42.186,141.712],[25.5411,42.1893,164.1195],[25.5271,42.1855,179.0139],[25.5172,42.1864,180.4139],[25.5131,42.1934,179.4639],[25.5112,42.2053,192.5624],[25.5062,42.2135,186.6236],[25.4991,42.2192,168.0578],[25.4809,42.2236,181.6029],[25.4799,42.2289,194.8593],[25.4821,42.2325,169.0766],[25.4934,42.2366,194.2828],[25.5083,42.2486,201.4133],[25.5274,42.2527,166.4054],[25.5345,42.2579,170.395],[25.5428,42.2698,208.2397],[25.5459,42.2822,217.4729],[25.5443,42.2901,212.004],[25.5407,42.2958,245.2421],[25.5334,42.3005,216.37],[25.5141,42.3085,225.1803],[25.5124,42.3145,223.5],[25.5138,42.3325,206.3646],[25.5161,42.3383,211.4844],[25.5148,42.3474,222.2321],[25.5104,42.3517,226.2684],[25.5006,42.3566,235.429],[25.4929,42.3579,229.4565],[25.477,42.3567,280.5927],[25.4684,42.3581,288.641],[25.4371,42.3709,311.4407],[25.4239,42.3723,294.2147],[25.401,42.3711,359.7646],[25.3891,42.3747,443.7],[25.3707,42.35,409.1128],[25.3632,42.3447,453.4715],[25.3549,42.3434,377.3744],[25.3477,42.3394,440.3705],[25.3354,42.3254,532.5641],[25.3216,42.3201,471.5673],[25.3162,42.3161,382.4283],[25.3082,42.2997,365.5352],[25.2985,42.2741,266.6579],[25.299,42.2694,256.7293],[25.3119,42.2606,238.273],[25.318,42.2537,247.4678],[25.3192,42.2495,249.2418],[25.3172,42.2377,239.8123],[25.3043,42.2238,186.7422],[25.3016,42.2177,174.6324],[25.3021,42.2098,169.6206],[25.309,42.1867,155.5229],[25.3097,42.1797,145.6376],[25.3077,42.1697,142.1005],[25.3048,42.1637,145.3511],[25.3189,42.1438,136.4499],[25.3274,42.1369,122.4651],[25.3495,42.1242,130.5755],[25.3535,42.1205,127.867],[25.3602,42.1047,110.2706],[25.3727,42.0984,110.9292],[25.3763,42.0936,113.7621],[25.3841,42.0989,110.558],[25.4007,42.0983,109.5536],[25.4153,42.0929,102.7058],[25.4347,42.0912,106.0034],[25.4484,42.0804,103.8552],[25.4539,42.0779,104.2313],[25.4689,42.0782,102.8349],[25.4756,42.0843,103.3737],[25.4803,42.098,163.125],[25.4926,42.1136,150.0627],[25.4924,42.1204,135.7241],[25.4878,42.1317,159.2112],[25.495,42.1418,154.1242],[25.5165,42.1518,177.6992],[25.5262,42.1538,165.2056],[25.5317,42.1529,177.496],[25.5525,42.1409,176.9165],[25.5641,42.1394,162.5185],[25.5757,42.1404,183.1831],[25.5833,42.1455,169.9482],[25.5835,42.1505,151.9078],[25.5671,42.1517,169.9795],[25.5642,42.1552,169.6591],[25.5709,42.1585,167.2346],[25.593,42.1635,136.2226],[25.5971,42.1691,133.3518],[25.599,42.1787,155.253],[25.6045,42.185,159.7475]]]]}
,"properties": {"GID_2": "BGR.22.2_1","GID_0": "BGR","country": "Bulgaria","GID_1": "BGR.22_1","state": "StaraZagora","NL_NAME_1": "СтараЗагора","county": "Chirpan","VARNAME_2": "NA","NL_NAME_2": "Чирпан","TYPE_2": "Obshtina","ENGTYPE_2": "Municipality","CC_2": "NA","HASC_2": "BG.SZ.CH","name": "Chirpan.county","area_km2": 497.4274,"hist_schema_id": "Elevation0-9000","hist_area_km2": {"100": 14.772,"125": 19.9204,"150": 53.6952,"175": 117.8629,"200": 66.7135,"225": 57.6168,"250": 37.6832,"275": 23.775,"300": 22.1231,"325": 20.4124,"350": 16.1952,"375": 13.5458,"400": 11.1469,"425": 9.0465,"450": 6.2242,"475": 3.5746,"500": 1.7872,"525": 0.5957,"550": 0.533,"575": 0.2038}}}