{"type":"Feature","properties":{"GID_2":"BGR.10.11_1","GID_0":"BGR","country":"Bulgaria","GID_1":"BGR.10_1","state":"Montana","NL_NAME_1":"Монтана","county":"Yakimovo","VARNAME_2":"NA","NL_NAME_2":"NA","TYPE_2":"Obshtina","ENGTYPE_2":"Municipality","CC_2":"NA","HASC_2":"BG.MT.YA","name":"Yakimovo.county"},
"geometry":{"type": "MultiPolygon","coordinates": [[[[23.434,43.6263,147.8318],[23.4362,43.6286,139.9785],[23.4366,43.6345,143.2905],[23.4295,43.6459,152.0803],[23.4235,43.6485,152.9355],[23.4122,43.6468,86.5395],[23.4037,43.6554,91.9615],[23.3899,43.6643,104.699],[23.3856,43.6696,110.5487],[23.3842,43.6749,117.6099],[23.391,43.6919,115.348],[23.3905,43.7049,111.9202],[23.3895,43.7071,111.8819],[23.3707,43.7177,132.0872],[23.3652,43.7233,140.9122],[23.3625,43.732,97.8346],[23.3646,43.7381,110.3885],[23.3641,43.7433,133.0598],[23.3613,43.7493,134.3875],[23.3576,43.7534,142.834],[23.3305,43.7658,153.9957],[23.3248,43.7619,156.1691],[23.3101,43.7564,161.5633],[23.2907,43.7515,158.886],[23.281,43.7374,158.7398],[23.278199999999998,43.7257,152.8206],[23.2898,43.7116,142.1411],[23.2906,43.7064,148.825],[23.2879,43.7011,150.2218],[23.2812,43.6948,152.4684],[23.2737,43.6803,149.973],[23.2739,43.6639,153.9023],[23.2717,43.6603,153.731],[23.26,43.6549,158.6019],[23.2275,43.6527,166.605],[23.2256,43.6424,166.0955],[23.2227,43.6362,166.1674],[23.2296,43.6242,165.5269],[23.2247,43.6158,162.051],[23.2209,43.6109,159.3193],[23.1942,43.596,175.1956],[23.1831,43.5822,162.8922],[23.1757,43.5774,159.2711],[23.1836,43.5709,173.327],[23.1901,43.5677,170.9612],[23.2042,43.5639,154.4428],[23.2207,43.5513,180.2449],[23.2301,43.5488,187.8603],[23.2411,43.551,184.4194],[23.2588,43.5599,172.9312],[23.2757,43.5661,167.54],[23.2894,43.5667,169.2719],[23.3073,43.5617,176.6149],[23.3287,43.5608,177.1336],[23.3349,43.567,173.8258],[23.3452,43.572,168.0047],[23.3502,43.5765,165.9464],[23.3529,43.5829,163.8598],[23.3583,43.5858,162.226],[23.3757,43.5864,156.5467],[23.3832,43.5887,143.8632],[23.3869,43.5922,155.2523],[23.39,43.6036,154.6557],[23.3962,43.6084,153.5507],[23.4101,43.6117,150.2351],[23.4143,43.6163,147.4506],[23.4189,43.6261,143.0998],[23.434,43.6263,147.8318]]]]}}