{"type": "Feature","bbox": [27.6138,43.1375,27.8091,43.2297],"geometry": {"type": "MultiPolygon","coordinates": [[[[27.6827,43.2217,129.1409],[27.6605,43.2041,48.9092],[27.6534,43.2016,27.9591],[27.6362,43.2009,27.6824],[27.6314,43.2019,31.9634],[27.6263,43.2057,58.2032],[27.6164,43.2023,18.4482],[27.6183,43.198,10.9706],[27.6185,43.1913,10.5622],[27.6161,43.1889,10.3328],[27.6145,43.1835,13.5219],[27.6155,43.168,14.5529],[27.6138,43.157,0.7552],[27.6199,43.1538,3.1638],[27.6307,43.1573,4.7263],[27.6493,43.1792,7.5839],[27.6619,43.1801,3.7602],[27.6794,43.1681,209.3384],[27.7033,43.1552,182.927],[27.7206,43.1543,129.9603],[27.7319,43.161,126.9043],[27.7386,43.162,145.1256],[27.7493,43.1537,129.3696],[27.7591,43.1487,112.9455],[27.773,43.147,133.7422],[27.7947,43.1375,174.9281],[27.8019,43.1377,145.2836],[27.8091,43.1427,171.3211],[27.8012,43.1461,134.1244],[27.7972,43.1517,124.2711],[27.7992,43.1703,93.2509],[27.7958,43.1852,45.3967],[27.7985,43.1979,0.0],[27.7967,43.2055,5.3409],[27.7911,43.211,11.1855],[27.7737,43.221,10.344],[27.7671,43.2297,19.1017],[27.7395,43.2247,56.5691],[27.7152,43.2246,107.4152],[27.7077,43.2268,108.2886],[27.6998,43.227,140.8161],[27.6827,43.2217,129.1409]]]]}
,"properties": {"GID_2": "BGR.24.3_1","GID_0": "BGR","country": "Bulgaria","GID_1": "BGR.24_1","state": "Varna","NL_NAME_1": "Варна","county": "Beloslav","VARNAME_2": "NA","NL_NAME_2": "Белослав","TYPE_2": "Obshtina","ENGTYPE_2": "Municipality","CC_2": "NA","HASC_2": "BG.VN.BE","name": "Beloslav.county","area_km2": 95.8766,"hist_schema_id": "Elevation0-9000","hist_area_km2": {"0": 25.66181,"25": 13.03029,"50": 12.67474,"75": 14.15991,"100": 14.56229,"125": 9.12252,"150": 4.2371,"175": 2.19598,"200": 0.21651,"225": 0.01546}}}