{"type":"Feature","properties":{"GID_2":"BGR.4.1_1","GID_0":"BGR","country":"Bulgaria","GID_1":"BGR.4_1","state":"Gabrovo","NL_NAME_1":"Габрово","county":"Dryanovo","VARNAME_2":"NA","NL_NAME_2":"Дряново","TYPE_2":"Obshtina","ENGTYPE_2":"Municipality","CC_2":"NA","HASC_2":"BG.GB.DR","name":"Dryanovo.county"},
"geometry":{"type": "MultiPolygon","coordinates": [[[[25.4906,42.8871,488.0943],[25.4997,42.8976,534.8958],[25.5139,42.9062,573.9053],[25.5411,42.9065,696.6425],[25.5623,42.9028,544.6327],[25.5679,42.9032,448.594],[25.5819,42.9049,574.2617],[25.5955,42.9117,612.8186],[25.5905,42.9142,616.3795],[25.5751,42.9291,336.0346],[25.5754,42.9317,355.4141],[25.5824,42.9402,465.7307],[25.5807,42.9486,430.7372],[25.5765,42.9552,535.2544],[25.5767,42.9584,545.0878],[25.5778,42.9613,489.0146],[25.589,42.9652,421.8316],[25.6165,42.9823,191.1229],[25.6213,42.9936,191.7912],[25.622,42.9995,243.9724],[25.6211,43.0038,256.3742],[25.6139,43.0133,222.2468],[25.6049,43.0161,242.8715],[25.5688,43.0182,353.6625],[25.5612,43.0224,460.4764],[25.5523,43.0323,164.7262],[25.5446,43.0373,302.3234],[25.5364,43.0375,267.2606],[25.517,43.0341,289.3649],[25.5087,43.0368,354.8164],[25.4975,43.0462,429.6551],[25.4748,43.0458,411.0659],[25.4477,43.0394,343.4833],[25.4333,43.0393,357.1969],[25.4192,43.054,377.5177],[25.4076,43.0559,413.5789],[25.3895,43.056,434.7212],[25.3768,43.0524,372.5873],[25.3472,43.0523,352.7243],[25.3406,43.0543,382.6369],[25.3369,43.0578,430.7],[25.3248,43.0433,396.3848],[25.3139,43.034,482.6562],[25.3123,43.0275,493.6865],[25.3216,43.0096,442.4211],[25.3256,42.9922,410.8129],[25.3298,42.9834,343.2548],[25.3499,42.969,508.9571],[25.3693,42.9643,415.8658],[25.395,42.9642,663.3857],[25.4084,42.9626,552.7178],[25.4142,42.9632,565.1656],[25.4268,42.9685,324.4899],[25.4413,42.9689,268.4323],[25.4479,42.9679,259.9697],[25.4554,42.9639,276.6294],[25.4627,42.9525,334.0605],[25.4668,42.9304,412.3541],[25.4694,42.9216,363.1739],[25.4745,42.9152,443.9377],[25.4778,42.9007,612.7941],[25.4906,42.8871,488.0943]]]]}}