{"type":"Feature","properties":{"GID_2":"BGR.23.2_1","GID_0":"BGR","country":"Bulgaria","GID_1":"BGR.23_1","state":"Targovishte","NL_NAME_1":"Търговищка","county":"Omurtag","VARNAME_2":"NA","NL_NAME_2":"Омуртаг","TYPE_2":"Obshtina","ENGTYPE_2":"Municipality","CC_2":"NA","HASC_2":"BG.TU.OM","name":"Omurtag.county"},
"geometry":{"type": "MultiPolygon","coordinates": [[[[26.6579,43.0954,231.3164],[26.6398,43.1102,254.0139],[26.6306,43.1151,270.5789],[26.6202,43.1167,282.8617],[26.5901,43.1298,312.6208],[26.5802,43.1387,319.0212],[26.5722,43.143,330.6143],[26.5605,43.1435,359.8652],[26.5421,43.1366,380.7353],[26.5376,43.1364,367.3895],[26.531,43.1369,356.0378],[26.508,43.1432,362.7909],[26.4871,43.1434,394.6555],[26.4837,43.1464,414.6917],[26.4814,43.157,425.7999],[26.4859,43.1668,355.2178],[26.4936,43.1749,333.6832],[26.4939,43.1826,412.9751],[26.4862,43.1887,414.1962],[26.4745,43.1899,487.079],[26.4685,43.1936,520.4589],[26.4631,43.1948,525.2157],[26.4443,43.1894,521.4772],[26.4166,43.188,464.2396],[26.4081,43.1881,405.0333],[26.3922,43.1944,428.4987],[26.3904,43.1898,439.9928],[26.3724,43.1782,421.6873],[26.3334,43.1689,456.1829],[26.3063,43.1702,388.0196],[26.2975,43.167,427.7966],[26.2907,43.158,371.7773],[26.293,43.155,342.1145],[26.3114,43.143,417.2618],[26.3257,43.1279,338.702],[26.3248,43.1236,364.4324],[26.3098,43.1094,424.4904],[26.3092,43.1005,482.1281],[26.3113,43.095,539.5114],[26.3101,43.0883,476.0421],[26.2885,43.067,504.3781],[26.2871,43.0601,612.5284],[26.2886,43.0549,640.8943],[26.296,43.0462,583.0342],[26.3021,43.0469,541.6594],[26.3118,43.0413,592.7719],[26.3246,43.0394,571.2162],[26.3313,43.0408,608.8969],[26.3494,43.0519,542.4971],[26.3576,43.0521,552.9125],[26.3599,43.0484,558.4175],[26.3599,43.041,612.5667],[26.3546,43.0257,758.1692],[26.3539,43.0182,786.3893],[26.3595,43.0128,754.2913],[26.3685,43.0145,774.1273],[26.3853,43.0327,605.8572],[26.395,43.0337,594.853],[26.3999,43.0312,597.7495],[26.4122,43.0188,576.5306],[26.4253,43.0125,533.1366],[26.439,43.0098,501.5028],[26.4517,43.0097,484.1608],[26.4791,43.0145,421.1039],[26.4986,43.0208,296.3092],[26.5178,43.0209,332.5881],[26.5343,43.0161,252.4879],[26.5501,43.0137,349.5446],[26.5619,43.0059,344.0689],[26.5704,42.9977,357.6199],[26.581,43.0046,370.1961],[26.5897,43.0129,324.6355],[26.6135,43.0175,267.5583],[26.6222,43.0234,236.3417],[26.6242,43.0264,202.6745],[26.6234,43.0281,197.3342],[26.6156,43.0314,204.8701],[26.6123,43.0352,224.5396],[26.6195,43.0477,267.6219],[26.6139,43.0543,303.0113],[26.6172,43.0588,270.7752],[26.6222,43.0606,251.5781],[26.651,43.0661,292.7109],[26.653,43.0772,250.62],[26.6515,43.0923,239.9623],[26.6552,43.0954,227.6482],[26.6579,43.0954,231.3164]]]]}}