{"type":"Feature","properties":{"GID_2":"BGR.26.9_1","GID_0":"BGR","country":"Bulgaria","GID_1":"BGR.26_1","state":"Vidin","NL_NAME_1":"Видин","county":"NovoSelo","VARNAME_2":"NA","NL_NAME_2":"Новосело","TYPE_2":"Obshtina","ENGTYPE_2":"Municipality","CC_2":"NA","HASC_2":"BG.VD.NS","name":"NovoSelo.county"},
"geometry":{"type": "MultiPolygon","coordinates": [[[[22.79,44.0806,190.3206],[22.8249,44.0876,122.1155],[22.8466,44.0879,116.3181],[22.8543,44.0831,133.4484],[22.8538,44.0703,63.0505],[22.8556,44.0631,55.0706],[22.862,44.0598,51.0913],[22.8713,44.0599,50.2501],[22.8827,44.0629,50.203],[22.8931,44.0683,52.136],[22.9012,44.075,55.894],[22.9072,44.0938,60.9356],[22.9162,44.108,26.5],[22.9005,44.115,27.0],[22.8725,44.1335,27.0],[22.8422,44.1468,27.5],[22.8147,44.1542,27.5],[22.7837,44.1722,28.0],[22.7641,44.1881,28.0],[22.7422,44.173,44.8484],[22.7373,44.1653,58.0388],[22.7354,44.1565,47.8145],[22.7374,44.1509,46.6452],[22.7459,44.1386,65.5165],[22.7425,44.1263,112.8366],[22.7417,44.1161,105.9627],[22.7457,44.1086,103.7224],[22.7522,44.1081,106.9122],[22.7807,44.1224,117.1792],[22.7882,44.1245,117.7267],[22.7938,44.1241,120.4344],[22.7961,44.1205,124.4993],[22.7927,44.1147,130.6529],[22.7927,44.112,142.118],[22.7955,44.1037,216.4057],[22.789,44.0868,188.8476],[22.7885,44.0835,181.8687],[22.79,44.0806,190.3206]]]]}}