{"type": "Feature","bbox": [22.6206,42.4062,22.8445,42.668],"geometry": {"type": "MultiPolygon","coordinates": [[[[22.79,42.4062,1136.8672],[22.8028,42.4155,1091.1718],[22.8111,42.4255,814.1536],[22.81,42.4343,946.2394],[22.8037,42.4479,893.152],[22.8089,42.4615,909.7122],[22.8098,42.471,795.3802],[22.8056,42.4857,843.9662],[22.8009,42.4952,594.6901],[22.7743,42.5222,1047.5286],[22.7701,42.5526,1000.8864],[22.7612,42.5677,1128.7808],[22.76,42.5729,1134.6018],[22.7614,42.5763,1073.9675],[22.764,42.578,1024.0173],[22.7832,42.5844,1069.6205],[22.7965,42.5961,706.5157],[22.8051,42.5961,699.83],[22.8173,42.5901,739.7411],[22.8278,42.5898,802.7466],[22.8399,42.6014,879.7863],[22.8445,42.6105,884.771],[22.8289,42.6165,892.6262],[22.8191,42.6224,930.4436],[22.8019,42.6394,848.9594],[22.7926,42.6447,814.6174],[22.7817,42.6448,782.0462],[22.7763,42.6425,787.059],[22.7672,42.6281,739.1425],[22.7614,42.6243,730.5648],[22.7553,42.6228,754.0391],[22.7494,42.6264,797.8738],[22.746,42.6407,761.113],[22.7426,42.643,741.2484],[22.7374,42.6435,805.9763],[22.7344,42.6466,804.0239],[22.7153,42.6446,1002.9218],[22.6986,42.6449,1125.5551],[22.6816,42.6489,1177.1173],[22.6398,42.668,1299.0538],[22.634,42.6566,1012.2509],[22.6235,42.6457,1010.6441],[22.6206,42.6369,1016.6001],[22.6249,42.6254,910.7639],[22.6432,42.609,969.6625],[22.6467,42.5972,908.735],[22.6538,42.5897,869.6213],[22.6546,42.5861,908.7105],[22.6535,42.5812,888.209],[22.6419,42.5636,781.4385],[22.6382,42.5592,886.7974],[22.635,42.5579,910.6791],[22.6392,42.5572,857.859],[22.6443,42.5537,1045.3495],[22.653199999999998,42.5348,936.9936],[22.662,42.5241,786.7776],[22.6703,42.5195,985.5633],[22.6981,42.5104,1177.1716],[22.7033,42.5057,1146.4585],[22.7059,42.5022,1172.5857],[22.7077,42.4953,1023.3542],[22.708,42.4867,1090.2434],[22.7047,42.4707,1002.2063],[22.7227,42.4495,1041.7811],[22.7388,42.4251,1302.9884],[22.7454,42.4195,1364.7673],[22.7558,42.4149,1240.5852],[22.7631,42.4125,1386.3717],[22.7792,42.4109,1058.1968],[22.7832,42.4078,1153.2245],[22.79,42.4062,1136.8672]]]]}
,"properties": {"GID_2": "BGR.12.6_1","GID_0": "BGR","country": "Bulgaria","GID_1": "BGR.12_1","state": "Pernik","NL_NAME_1": "Перник","county": "Zemen","VARNAME_2": "NA","NL_NAME_2": "Земен","TYPE_2": "Obshtina","ENGTYPE_2": "Municipality","CC_2": "NA","HASC_2": "BG.PN.ZE","name": "Zemen.county","area_km2": 258.2642,"hist_schema_id": "Elevation0-9000","hist_area_km2": {"575": 1.1103,"600": 5.2376,"625": 5.0962,"650": 6.9244,"675": 8.6268,"700": 10.7814,"725": 13.2168,"750": 14.9327,"775": 17.6008,"800": 19.3319,"825": 18.3155,"850": 17.9882,"875": 17.3791,"900": 16.8029,"925": 14.1476,"950": 12.1027,"975": 10.5401,"1000": 8.8386,"1025": 8.0749,"1050": 6.3101,"1075": 5.5766,"1100": 5.8108,"1125": 4.1712,"1150": 2.8906,"1175": 1.6565,"1200": 1.1875,"1225": 1.125,"1250": 0.6565,"1275": 0.6725,"1300": 0.3756,"1325": 0.3756,"1350": 0.2035,"1375": 0.2035}}}