{"type": "Feature","bbox": [24.1538,42.0316,24.5307,42.3748],"geometry": {"type": "MultiPolygon","coordinates": [[[[24.4472,42.1116,236.4201],[24.4431,42.1162,252.4305],[24.4441,42.122,327.7581],[24.4473,42.1269,286.1316],[24.4633,42.1391,183.0009],[24.4849,42.1503,184.5722],[24.4993,42.1541,186.2531],[24.5128,42.1555,183.2024],[24.52,42.1584,185.4566],[24.5307,42.1685,186.579],[24.5187,42.1829,190.9689],[24.4982,42.1868,194.9337],[24.4827,42.1867,195.5901],[24.4755,42.1911,198.1836],[24.4762,42.2009,200.7582],[24.4843,42.2239,204.726],[24.4827,42.2243,205.1866],[24.4779,42.2349,209.0015],[24.4643,42.2566,217.7777],[24.4619,42.265,219.4571],[24.4569,42.271,224.2864],[24.4504,42.2755,228.3869],[24.4453,42.2828,234.8509],[24.4466,42.2852,237.1047],[24.4628,42.2924,237.1515],[24.4665,42.299,239.6803],[24.4746,42.3083,240.0119],[24.4729,42.3136,240.3234],[24.4668,42.3196,253.3799],[24.465699999999998,42.3292,250.7492],[24.4576,42.3351,260.9689],[24.4346,42.3424,272.3795],[24.4277,42.3471,286.7834],[24.4281,42.3537,307.3657],[24.3944,42.3571,317.8168],[24.3647,42.3714,364.0234],[24.3503,42.3748,374.7246],[24.3317,42.3745,329.1068],[24.3117,42.3707,345.7396],[24.301,42.3657,361.2547],[24.2873,42.3556,388.0865],[24.2795,42.3519,402.804],[24.2722,42.3513,420.9388],[24.2601,42.3531,419.1666],[24.2528,42.3498,389.7179],[24.2478,42.3534,400.0905],[24.2432,42.3529,404.663],[24.2388,42.3385,365.0123],[24.2358,42.3354,366.8263],[24.2406,42.3287,347.114],[24.2487,42.3215,353.1414],[24.27,42.3062,300.7744],[24.2733,42.299,264.2701],[24.2728,42.2904,243.6365],[24.265,42.2834,237.1516],[24.2418,42.2776,232.5433],[24.2228,42.2669,306.6496],[24.2152,42.2662,350.4936],[24.2059,42.2694,328.0236],[24.2051,42.2591,405.8134],[24.2154,42.2368,280.3647],[24.2234,42.214,219.7292],[24.224,42.208,218.9126],[24.2223,42.2006,219.0824],[24.2068,42.1881,226.3676],[24.1932,42.1731,235.6119],[24.1773,42.1467,309.0823],[24.1594,42.1257,856.2432],[24.1552,42.1158,1039.8708],[24.1538,42.1078,1375.693],[24.1541,42.0977,1440.8198],[24.1599,42.0859,1355.2727],[24.1715,42.076,1426.2545],[24.1819,42.0565,1234.2791],[24.2036,42.0405,1047.636],[24.2123,42.0316,1255.6116],[24.225,42.0435,1257.3729],[24.2455,42.0498,1030.929],[24.2586,42.0559,864.863],[24.2684,42.0669,618.7238],[24.2737,42.0776,571.4901],[24.2785,42.1006,509.3109],[24.2831,42.1097,466.2686],[24.3103,42.1281,241.5376],[24.319,42.1362,218.4164],[24.3305,42.1419,368.9461],[24.3354,42.1415,284.2895],[24.3401,42.1388,283.8079],[24.3503,42.1203,274.8678],[24.3561,42.1131,324.8005],[24.3658,42.1046,439.7282],[24.3822,42.0952,342.249],[24.3963,42.1007,377.4496],[24.433,42.1065,245.7994],[24.4472,42.1116,236.4201]]]]}
,"properties": {"GID_2": "BGR.11.6_1","GID_0": "BGR","country": "Bulgaria","GID_1": "BGR.11_1","state": "Pazardzhik","NL_NAME_1": "Пазарджик","county": "Pazardzhik","VARNAME_2": "Pazardjik|Pazarjik","NL_NAME_2": "Пазарджик|","TYPE_2": "City","ENGTYPE_2": "City","CC_2": "NA","HASC_2": "BG.PZ.PZ","name": "Pazardzhik.county","area_km2": 638.9998,"hist_schema_id": "Elevation0-9000","hist_area_km2": {"175": 6.9477,"200": 164.5868,"225": 168.2355,"250": 68.731,"275": 45.1762,"300": 36.3314,"325": 31.0711,"350": 26.269,"375": 14.0587,"400": 8.9179,"425": 5.674,"450": 4.4337,"475": 3.9628,"500": 2.9099,"525": 2.1709,"550": 1.8564,"575": 2.1239,"600": 1.6677,"625": 1.3215,"650": 1.18,"675": 1.2114,"700": 1.0857,"725": 1.0542,"750": 1.4948,"775": 1.2273,"800": 0.9599,"825": 1.2587,"850": 0.8497,"875": 1.1172,"900": 1.1172,"925": 0.9127,"950": 1.2116,"975": 1.2116,"1000": 1.0229,"1025": 1.432,"1050": 1.2905,"1075": 1.4006,"1100": 1.3534,"1125": 1.322,"1150": 1.2906,"1175": 1.4794,"1200": 1.6054,"1225": 1.4008,"1250": 1.5583,"1275": 1.9517,"1300": 1.6212,"1325": 1.936,"1350": 2.0619,"1375": 1.9203,"1400": 1.1962,"1425": 0.661,"1450": 0.1416,"1475": 0.0157}}}