{"type":"Feature","properties":{"GID_2":"BGR.22.11_1","GID_0":"BGR","country":"Bulgaria","GID_1":"BGR.22_1","state":"StaraZagora","NL_NAME_1":"СтараЗагора","county":"StaraZagora","VARNAME_2":"NA","NL_NAME_2":"СтараЗагора","TYPE_2":"City","ENGTYPE_2":"City","CC_2":"NA","HASC_2":"BG.SZ.SZ","name":"StaraZagora.county"},
"geometry":{"type": "MultiPolygon","coordinates": [[[[25.6294,42.1937,162.3027],[25.6328,42.2044,169.2822],[25.6483,42.221,184.4767],[25.6504,42.2372,177.4908],[25.6539,42.2448,173.0035],[25.6538,42.2571,178.685],[25.6555,42.2611,176.59],[25.6882,42.2863,163.8708],[25.6983,42.2877,161.0531],[25.7199,42.2849,160.1667],[25.7534,42.2712,153.9794],[25.7719,42.2681,146.6964],[25.7757,42.2708,144.5997],[25.7879,42.274,147.7146],[25.7925,42.2788,148.4818],[25.7943,42.2871,142.1105],[25.7928,42.2932,137.8297],[25.79,42.2967,142.1901],[25.7803,42.3031,141.2861],[25.7694,42.3055,143.7213],[25.7371,42.3025,149.0479],[25.7257,42.3082,151.2205],[25.7226,42.3156,151.1989],[25.7225,42.3217,150.4595],[25.7247,42.3278,145.3851],[25.7319,42.3367,142.0851],[25.7424,42.3442,140.4007],[25.7579,42.3475,137.1348],[25.7672,42.3548,136.0131],[25.7795,42.3561,136.8102],[25.8018,42.3616,135.4572],[25.8171,42.3775,133.9943],[25.8273,42.3834,141.2769],[25.8392,42.384,130.7273],[25.8501,42.3822,127.6418],[25.8557,42.3791,124.5133],[25.8761,42.3601,119.1454],[25.888,42.356,119.5664],[25.8922,42.3566,121.8914],[25.8992,42.3611,123.7699],[25.9072,42.3738,123.6537],[25.9129,42.3773,126.9385],[25.9326,42.3783,128.598],[25.924,42.3897,127.5292],[25.921,42.4051,127.8979],[25.9177,42.4096,130.0707],[25.9095,42.4164,133.1671],[25.8957,42.4208,136.0761],[25.8905,42.4251,137.4296],[25.8883,42.4293,139.2416],[25.8888,42.4351,141.5262],[25.8927,42.4408,143.2628],[25.9083,42.4521,147.2237],[25.9126,42.457,149.1436],[25.9151,42.4691,158.4443],[25.9133,42.4748,161.5503],[25.9048,42.4807,173.4074],[25.8967,42.4895,182.8223],[25.8839,42.5129,263.8699],[25.8806,42.5146,327.9852],[25.8754,42.5211,314.7668],[25.8674,42.5354,386.1792],[25.8665,42.5448,507.4188],[25.8719,42.5503,491.8694],[25.861,42.5536,610.2803],[25.8414,42.5499,550.3872],[25.8096,42.5527,669.2351],[25.7957,42.5496,529.1257],[25.7728,42.5392,719.2592],[25.7691,42.5392,716.8418],[25.7591,42.543,872.3839],[25.7558,42.5467,833.6038],[25.7449,42.544,676.3722],[25.7408,42.5407,741.1553],[25.7326,42.5406,718.6833],[25.7201,42.5474,692.7992],[25.7138,42.5479,666.3761],[25.7115,42.5455,666.6954],[25.7103,42.5354,646.0415],[25.6968,42.5272,577.7943],[25.6881,42.519,509.4687],[25.6784,42.5148,595.5045],[25.6599,42.5114,572.7978],[25.6256,42.5142,661.2614],[25.5878,42.5105,478.5017],[25.574,42.5002,524.7834],[25.5625,42.4985,553.8356],[25.5464,42.4793,539.2049],[25.5352,42.4696,560.2568],[25.5248,42.4651,506.4442],[25.5148,42.4649,460.0724],[25.5067,42.4694,421.3367],[25.5038,42.4739,455.1801],[25.504,42.482,473.3536],[25.5014,42.4871,531.6986],[25.4959,42.4913,539.5946],[25.4863,42.4949,545.3611],[25.4696,42.4961,477.1745],[25.454,42.503,532.2462],[25.4402,42.5039,619.3834],[25.4334,42.5018,570.3522],[25.427,42.4974,543.1573],[25.4191,42.4831,502.9962],[25.4028,42.4705,601.0836],[25.3975,42.455,531.3428],[25.3989,42.4187,460.7881],[25.3964,42.4092,401.9069],[25.3932,42.4056,377.9484],[25.3928,42.3876,311.2339],[25.3891,42.3747,443.7],[25.401,42.3711,359.7646],[25.4239,42.3723,294.2147],[25.4371,42.3709,311.4407],[25.4665,42.3585,292.8267],[25.477,42.3567,280.5927],[25.4973,42.3574,238.0232],[25.5104,42.3517,226.2684],[25.5148,42.3474,222.2321],[25.5161,42.3383,211.4844],[25.5138,42.3325,206.3646],[25.5124,42.3182,220.9555],[25.5141,42.3085,225.1803],[25.5378,42.298,271.4974],[25.5443,42.2901,212.004],[25.5459,42.2822,217.4729],[25.5428,42.2698,208.2397],[25.5345,42.2579,170.395],[25.5274,42.2527,166.4054],[25.5083,42.2486,201.4133],[25.4934,42.2366,194.2828],[25.4821,42.2325,169.0766],[25.4799,42.2289,194.8593],[25.4809,42.2236,181.6029],[25.4991,42.2192,168.0578],[25.5062,42.2135,186.6236],[25.5112,42.2053,192.5624],[25.514,42.1908,174.4151],[25.5172,42.1864,180.4139],[25.52,42.1856,179.8025],[25.5271,42.1855,179.0139],[25.5411,42.1893,164.1195],[25.5663,42.1861,141.712],[25.5866,42.1912,158.5373],[25.5956,42.1894,146.8349],[25.6045,42.185,159.7475],[25.613,42.1909,165.2904],[25.6245,42.1941,167.7846],[25.6294,42.1937,162.3027]]]]}}