{"type":"Feature","properties":{"GID_2":"BGR.2.10_1","GID_0":"BGR","country":"Bulgaria","GID_1":"BGR.2_1","state":"Burgas","NL_NAME_1":"Бургас","county":"Sozopol","VARNAME_2":"NA","NL_NAME_2":"Созопол","TYPE_2":"Obshtina","ENGTYPE_2":"Municipality","CC_2":"NA","HASC_2":"BG.BR.SO","name":"Sozopol.county"},
"geometry":{"type": "MultiPolygon","coordinates": [[[[27.3427,42.3875,3.5],[27.3392,42.3858,3.5],[27.332,42.3732,50.6479],[27.329,42.3531,94.7021],[27.3258,42.342,128.0829],[27.3232,42.3383,115.116],[27.3144,42.3305,111.8279],[27.2926,42.3197,190.752],[27.2924,42.3176,176.9387],[27.2951,42.3089,37.1294],[27.2921,42.2894,183.5324],[27.2951,42.2818,239.808],[27.3165,42.2689,183.9488],[27.325,42.2486,328.5262],[27.3331,42.239,334.1399],[27.3339,42.2352,311.641],[27.3312,42.2306,283.766],[27.3129,42.2216,307.474],[27.3064,42.2113,325.0284],[27.304,42.2005,375.2659],[27.3165,42.2006,366.075],[27.3301,42.1926,359.8607],[27.3421,42.1948,354.8804],[27.3593,42.2021,337.376],[27.3716,42.2029,369.283],[27.3939,42.1874,332.2253],[27.4185,42.1915,332.2144],[27.445,42.1866,350.8579],[27.4722,42.1874,358.3831],[27.4714,42.1983,272.8969],[27.4633,42.2121,232.2034],[27.4629,42.2163,251.0735],[27.4651,42.223,205.4787],[27.4826,42.2451,147.2843],[27.4906,42.2606,165.9122],[27.4903,42.2637,178.4929],[27.4944,42.2756,173.2986],[27.5021,42.283,163.6985],[27.5106,42.2949,156.3887],[27.5244,42.3372,113.9521],[27.5322,42.3422,93.9087],[27.5747,42.339,87.2218],[27.5829,42.3363,89.5383],[27.5853,42.332,98.751],[27.5855,42.3233,80.192],[27.5897,42.3149,74.6083],[27.5985,42.312,65.107],[27.6289,42.3087,22.1697],[27.6377,42.3031,35.7947],[27.646,42.2938,15.203],[27.6554,42.2891,13.2865],[27.6606,42.2902,17.3022],[27.671,42.2985,49.5331],[27.6786,42.3017,59.9106],[27.6943,42.3036,23.3865],[27.6989,42.3095,86.1763],[27.7082,42.3158,144.3568],[27.7189,42.3167,87.3893],[27.7253,42.3229,19.9485],[27.7246,42.3284,2.3566],[27.7356,42.325,27.766],[27.7407,42.325,7.1169],[27.7427,42.329,0.0],[27.7388,42.3282,3.4464],[27.7299,42.3357,1.5464],[27.7313,42.3401,0.0],[27.729,42.3404,21.5825],[27.729,42.3435,5.4635],[27.7304,42.3451,0.0],[27.7254,42.3446,14.4464],[27.724,42.3471,1.4594],[27.7224,42.3468,7.4038],[27.7224,42.3488,0.6185],[27.7082,42.3662,1.0499],[27.7082,42.369,2.9038],[27.7107,42.3721,7.1122],[27.7126,42.3721,7.1122],[27.7129,42.3707,0.4568],[27.716,42.3718,0.0],[27.7171,42.376,4.981],[27.7221,42.3768,0.0],[27.724,42.379,1.1446],[27.7174,42.3824,0.0],[27.7088,42.3832,11.7211],[27.7071,42.3851,5.236],[27.706,42.3946,3.9744],[27.7101,42.4004,3.079],[27.7249,42.3999,2.7301],[27.7265,42.4035,9.6211],[27.7299,42.4043,0.0],[27.7282,42.4063,0.9321],[27.7296,42.4101,0.0],[27.7196,42.409,0.0],[27.7179,42.4101,4.4732],[27.7165,42.4085,20.7936],[27.7146,42.4087,0.0],[27.7135,42.4063,18.0225],[27.7121,42.4079,1.9863],[27.7051,42.409,1.2418],[27.6999,42.4146,6.9425],[27.7032,42.4196,0.0],[27.6999,42.4204,9.5064],[27.6965,42.419,0.0],[27.6946,42.4212,0.0],[27.6971,42.424,11.0665],[27.7013,42.4251,0.0],[27.6988,42.4271,0.0],[27.6876,42.4257,0.0],[27.6882,42.4224,0.6921],[27.6904,42.4226,0.0],[27.6924,42.426,0.471],[27.6938,42.4251,5.1663],[27.691,42.4232,0.0],[27.6918,42.4204,0.9683],[27.6876,42.4201,0.0],[27.6893,42.4182,0.0],[27.686,42.416,6.5728],[27.6857,42.414,0.0],[27.6776,42.4132,1.2543],[27.6746,42.409,1.0485],[27.6599,42.4107,1.0194],[27.6476,42.4182,4.3373],[27.6437,42.4246,3.1568],[27.6451,42.4279,1.6158],[27.6443,42.4301,7.7014],[27.6521,42.4315,3.3796],[27.6543,42.4293,2.5373],[27.6563,42.4307,4.1562],[27.6526,42.4326,2.8552],[27.6537,42.436,0.0],[27.6468,42.4388,17.2355],[27.6479,42.4413,12.5895],[27.6499,42.441,0.0],[27.6524,42.4435,0.0],[27.6501,42.4443,0.0],[27.6499,42.4463,0.4778],[27.6518,42.451,0.0],[27.6415,42.4501,8.3463],[27.6393,42.4476,8.7541],[27.6346,42.449,0.0],[27.6346,42.4532,0.0],[27.6313,42.454,0.0],[27.6285,42.4571,6.8742],[27.6304,42.4596,0.0],[27.6262,42.4579,0.0],[27.6279,42.4515,0.9242],[27.6254,42.4499,0.804],[27.6254,42.4463,4.8724],[27.6232,42.4449,7.0834],[27.6132,42.444,0.0],[27.6038,42.446,0.0],[27.5943,42.4535,4.5074],[27.594,42.4557,0.0],[27.5868,42.459,21.6855],[27.5876,42.4624,0.0],[27.5865,42.4635,9.2627],[27.5832,42.4624,3.3116],[27.5815,42.4562,11.3489],[27.5743,42.4529,0.0],[27.5751,42.4518,0.0],[27.5799,42.4524,0.6167],[27.5824,42.4482,0.4197],[27.5807,42.4457,1.1331],[27.5713,42.4446,6.1073],[27.5632,42.4457,2.8726],[27.5507,42.4508,18.4016],[27.5462,42.4392,65.5644],[27.544,42.4282,13.879],[27.5554,42.4106,40.3455],[27.5546,42.4043,75.2339],[27.5426,42.3909,125.5154],[27.5242,42.3748,101.691],[27.5179,42.3673,106.0461],[27.5111,42.3625,108.5438],[27.5036,42.363,102.1738],[27.4902,42.3811,64.9337],[27.4859,42.383,65.5909],[27.4769,42.3796,82.724],[27.472,42.373,75.9733],[27.4677,42.3735,46.4854],[27.4579,42.3924,30.0165],[27.4547,42.3948,31.6968],[27.4383,42.3943,91.6656],[27.4171,42.3889,13.1937],[27.4063,42.3879,4.5871],[27.3603,42.3854,16.0339],[27.3427,42.3875,3.5]]],
[[[27.6943,42.4407,0.0],[27.689,42.4407,0.0],[27.6857,42.4368,0.0],[27.6943,42.4365,0.0],[27.6971,42.4388,0.0],[27.6943,42.4407,0.0]]]]}}