{"type":"Feature","properties":{"GID_2":"BGR.1.14_1","GID_0":"BGR","country":"Bulgaria","GID_1":"BGR.1_1","state":"Blagoevgrad","NL_NAME_1":"Благоевград","county":"Yakoruda","VARNAME_2":"NA","NL_NAME_2":"Якоруда","TYPE_2":"Obshtina","ENGTYPE_2":"Municipality","CC_2":"NA","HASC_2":"BG.BL.YA","name":"Yakoruda.county"},
"geometry":{"type": "MultiPolygon","coordinates": [[[[23.7541,41.9586,1481.3531],[23.7579,41.9701,1600.8367],[23.7604,41.9734,1671.6343],[23.7872,41.9986,1353.892],[23.8147,42.0176,1227.9205],[23.8179,42.022,1132.7671],[23.8171,42.0248,1180.7887],[23.8141,42.0269,1284.9453],[23.7982,42.0313,1313.5062],[23.7922,42.0342,1216.8181],[23.79,42.0371,1297.382],[23.7892,42.0433,1318.4142],[23.7926,42.076,1670.056],[23.7783,42.1042,1713.387],[23.7846,42.1164,1813.7543],[23.7843,42.1232,1858.8433],[23.7776,42.1324,1783.4641],[23.7618,42.1424,1984.4498],[23.7557,42.1505,2018.255],[23.755,42.1612,2108.3662],[23.7649,42.1759,2462.5728],[23.7325,42.1734,2581.7781],[23.7253,42.1712,2343.6729],[23.7231,42.1689,2337.7959],[23.7211,42.1592,2344.8193],[23.7324,42.1474,2327.9521],[23.7353,42.142,2145.4207],[23.7324,42.1375,2011.3872],[23.7292,42.1368,1911.4406],[23.7227,42.1372,2073.7271],[23.7075,42.1425,2204.0288],[23.6825,42.1591,2291.1555],[23.67,42.1635,2301.6143],[23.6629,42.1635,2358.554],[23.6447,42.1524,2477.2344],[23.6379,42.152,2370.9209],[23.6235,42.1558,2435.7571],[23.61,42.1569,2527.5293],[23.6021,42.1529,2536.4849],[23.5906,42.1397,2616.8723],[23.5798,42.1068,2397.3574],[23.5669,42.0912,2376.5129],[23.5885,42.0787,2113.8547],[23.5956,42.0713,1807.5348],[23.5986,42.0645,1719.0167],[23.5991,42.055,1569.5513],[23.593,42.0206,1216.8235],[23.5949,42.0164,1322.1572],[23.6075,42.0021,1065.026],[23.6102,41.9892,997.6629],[23.61,41.9757,852.9919],[23.5992,41.9527,850.8837],[23.5996,41.9502,863.7194],[23.6061,41.9456,966.242],[23.6157,41.9455,1172.3566],[23.6236,41.9486,1249.356],[23.6273,41.9518,1102.6868],[23.6315,41.9605,1125.099],[23.6398,41.9678,1301.2206],[23.6497,41.9675,1329.8368],[23.6579,41.9641,1262.592],[23.6625,41.9646,1331.0227],[23.6695,41.9723,1444.5565],[23.6904,41.9734,1506.1713],[23.7045,41.9823,1560.9268],[23.7121,41.981,1587.6318],[23.7146,41.9766,1664.8506],[23.7151,41.9643,1460.8761],[23.7247,41.9585,1438.1334],[23.7344,41.9563,1397.557],[23.7541,41.9586,1481.3531]]]]}}