{"type": "Feature","id": "2231","bbox": [25.81086,42.15272,26.66373,43.04151],"geometry": {"type": "Polygon","coordinates": [[[26.36338,43.01001,850.0129],[26.35636,43.02112,866.6916],[26.3609,43.03303,673.7781],[26.33579,43.04151,620.6694],[26.3085,43.03236,619.121],[26.29176,43.03174,747.8314],[26.27471,43.03466,656.3621],[26.27564,43.02027,626.3141],[26.27471,43.00484,745.3141],[26.26799,42.99133,766.983],[26.25135,42.98577,599.8263],[26.23688,42.97293,542.575],[26.22427,42.95872,586.1943],[26.19874,42.95224,485.579],[26.17197,42.94906,440.357],[26.14955,42.90984,432.4664],[26.10614,42.89126,487.873],[26.08226,42.88606,576.1074],[26.06686,42.86829,703.2359],[26.06914,42.83938,803.3158],[26.05684,42.81723,957.0894],[26.03348,42.81734,990.3625],[26.01033,42.81346,902.5638],[25.98966,42.79635,1043.231],[25.96734,42.78421,1447.3765],[25.9016,42.79121,1014.6431],[25.85644,42.7839,1078.057],[25.81086,42.78282,1139.2329],[25.82192,42.71491,896.5789],[25.85055,42.64417,260.5],[25.87866,42.60404,288.6122],[25.883,42.56828,356.0594],[25.83101,42.53864,480.3665],[25.84207,42.52392,369.7214],[25.86471,42.51769,364.804],[25.88186,42.49379,195.1988],[25.88434,42.46971,164.5106],[25.87266,42.44981,149.0777],[25.90057,42.41178,132.6935],[25.89933,42.38674,127.0033],[25.91266,42.36413,122.2746],[25.95886,42.31623,126.605],[25.97922,42.27086,141.6642],[25.97436,42.19755,112.5532],[26.02459,42.15272,139.4703],[26.05539,42.16032,164.4255],[26.08443,42.16104,213.9958],[26.10645,42.1536,241.5592],[26.13012,42.15704,301.7216],[26.16639,42.18035,277.1243],[26.18086,42.21717,241.2921],[26.17373,42.26574,147.748],[26.22499,42.3576,185.7087],[26.2066,42.36747,181.6701],[26.17538,42.36858,193.6305],[26.16856,42.40537,257.4119],[26.20494,42.40749,230.0636],[26.23419,42.42248,177.0237],[26.22406,42.45343,180.5478],[26.24525,42.46302,156.3746],[26.29589,42.4493,143.37],[26.3424,42.46077,154.3951],[26.36318,42.50033,168.6077],[26.38002,42.51219,186.9762],[26.39904,42.51939,168.4194],[26.38839,42.53275,140.7284],[26.37816,42.54895,141.7092],[26.40452,42.56275,139.5447],[26.43325,42.568,144.3947],[26.49092,42.56402,131.7867],[26.5488,42.57756,157.5097],[26.56399,42.59221,184.4157],[26.5796,42.60303,165.3206],[26.59386,42.61014,155.02],[26.60347,42.61978,146.6989],[26.63024,42.61618,155.533],[26.64337,42.62184,154.816],[26.6536,42.63321,153.154],[26.66373,42.66287,222.4517],[26.66083,42.69584,298.9918],[26.62766,42.68321,313.882],[26.59314,42.67559,441.5718],[26.56885,42.68497,540.9052],[26.54446,42.69662,592.9158],[26.51283,42.70419,553.5969],[26.49898,42.73011,700.6388],[26.52399,42.7469,785.7237],[26.55531,42.75548,836.1401],[26.57825,42.77059,478.7062],[26.57319,42.79553,388.7164],[26.57743,42.81403,516.7327],[26.59231,42.82863,450.1652],[26.58073,42.85434,588.7969],[26.56637,42.88113,654.0668],[26.57577,42.904,811.0401],[26.57236,42.92376,1000.5522],[26.55252,42.95769,552.8364],[26.57433,42.98658,404.29],[26.54291,42.99846,338.228],[26.51345,43.0134,389.6463],[26.49144,43.01986,308.5217],[26.46901,43.00936,481.5983],[26.44421,43.00518,557.1962],[26.41868,43.00632,590.7415],[26.38126,43.02502,671.9978],[26.37362,43.01515,738.02],[26.36338,43.01001,850.0129]]]}
,"properties": {"ISO3166-1-Alpha-3": "BGR","country": "Bulgaria","fill": "#00F","name": "Sliven","area_km2": 3566.699,"hist_schema_id": "Elevation0-9000","hist_area_km2": {"25": 0.236,"50": 4.868,"75": 12.484,"100": 21.449,"125": 257.605,"150": 585.197,"175": 300.883,"200": 157.654,"225": 105.555,"250": 112.741,"275": 92.66,"300": 82.645,"325": 74.85,"350": 61.783,"375": 56.101,"400": 63.077,"425": 70.024,"450": 73.341,"475": 78.998,"500": 84.606,"525": 84.409,"550": 79.756,"575": 75.555,"600": 74.274,"625": 72.859,"650": 69.391,"675": 68.309,"700": 63.912,"725": 61.008,"750": 61.291,"775": 59.566,"800": 58.201,"825": 53.859,"850": 51.573,"875": 47.344,"900": 43.999,"925": 37.174,"950": 32.202,"975": 27.538,"1000": 25.16,"1025": 21.555,"1050": 18.848,"1075": 16.141,"1100": 14.242,"1125": 10.632,"1150": 9.2,"1175": 6.896,"1200": 5.994,"1225": 5.885,"1250": 4.001,"1275": 2.569,"1300": 1.588,"1325": 1.245,"1350": 1.012,"1375": 0.716,"1400": 0.467,"1425": 0.436,"1450": 0.358,"1475": 0.498,"1500": 0.249,"1525": 0.031}}}