{"type":"Feature","properties":{"GID_1":"BGR.19_1","GID_0":"BGR","country":"Bulgaria","state":"Sliven","VARNAME_1":"Slivno","NL_NAME_1":"Сливен","TYPE_1":"Oblast","ENGTYPE_1":"Province","CC_1":"NA","HASC_1":"BG.SL","ISO_1":"BG-20","name":"Sliven.state"},
"geometry":{"type": "MultiPolygon","coordinates": [[[[26.2249,42.4516,180.6265],[26.2245,42.4545,175.2641],[26.2295,42.4612,170.0694],[26.2379,42.4655,160.6344],[26.2434,42.4658,155.6296],[26.2587,42.4637,147.6522],[26.2746,42.4587,152.4334],[26.28,42.4597,149.5119],[26.3014,42.4522,143.3188],[26.3098,42.4538,141.6443],[26.3147,42.4571,142.6125],[26.3186,42.4652,145.7623],[26.3339,42.4701,153.2178],[26.341,42.4744,163.1362],[26.3498,42.4889,159.1984],[26.3558,42.4934,156.2288],[26.3858,42.5056,213.812],[26.3877,42.5129,206.8329],[26.3863,42.5216,175.9618],[26.3791,42.5328,141.7873],[26.3696,42.538,141.9744],[26.3687,42.5411,142.0585],[26.3708,42.5447,141.8496],[26.3978,42.5659,140.8875],[26.4061,42.5683,144.5508],[26.4149,42.5678,139.9742],[26.4297,42.5614,136.9025],[26.4382,42.5594,136.2196],[26.4572,42.5596,134.3847],[26.474,42.5636,133.0601],[26.4827,42.5702,132.5864],[26.5135,42.586,133.5392],[26.5283,42.5865,144.0173],[26.543,42.5839,153.5995],[26.5604,42.5847,169.1888],[26.5794,42.5936,177.4692],[26.5984,42.6062,158.2849],[26.6102,42.6114,157.3827],[26.6189,42.6203,150.7538],[26.6276,42.637,151.7498],[26.6306,42.6389,152.1665],[26.635,42.6401,151.2476],[26.638,42.6389,150.8597],[26.6431,42.6334,150.0273],[26.6475,42.6317,150.8922],[26.6519,42.6313,152.2886],[26.6556,42.6331,153.729],[26.6578,42.6353,153.5059],[26.6602,42.644,158.6361],[26.6721,42.6558,184.4251],[26.674,42.6595,265.5861],[26.6705,42.6762,206.7809],[26.6716,42.685,280.3429],[26.6698,42.694,325.2252],[26.6636,42.7092,271.1222],[26.6651,42.718,233.0983],[26.6743,42.7202,234.9358],[26.6886,42.7174,258.5027],[26.6988,42.713,262.333],[26.7051,42.7189,286.0299],[26.7091,42.7277,249.1943],[26.7094,42.7354,221.9887],[26.7051,42.7415,209.7119],[26.6743,42.7619,357.643],[26.6692,42.7674,475.774],[26.6619,42.78,455.8917],[26.6516,42.7827,424.1365],[26.6425,42.7926,393.5005],[26.6341,42.7944,331.5341],[26.6054,42.7944,425.4989],[26.598,42.7962,436.9592],[26.5914,42.8006,406.3054],[26.5841,42.8107,495.6288],[26.5811,42.8213,484.996],[26.5819,42.8275,430.3273],[26.5867,42.8357,403.113],[26.5966,42.8464,436.2989],[26.5985,42.8504,444.8125],[26.5985,42.8586,572.5622],[26.5963,42.8661,447.215],[26.5761,42.8948,727.0875],[26.576,42.9056,824.2888],[26.5793,42.9127,869.9772],[26.5852,42.9193,930.4374],[26.5863,42.9236,1007.17],[26.5851,42.9279,782.16],[26.5642,42.929,856.625],[26.5539,42.9317,819.009],[26.5425,42.9397,788.8904],[26.5396,42.9469,880.9087],[26.5358,42.973,363.7762],[26.5431,42.9801,394.9442],[26.553,42.987,388.8835],[26.5613,42.99,364.0885],[26.5704,42.9977,357.6199],[26.5619,43.0059,344.0689],[26.5501,43.0137,349.5446],[26.5343,43.0161,252.4879],[26.52,43.0206,332.5088],[26.506,43.0213,298.2782],[26.4986,43.0208,296.3092],[26.4857,43.0161,430.6931],[26.4598,43.0107,452.0318],[26.439,43.0098,501.5028],[26.4253,43.0125,533.1366],[26.4163,43.0162,566.7744],[26.4085,43.0217,616.2683],[26.3999,43.0312,597.7495],[26.395,43.0337,594.853],[26.3853,43.0327,605.8572],[26.3685,43.0145,774.1273],[26.3595,43.0128,754.2913],[26.3539,43.0182,786.3893],[26.3546,43.0257,758.1692],[26.3599,43.041,612.5667],[26.3599,43.0484,558.4175],[26.3576,43.0521,552.9125],[26.3494,43.0519,542.4971],[26.3284,43.0397,619.9396],[26.316,43.04,596.1523],[26.3021,43.0469,541.6594],[26.296,43.0462,583.0342],[26.2899,43.0372,663.7944],[26.2821,43.0059,890.222],[26.2783,42.9998,764.4343],[26.2662,42.9882,684.0162],[26.2449,42.9744,517.9649],[26.2192,42.9664,415.5821],[26.1994,42.9578,588.2904],[26.1973,42.9529,489.9731],[26.1738,42.9298,381.466],[26.1698,42.922,422.5388],[26.1597,42.9146,389.9835],[26.1296,42.9054,448.1635],[26.1146,42.8956,427.3115],[26.0821,42.885,557.9678],[26.0766,42.8797,739.3811],[26.075,42.8738,630.7534],[26.0757,42.8698,600.9753],[26.0857,42.8563,599.5183],[26.0864,42.85,663.3804],[26.0833,42.8464,713.6603],[26.077,42.8417,876.1566],[26.0594,42.8342,966.5766],[26.0405,42.8285,821.1116],[26.028199999999998,42.8177,929.4377],[26.013,42.8094,954.1056],[26.0075,42.8017,1092.2732],[25.996,42.7904,1085.184],[25.9881,42.7876,1168.3645],[25.9759,42.7883,1385.2836],[25.9635,42.7862,1380.8483],[25.9256,42.7775,1063.4329],[25.9119,42.7708,975.0746],[25.9049,42.7695,964.4592],[25.889,42.7702,1031.2263],[25.8451,42.7835,1005.0449],[25.8413,42.7789,1169.9082],[25.8389,42.7674,1036.2194],[25.8396,42.7587,1189.708],[25.8479,42.7341,926.6045],[25.8564,42.6991,469.2669],[25.8649,42.6908,359.0942],[25.8741,42.6769,317.6127],[25.879,42.6559,283.7109],[25.8818,42.6241,333.7653],[25.8869,42.6121,359.8544],[25.8965,42.5984,279.9251],[25.9138,42.5889,321.8833],[25.9179,42.585,284.1666],[25.9204,42.5792,272.563],[25.9192,42.5702,322.6968],[25.9146,42.5663,335.9568],[25.8719,42.5503,491.8694],[25.8665,42.5448,507.4188],[25.8664,42.538,404.2533],[25.8754,42.5211,314.7668],[25.8806,42.5146,327.9852],[25.8839,42.5129,263.8699],[25.8967,42.4895,182.8223],[25.9048,42.4807,173.4074],[25.9133,42.4748,161.5503],[25.9151,42.4691,158.4443],[25.9126,42.457,149.1436],[25.9083,42.4521,147.2237],[25.8927,42.4408,143.2628],[25.8888,42.4351,141.5262],[25.8883,42.4293,139.2416],[25.8905,42.4251,137.4296],[25.8957,42.4208,136.0761],[25.9095,42.4164,133.1671],[25.9143,42.4133,131.012],[25.921,42.4051,127.8979],[25.924,42.3897,127.5292],[25.9357,42.3718,126.3767],[25.9447,42.3623,126.8058],[25.9484,42.3561,126.664],[25.9498,42.3381,122.9832],[25.952,42.3306,111.3852],[25.9594,42.3189,124.4701],[25.9839,42.312,137.5659],[25.9958,42.3049,142.4334],[26.0052,42.2951,163.9649],[26.0116,42.2825,151.986],[26.0195,42.2752,163.687],[26.0267,42.2721,182.8798],[26.0506,42.272,144.5074],[26.0555,42.2706,160.2858],[26.0549,42.2542,191.2604],[26.0575,42.249,153.659],[26.0639,42.2483,139.7825],[26.0819,42.2595,145.6789],[26.0935,42.262,139.2229],[26.1056,42.2595,146.8849],[26.1255,42.2499,140.8755],[26.179,42.2396,175.7615],[26.1814,42.2551,136.096],[26.1861,42.267,146.1823],[26.2053,42.2992,170.1292],[26.2268,42.3264,164.3147],[26.2351,42.3392,183.3133],[26.2513,42.3777,226.6357],[26.2511,42.3897,207.3389],[26.2489,42.392,205.8506],[26.2435,42.3923,211.3819],[26.2202,42.3777,199.3092],[26.2154,42.3755,187.4592],[26.2084,42.3761,184.5326],[26.1936,42.3956,209.1765],[26.1849,42.4115,246.8606],[26.184,42.4198,294.3373],[26.1896,42.4247,235.2908],[26.1966,42.4248,220.1396],[26.2105,42.4191,202.9382],[26.2281,42.4201,178.7669],[26.23,42.4253,176.4492],[26.2297,42.4336,180.0409],[26.2249,42.4516,180.6265]]]]}}