{"type":"Feature","properties":{"GID_2":"BGR.26.6_1","GID_0":"BGR","country":"Bulgaria","GID_1":"BGR.26_1","state":"Vidin","NL_NAME_1":"Видин","county":"Gramada","VARNAME_2":"NA","NL_NAME_2":"NA","TYPE_2":"Obshtina","ENGTYPE_2":"Municipality","CC_2":"NA","HASC_2":"BG.VD.GR","name":"Gramada.county"},
"geometry":{"type": "MultiPolygon","coordinates": [[[[22.4904,43.8007,302.8448],[22.4971,43.7974,315.7764],[22.5096,43.7966,292.3713],[22.5396,43.8021,303.1235],[22.5593,43.8027,292.4592],[22.5649,43.8016,292.6084],[22.5742,43.7943,306.8447],[22.5954,43.7823,266.7279],[22.607,43.7847,237.1911],[22.6258,43.7923,251.1887],[22.6265,43.7939,270.8366],[22.6584,43.7967,266.4758],[22.6855,43.8012,234.2913],[22.707,43.8031,177.1215],[22.7217,43.7981,170.6732],[22.7304,43.7972,228.6111],[22.7404,43.7993,250.5233],[22.751,43.8041,245.3085],[22.7503,43.8203,240.669],[22.7452,43.8314,159.8598],[22.7481,43.8375,196.6725],[22.7502,43.8502,129.0941],[22.7431,43.8668,186.5008],[22.7393,43.8697,206.8161],[22.7165,43.8699,213.0941],[22.7105,43.8725,177.609],[22.7079,43.878,219.9112],[22.7087,43.8841,216.4471],[22.718,43.894,188.7758],[22.7134,43.9028,224.7097],[22.7118,43.9164,150.8531],[22.7088,43.923,91.7873],[22.704,43.9268,169.6396],[22.6959,43.927,201.347],[22.6869,43.9234,183.7902],[22.6785,43.9158,191.1865],[22.6708,43.9115,109.519],[22.6531,43.9098,115.5608],[22.6409,43.9035,220.1665],[22.6255,43.9009,156.253],[22.6015,43.8892,258.302],[22.6021,43.886,266.375],[22.6088,43.8804,245.2839],[22.6095,43.8759,245.1615],[22.6017,43.8637,150.9985],[22.6008,43.8564,169.8927],[22.596,43.8506,172.9356],[22.5895,43.8461,249.2711],[22.5776,43.8405,227.6713],[22.5629,43.8406,193.2604],[22.5453,43.8478,281.3428],[22.5396,43.8485,297.2809],[22.5193,43.8456,311.2808],[22.5166,43.8409,308.1317],[22.5223,43.8371,281.696],[22.5236,43.8352,261.0359],[22.5224,43.8321,258.2339],[22.5183,43.8274,240.56],[22.5074,43.8233,247.7743],[22.5002,43.8081,294.463],[22.4904,43.8007,302.8448]]]]}}