{"type": "Feature","bbox": [26.7364,43.1131,27.2477,43.4142],"geometry": {"type": "MultiPolygon","coordinates": [[[[26.7741,43.3815,380.3993],[26.771,43.3772,408.7184],[26.7644,43.3572,328.6984],[26.747,43.334,179.4738],[26.7435,43.3235,217.0864],[26.7367,43.3133,213.071],[26.7364,43.3025,176.1972],[26.7404,43.2954,196.747],[26.7509,43.2894,193.6286],[26.7696,43.2831,164.0571],[26.7744,43.2771,144.8204],[26.7907,43.2826,182.0981],[26.8288,43.2861,240.7844],[26.8381,43.2852,309.3914],[26.8604,43.2795,421.0722],[26.8854,43.278,485.3664],[26.893,43.2756,469.7504],[26.902,43.2612,375.1512],[26.9074,43.2576,432.8708],[26.9184,43.2544,466.9805],[26.9219,43.2492,333.0381],[26.9251,43.2221,158.2587],[26.9258,43.1934,80.4936],[26.9285,43.1821,121.8639],[26.9353,43.1774,141.1374],[26.9563,43.1764,110.4543],[26.9641,43.1734,97.5283],[26.9704,43.162,124.5016],[26.9947,43.1506,90.5773],[27.0239,43.1207,63.2386],[27.0297,43.1212,63.8971],[27.0459,43.1263,90.9658],[27.0558,43.1267,155.9451],[27.0924,43.1156,265.3475],[27.1062,43.1131,236.7786],[27.1157,43.1132,250.2672],[27.1275,43.1174,294.9389],[27.145,43.1295,337.8152],[27.164,43.1322,257.3851],[27.1888,43.1304,160.7752],[27.1964,43.1424,172.9689],[27.2169,43.1613,162.1973],[27.2477,43.1801,163.1745],[27.2289,43.1936,223.5786],[27.215,43.1985,290.9952],[27.1985,43.2078,319.865],[27.1911,43.2131,324.1153],[27.1764,43.2285,320.0626],[27.1563,43.2368,352.8036],[27.1405,43.2489,380.7988],[27.1088,43.2552,182.7171],[27.0795,43.2577,168.4461],[27.0708,43.2635,161.1543],[27.07,43.2714,152.4035],[27.0753,43.281,152.1346],[27.0767,43.2867,166.163],[27.0646,43.2959,181.388],[27.0644,43.3001,180.6968],[27.0715,43.3026,189.9098],[27.077,43.3066,179.5225],[27.0802,43.3135,150.3309],[27.0872,43.3195,136.5389],[27.1307,43.3296,137.6299],[27.1377,43.3336,136.2702],[27.1403,43.3374,148.4209],[27.141,43.3425,162.8862],[27.1394,43.3489,181.9476],[27.1315,43.36,153.4636],[27.125,43.3728,154.1832],[27.117,43.3778,171.9634],[27.1069,43.379,193.6852],[27.087,43.3772,183.5223],[27.0741,43.3784,199.723],[27.0649,43.3816,212.6348],[27.0585,43.3861,239.2794],[27.0399,43.4104,249.4263],[27.0196,43.4084,256.3869],[26.9873,43.4142,275.8542],[26.9779,43.413,262.3682],[26.9767,43.4112,254.6958],[26.9851,43.3978,268.9312],[26.9857,43.3929,282.9694],[26.9801,43.3866,280.695],[26.9745,43.3839,272.5957],[26.9456,43.3844,293.7712],[26.9248,43.3896,356.8421],[26.9135,43.3904,394.755],[26.908,43.3861,381.4597],[26.9072,43.3779,354.2297],[26.9007,43.3752,327.1439],[26.8961,43.3754,322.9394],[26.8925,43.377,324.0405],[26.8907,43.3799,344.21],[26.8859,43.3924,390.1445],[26.856,43.3998,387.5358],[26.8501,43.3998,345.8764],[26.8265,43.3855,347.4542],[26.8105,43.3867,393.901],[26.8012,43.3913,422.4355],[26.7889,43.3846,406.1384],[26.7741,43.3815,380.3993]]]]}
,"properties": {"GID_2": "BGR.17.7_1","GID_0": "BGR","country": "Bulgaria","GID_1": "BGR.17_1","state": "Shumen","NL_NAME_1": "Шумен","county": "Shumen","VARNAME_2": "Kolarovgrad|Şumnu","NL_NAME_2": "Шумен","TYPE_2": "City","ENGTYPE_2": "City","CC_2": "NA","HASC_2": "BG.SH.SH","name": "Shumen.county","area_km2": 681.5006,"hist_schema_id": "Elevation0-9000","hist_area_km2": {"50": 0.0928,"75": 30.6351,"100": 44.0987,"125": 56.9305,"150": 69.2441,"175": 68.4546,"200": 73.3841,"225": 73.1256,"250": 68.4952,"275": 56.3666,"300": 45.3249,"325": 32.4331,"350": 21.8818,"375": 14.2395,"400": 11.2426,"425": 8.1282,"450": 4.7066,"475": 2.6393,"500": 0.0771}}}