{"type":"Feature","properties":{"ISO3166-1-Alpha-3":"BGR","country":"Bulgaria","fill":"#00F","id":"2245","name":"Pernik"},
"geometry":{"type": "Polygon","coordinates": [[[22.79843,42.83912,902.8337],[22.78934,42.8485,861.2491],[22.78396,42.86074,795.6131],[22.76681,42.88043,690.1694],[22.7449,42.8948,842.9618],[22.73958,42.89886,822.2106],[22.7388,42.89738,847.0543],[22.72702,42.88689,963.9666],[22.69663,42.87741,1108.2777],[22.66624,42.87193,733.6564],[22.5909,42.88689,1248.2849],[22.56361,42.88428,1321.9557],[22.54997,42.87736,1257.8536],[22.54479,42.87171,1351.8995],[22.54449,42.87139,1351.8995],[22.53757,42.86834,1216.9247],[22.51979,42.87036,1214.2673],[22.50605,42.87012,1145.2661],[22.49706,42.86441,1014.8929],[22.48145,42.84674,1076.7922],[22.47091,42.84013,1423.0985],[22.44548,42.83018,1355.9232],[22.4368,42.82429,1444.0476],[22.43045,42.81708,1277.7949],[22.4274,42.81362,1197.0796],[22.42585,42.80984,1120.4465],[22.42936,42.80612,1072.3467],[22.45313,42.76359,924.9987],[22.46657,42.74853,1033.0535],[22.48145,42.73982,1082.8257],[22.48259,42.73682,1092.1208],[22.4829,42.73378,1088.6903],[22.48259,42.73067,1150.0674],[22.48145,42.72768,1233.2247],[22.46812,42.71832,1300.0376],[22.44207,42.68169,1559.5908],[22.4492,42.66797,1620.4871],[22.44455,42.64329,1477.0322],[22.44132,42.63289,1380.0718],[22.48145,42.63528,1383.8967],[22.53044,42.62972,1139.5385],[22.56847,42.63239,990.0021],[22.59896,42.62045,1149.7559],[22.61219,42.59213,980.9233],[22.6309,42.568,869.7562],[22.64836,42.55443,947.0795],[22.6526,42.53373,956.4631],[22.66914,42.51916,985.5633],[22.6988,42.52539,989.6614],[22.71627,42.50588,990.0093],[22.71317,42.474,841.6813],[22.72908,42.45663,1137.368],[22.74965,42.43782,1027.7524],[22.76526,42.41878,1197.6483],[22.78758,42.40847,1154.8743],[22.8098,42.39219,861.3611],[22.82644,42.37082,1028.603],[22.85011,42.36018,1290.7811],[22.8775,42.36413,993.5443],[22.91729,42.38878,1046.2252],[22.97775,42.39245,764.409],[23.00007,42.39677,867.1442],[23.05413,42.38333,761.049],[23.07304,42.37447,720.0195],[23.0902,42.37604,815.3776],[23.10281,42.40323,774.1542],[23.13123,42.38498,792.2826],[23.1612,42.38134,968.2537],[23.18787,42.37062,854.0862],[23.21567,42.37318,933.4749],[23.2197,42.39147,1184.3323],[23.23272,42.40627,1217.0486],[23.22249,42.44992,1013.7335],[23.24492,42.49467,1310.1091],[23.27851,42.53229,1997.0658],[23.26001,42.54813,1843.7917],[23.20079,42.58154,1345.8816],[23.16968,42.5905,883.0222],[23.16513,42.62554,894.3868],[23.1581,42.64443,1191.9368],[23.14756,42.66114,944.4756],[23.12679,42.66887,1096.8456],[23.10932,42.67941,946.2136],[23.08586,42.69688,812.3722],[23.0595,42.70987,953.4201],[23.04441,42.73961,796.6848],[23.02488,42.76266,728.1285],[22.99449,42.75974,836.3182],[22.97558,42.76282,857.4395],[22.96493,42.7762,864.7876],[22.93476,42.7761,989.207],[22.9177,42.80101,852.8711],[22.89838,42.81824,888.0844],[22.87336,42.80757,947.5824],[22.85383,42.81765,959.6282],[22.86003,42.84901,805.9523],[22.84515,42.85508,774.8559],[22.83192,42.83746,1005.3527],[22.81518,42.83485,982.1144],[22.80804,42.83987,978.2907],[22.79843,42.83912,902.8337]]]}}