{"type": "Feature","bbox": [22.4227,42.3514,23.2821,42.8809],"geometry": {"type": "MultiPolygon","coordinates": [[[[23.029,42.3819,1051.2068],[23.03,42.3773,949.4689],[23.0466,42.3734,835.2407],[23.0566,42.3731,766.9058],[23.0733,42.3693,692.6187],[23.0811,42.3699,703.5685],[23.0898,42.3768,815.3776],[23.1023,42.3941,761.2643],[23.1072,42.3974,786.1946],[23.1127,42.3985,696.1348],[23.12,42.3951,662.7661],[23.1277,42.3745,784.5039],[23.1361,42.3669,780.2739],[23.1436,42.3639,731.514],[23.1661,42.361,792.1487],[23.1854,42.3527,837.1457],[23.1933,42.3514,834.7316],[23.2058,42.3526,922.7216],[23.2215,42.3574,942.059],[23.2343,42.3653,1021.5077],[23.2496,42.3804,1017.9736],[23.2504,42.3849,1140.7769],[23.2477,42.395,1169.4856],[23.2331,42.4188,1141.5249],[23.2339,42.4261,1200.631],[23.2287,42.4503,1109.6571],[23.2306,42.4595,1180.8838],[23.2355,42.4675,1273.2135],[23.2521,42.4811,1290.1758],[23.2604,42.4909,1264.4081],[23.2686,42.5045,1278.2295],[23.2821,42.5166,1553.5419],[23.2787,42.5238,1838.5498],[23.2765,42.5357,1945.4346],[23.2699,42.5391,1681.1117],[23.2481,42.5401,1567.4897],[23.2448,42.5419,1574.8124],[23.2393,42.5475,1470.0168],[23.239,42.5504,1442.7076],[23.2346,42.5544,1541.4543],[23.227,42.5661,1729.9662],[23.2179,42.5741,1614.2344],[23.2008,42.5777,1330.6241],[23.1698,42.5769,831.7104],[23.1621,42.5786,848.2133],[23.1592,42.5816,802.314],[23.1614,42.5852,774.3845],[23.179,42.592,1127.8956],[23.1823,42.5948,1107.8868],[23.1815,42.6088,979.266],[23.1761,42.6379,967.4038],[23.1733,42.644,1140.1484],[23.1664,42.6505,1136.6248],[23.1603,42.6543,1071.1353],[23.1482,42.6573,967.1007],[23.1338,42.6577,895.3535],[23.1198,42.6603,1003.6447],[23.1123,42.6673,1135.0685],[23.1118,42.6733,1125.3789],[23.1073,42.6834,917.95],[23.0998,42.6917,808.0978],[23.0877,42.6979,796.3932],[23.0521,42.7098,931.6096],[23.0394,42.7184,872.9974],[23.0367,42.7352,807.5191],[23.0317,42.7421,746.263],[23.0243,42.7436,796.1699],[22.9979,42.7423,773.0308],[22.9845,42.7556,892.6009],[22.9787,42.765,860.2788],[22.9711,42.7707,827.0398],[22.9402,42.7738,978.3859],[22.9252,42.7797,965.1136],[22.9165,42.7893,969.8976],[22.9121,42.8046,863.6685],[22.9055,42.8145,898.0857],[22.9006,42.8176,903.7332],[22.8924,42.8194,847.8342],[22.8685,42.8179,882.3439],[22.8658,42.8191,865.0739],[22.8597,42.8261,855.7706],[22.86,42.8338,946.5922],[22.8583,42.8405,927.5995],[22.8533,42.8475,825.4637],[22.8503,42.8492,809.5048],[22.846,42.85,899.7941],[22.8354,42.8483,913.1171],[22.8277,42.8445,1084.2059],[22.8154,42.8422,991.6544],[22.79,42.8463,925.2543],[22.7749,42.8459,938.6416],[22.772,42.8616,854.0048],[22.7677,42.8687,913.5421],[22.7542,42.8764,867.1774],[22.7405,42.8809,1002.7368],[22.7333,42.8728,941.8565],[22.7189,42.8666,955.7024],[22.7033,42.8658,917.001],[22.6966,42.8613,828.6653],[22.6881,42.8682,749.9858],[22.6856,42.8681,754.8105],[22.6828,42.8667,754.055],[22.6778,42.8579,671.0466],[22.6668,42.8525,930.7123],[22.6668,42.848,894.5875],[22.6627,42.8448,896.2092],[22.6586,42.8482,927.4493],[22.6563,42.8542,918.1346],[22.6432,42.8616,726.3924],[22.639,42.8624,797.7226],[22.6199,42.8599,1215.6919],[22.6162,42.8621,1144.7504],[22.6049,42.8749,1042.6814],[22.6012,42.8756,1115.2526],[22.5879,42.8707,1390.9185],[22.5824,42.8743,1344.9631],[22.5761,42.871,1565.1863],[22.569,42.8715,1543.4922],[22.5568,42.855,1119.2559],[22.5589,42.8427,859.7728],[22.5486,42.8498,1143.1638],[22.5339,42.854,1205.7573],[22.5245,42.8592,1224.3645],[22.5231,42.8617,1222.3345],[22.5239,42.8664,1193.4911],[22.5226,42.8667,1181.7587],[22.5128,42.8608,1191.4084],[22.5062,42.8537,1311.0654],[22.503,42.847,1215.5637],[22.504,42.8392,1153.4973],[22.4923,42.8306,1006.7249],[22.4809,42.8286,1143.5724],[22.4585,42.8118,988.9822],[22.4527,42.8111,1046.6815],[22.4493,42.8137,1098.1049],[22.4314,42.8056,1055.2512],[22.4227,42.8036,1007.6052],[22.4237,42.7856,924.7704],[22.4313,42.7817,845.5652],[22.4328,42.7777,870.1062],[22.4385,42.7741,820.4417],[22.4425,42.7641,846.1282],[22.4424,42.7607,902.9624],[22.4512,42.7527,868.6251],[22.4578,42.7494,954.6085],[22.457,42.7467,955.6259],[22.4626,42.7404,1062.4944],[22.4635,42.7366,1130.8574],[22.4675,42.7325,1158.5577],[22.4789,42.7277,1214.9447],[22.4825,42.7248,1283.448],[22.4836,42.7215,1283.446],[22.4777,42.7149,1348.594],[22.4783,42.7054,1390.328],[22.4684,42.7048,1401.7699],[22.4644,42.6981,1582.9031],[22.4567,42.6937,1636.913],[22.4552,42.6876,1669.1641],[22.4524,42.684,1559.7107],[22.4541,42.6803,1652.3928],[22.4488,42.676,1690.5132],[22.439,42.6747,1647.0731],[22.4412,42.6691,1667.7701],[22.4508,42.6661,1580.6088],[22.4562,42.6603,1542.464],[22.4526,42.6519,1559.8406],[22.4463,42.6452,1522.093],[22.4385,42.6418,1373.0979],[22.4406,42.6384,1447.5391],[22.4396,42.6351,1441.8995],[22.4334,42.6344,1356.6359],[22.4467,42.627,1513.4126],[22.4636,42.6285,1592.3242],[22.514,42.6146,1188.4893],[22.5299,42.6141,1030.309],[22.5846,42.6237,969.0408],[22.5925,42.6232,1094.0155],[22.5976,42.6207,1149.7559],[22.6022,42.6159,1139.09],[22.6053,42.6054,997.6091],[22.6065,42.5876,1034.7],[22.605,42.5757,928.5235],[22.6079,42.5681,1004.4886],[22.6155,42.5633,1031.3981],[22.642,42.5559,979.5494],[22.6466,42.5507,1088.5813],[22.653199999999998,42.5348,936.9936],[22.662,42.5241,786.7776],[22.6703,42.5195,985.5633],[22.7011,42.5083,1169.5352],[22.7059,42.5022,1172.5857],[22.7077,42.4953,1023.3542],[22.708,42.4867,1090.2434],[22.7047,42.4707,1002.2063],[22.7227,42.4495,1041.7811],[22.7388,42.4251,1302.9884],[22.7454,42.4195,1364.7673],[22.7524,42.4162,1263.1321],[22.7631,42.4125,1386.3717],[22.7792,42.4109,1058.1968],[22.7832,42.4078,1153.2245],[22.7932,42.4042,1118.9578],[22.7972,42.3987,1021.8277],[22.7991,42.3888,876.3221],[22.8027,42.3837,932.4161],[22.8098,42.3815,968.6645],[22.8272,42.3828,897.6262],[22.8311,42.3818,966.1066],[22.8337,42.3773,1058.5106],[22.8342,42.3655,1289.5466],[22.8377,42.3609,1360.6251],[22.8445,42.356,1349.7045],[22.8568,42.3582,1204.8088],[22.8656,42.3633,1088.9155],[22.8805,42.3655,1000.4684],[22.893,42.3648,1142.4275],[22.9049,42.3592,969.8645],[22.916,42.3575,887.1163],[22.9196,42.3591,941.528],[22.9208,42.3614,1007.7544],[22.9185,42.3754,948.7496],[22.9188,42.3778,899.6397],[22.9229,42.3815,971.3083],[22.9319,42.385,1125.8695],[22.9641,42.3875,740.7776],[22.9777,42.3965,787.4653],[22.9893,42.4016,895.4281],[23.0078,42.4012,927.5087],[23.019,42.3972,1003.5082],[23.0247,42.3918,1032.6171],[23.029,42.3819,1051.2068]]]]}
,"properties": {"GID_1": "BGR.12_1","GID_0": "BGR","country": "Bulgaria","state": "Pernik","VARNAME_1": "NA","NL_NAME_1": "Перник","TYPE_1": "Oblast","ENGTYPE_1": "Province","CC_1": "NA","HASC_1": "BG.PN","ISO_1": "BG-14","name": "Pernik.state","area_km2": 2420.955,"hist_schema_id": "Elevation0-9000","hist_area_km2": {"575": 1.11,"600": 9.771,"625": 88.949,"650": 105.401,"675": 91.389,"700": 109.904,"725": 136.144,"750": 141.317,"775": 156.934,"800": 150.837,"825": 142.374,"850": 140.384,"875": 135.828,"900": 125.656,"925": 114.408,"950": 105.413,"975": 92.546,"1000": 77.177,"1025": 70.393,"1050": 59.985,"1075": 53.857,"1100": 46.264,"1125": 38.296,"1150": 31.213,"1175": 27.749,"1200": 23.441,"1225": 20.166,"1250": 17.623,"1275": 15.661,"1300": 14.413,"1325": 11.328,"1350": 9.003,"1375": 7.443,"1400": 5.852,"1425": 4.994,"1450": 4.572,"1475": 4.245,"1500": 4.01,"1525": 3.681,"1550": 3.166,"1575": 3.773,"1600": 3.337,"1625": 3.072,"1650": 2.354,"1675": 2.011,"1700": 1.513,"1725": 0.671,"1750": 0.219,"1775": 0.156,"1800": 0.219,"1825": 0.109,"1850": 0.172,"1875": 0.109,"1900": 0.156,"1925": 0.109,"1950": 0.047,"1975": 0.031}}}