{"type":"Feature","properties":{"GID_2":"BGR.20.7_1","GID_0":"BGR","country":"Bulgaria","GID_1":"BGR.20_1","state":"Smolyan","NL_NAME_1":"Смолян","county":"Nedelino","VARNAME_2":"NA","NL_NAME_2":"Неделино","TYPE_2":"Obshtina","ENGTYPE_2":"Municipality","CC_2":"NA","HASC_2":"BG.SM.NE","name":"Nedelino.county"},
"geometry":{"type": "MultiPolygon","coordinates": [[[[25.0539,41.5026,807.2032],[25.0471,41.4968,832.683],[25.0384,41.4857,684.9344],[25.0344,41.484,795.8856],[25.0203,41.4834,959.8071],[25.0157,41.4813,1125.761],[25.0116,41.4725,1040.1171],[25.0117,41.4661,947.7762],[25.0306,41.4688,797.7321],[25.0391,41.4669,743.291],[25.0435,41.4633,721.7335],[25.0489,41.4504,799.537],[25.0547,41.4454,777.6987],[25.0545,41.4392,765.5568],[25.0709,41.4326,735.1832],[25.0837,41.4248,762.9043],[25.097,41.4278,615.0876],[25.1031,41.4256,631.5224],[25.1156,41.425,514.3808],[25.1538,41.4337,544.9686],[25.1694,41.4429,733.2764],[25.1744,41.4498,638.8535],[25.1818,41.4518,684.0139],[25.1835,41.4739,866.6584],[25.1888,41.4776,768.5048],[25.1901,41.4804,748.9273],[25.189,41.4917,801.3669],[25.1762,41.5027,813.7144],[25.1677,41.505,867.3969],[25.1373,41.5039,862.5707],[25.1152,41.4964,817.8237],[25.08,41.4933,808.7588],[25.0687,41.493899999999996,864.1813],[25.0539,41.5026,807.2032]]]]}}