{"type": "Feature","bbox": [26.5208,43.6834,26.8023,43.8816],"geometry": {"type": "MultiPolygon","coordinates": [[[[26.7848,43.834,220.4367],[26.7809,43.8328,221.0254],[26.775,43.8334,200.1809],[26.773,43.8354,187.4781],[26.7694,43.8482,154.5555],[26.7635,43.8526,146.7398],[26.736,43.8534,206.4842],[26.7286,43.8558,207.3884],[26.7211,43.8622,181.2023],[26.7006,43.8635,153.3309],[26.6875,43.8733,155.6255],[26.6672,43.8816,160.5707],[26.6466,43.8605,212.6613],[26.6377,43.8471,178.8221],[26.6346,43.838,178.8295],[26.6362,43.8283,230.5923],[26.6563,43.8008,226.8396],[26.6565,43.7916,271.8779],[26.653199999999998,43.7884,263.678],[26.6486,43.7878,257.211],[26.6407,43.7899,245.4974],[26.6144,43.8045,252.0157],[26.608,43.8097,233.5334],[26.597,43.8127,218.0695],[26.586,43.8099,222.3175],[26.5798,43.8023,175.5525],[26.5712,43.785,241.3873],[26.5678,43.7827,252.8637],[26.5255,43.7803,202.6412],[26.5208,43.7745,198.1101],[26.5556,43.7536,250.5657],[26.5818,43.7406,266.693],[26.5827,43.7363,278.7651],[26.5791,43.7258,285.2108],[26.5844,43.7182,311.8474],[26.5947,43.7088,270.9689],[26.5945,43.7021,299.6849],[26.5882,43.6941,298.6703],[26.5884,43.6906,295.7686],[26.5917,43.6887,263.6111],[26.6222,43.6893,273.7075],[26.6469,43.6847,308.3304],[26.6574,43.6861,302.5271],[26.6771,43.6919,243.6107],[26.6871,43.6904,211.4398],[26.7023,43.6834,251.2797],[26.7192,43.6968,276.3975],[26.7229,43.7019,267.3016],[26.7368,43.7295,255.1222],[26.7383,43.7365,227.9782],[26.737,43.7587,212.2253],[26.7529,43.7723,231.8443],[26.7598,43.7871,139.2273],[26.7661,43.787,173.3499],[26.7691,43.7722,209.5526],[26.7774,43.7727,215.2043],[26.7822,43.7752,221.9831],[26.8,43.8012,208.307],[26.8023,43.8114,211.0494],[26.7956,43.8205,211.2243],[26.7867,43.8267,204.9068],[26.7848,43.834,220.4367]]]]}
,"properties": {"GID_2": "BGR.15.7_1","GID_0": "BGR","country": "Bulgaria","GID_1": "BGR.15_1","state": "Razgrad","NL_NAME_1": "Разград","county": "Zavet","VARNAME_2": "NA","NL_NAME_2": "Завет","TYPE_2": "Obshtina","ENGTYPE_2": "Municipality","CC_2": "NA","HASC_2": "BG.RG.ZA","name": "Zavet.county","area_km2": 256.4565,"hist_schema_id": "Elevation0-9000","hist_area_km2": {"100": 0.0306,"125": 4.0375,"150": 11.8072,"175": 24.182,"200": 41.6333,"225": 49.1842,"250": 74.3891,"275": 36.0647,"300": 15.1279}}}