{"type":"Feature","properties":{"GID_2":"BGR.21.4_1","GID_0":"BGR","country":"Bulgaria","GID_1":"BGR.21_1","state":"Sofia","NL_NAME_1":"Sofija","county":"Chavdar","VARNAME_2":"NA","NL_NAME_2":"Чавдар","TYPE_2":"Obshtina","ENGTYPE_2":"Municipality","CC_2":"NA","HASC_2":"BG.SF.CV","name":"Chavdar.county"},
"geometry":{"type": "MultiPolygon","coordinates": [[[[24.0904,42.5683,923.2849],[24.082,42.6067,870.8537],[24.084,42.6178,624.11],[24.0852,42.6484,607.4247],[24.0782,42.6778,634.136],[24.0758,42.682,635.0282],[24.0538,42.681399999999996,658.0924],[24.0409,42.6841,701.2776],[24.032,42.6744,633.3661],[24.03,42.6474,701.1273],[24.0269,42.6421,674.3271],[24.0287,42.6315,675.5],[24.0457,42.5816,659.9242],[24.0449,42.5655,868.7494],[24.048,42.5569,753.1899],[24.0549,42.5464,794.4138],[24.0636,42.5556,930.9515],[24.0725,42.5619,973.549],[24.0904,42.5683,923.2849]]]]}}