{"type": "Feature","bbox": [24.2796,42.5417,24.4932,42.7013],"geometry": {"type": "MultiPolygon","coordinates": [[[[24.3282,42.5555,754.2485],[24.3323,42.545,626.1517],[24.3377,42.5417,598.6566],[24.347,42.5417,616.7218],[24.3597,42.5494,739.5076],[24.3678,42.556399999999996,731.7911],[24.3779,42.5589,868.6432],[24.3947,42.5565,910.4927],[24.4025,42.5531,995.264],[24.4078,42.5497,1095.4131],[24.4141,42.5425,1094.3619],[24.4437,42.5447,1188.5879],[24.454,42.55,1193.1989],[24.4587,42.5618,1191.4222],[24.462,42.5654,1208.0764],[24.4837,42.5772,1162.1979],[24.4887,42.5824,1306.5177],[24.4932,42.5923,1396.4916],[24.4646,42.6036,1503.6439],[24.4527,42.6101,1471.7181],[24.4285,42.6309,1281.5767],[24.3909,42.6424,1322.416],[24.3721,42.6518,1177.1085],[24.3658,42.6578,1241.3708],[24.3563,42.6726,1230.8906],[24.3534,42.685,1036.6005],[24.352,42.7013,1066.9779],[24.3385,42.6841,927.6574],[24.3234,42.6698,1168.4464],[24.295,42.6552,1029.3661],[24.2932,42.6476,1145.8079],[24.2975,42.6369,1347.8271],[24.2956,42.6324,1406.9142],[24.2826,42.6203,1408.4987],[24.2798,42.6156,1394.9213],[24.2796,42.6117,1269.7034],[24.2962,42.6013,1211.165],[24.3013,42.5944,1310.8435],[24.305,42.5829,1384.741],[24.327,42.5614,840.3012],[24.329,42.5579,785.5834],[24.3282,42.5555,754.2485]]]]}
,"properties": {"GID_2": "BGR.21.13_1","GID_0": "BGR","country": "Bulgaria","GID_1": "BGR.21_1","state": "Sofia","NL_NAME_1": "Sofija","county": "Koprivshtitsa","VARNAME_2": "NA","NL_NAME_2": "Копривщица","TYPE_2": "Obshtina","ENGTYPE_2": "Municipality","CC_2": "NA","HASC_2": "BG.SF.KP","name": "Koprivshtitsa.county","area_km2": 152.844,"hist_schema_id": "Elevation0-9000","hist_area_km2": {"575": 0.0156,"600": 0.0937,"625": 0.3437,"650": 0.4217,"675": 0.6091,"700": 0.6716,"725": 0.8434,"750": 1.1245,"775": 1.2025,"800": 1.2337,"825": 1.3118,"850": 1.2961,"875": 1.171,"900": 1.249,"925": 1.5611,"950": 1.7481,"975": 2.263,"1000": 3.62,"1025": 6.0389,"1050": 7.225,"1075": 9.0514,"1100": 9.8628,"1125": 10.7214,"1150": 11.6265,"1175": 11.4232,"1200": 10.8144,"1225": 10.3306,"1250": 8.7067,"1275": 7.5676,"1300": 6.1634,"1325": 5.7421,"1350": 4.8371,"1375": 3.074,"1400": 3.3392,"1425": 2.8243,"1450": 0.8896,"1475": 0.8429,"1500": 0.437,"1525": 0.3121,"1550": 0.2029,"1575": 0.0312}}}