{"type": "Feature","bbox": [24.5164,42.9805,25.0345,43.3279],"geometry": {"type": "MultiPolygon","coordinates": [[[[24.9812,43.2248,389.6611],[24.9766,43.2354,336.9575],[24.9751,43.2444,183.1713],[24.98,43.2518,108.0996],[24.9885,43.2559,90.16],[25.0242,43.2578,97.5346],[25.0292,43.2592,93.9786],[25.0338,43.2645,89.3333],[25.0345,43.2688,80.9685],[25.0291,43.293,82.4716],[25.0245,43.3004,93.4833],[25.0175,43.3072,97.1428],[25.0067,43.3137,104.8607],[24.9788,43.3244,124.7509],[24.9751,43.3276,129.7678],[24.9554,43.3208,129.1314],[24.9388,43.3114,150.9545],[24.9256,43.2983,163.9408],[24.9176,43.2964,176.5089],[24.9117,43.298,174.6209],[24.9033,43.3052,159.755],[24.8973,43.308,175.0716],[24.869,43.3128,187.5773],[24.838,43.3279,197.5163],[24.8091,43.3266,249.2255],[24.7554,43.3091,300.1988],[24.7174,43.2914,322.6844],[24.6985,43.2778,352.2366],[24.689,43.2598,397.7947],[24.6867,43.2584,396.6204],[24.6812,43.2583,404.1277],[24.6757,43.2627,387.2951],[24.6708,43.2687,376.4489],[24.67,43.2736,352.8122],[24.6659,43.2811,326.2673],[24.6628,43.2817,325.416],[24.6577,43.279,329.6068],[24.6523,43.2738,326.4383],[24.6494,43.2654,366.1332],[24.6476,43.2579,357.8097],[24.6471,43.2406,389.76],[24.6425,43.2348,409.1339],[24.6351,43.2313,378.2437],[24.6013,43.2289,329.7156],[24.597,43.2237,356.6609],[24.5781,43.2118,417.4023],[24.5674,43.1993,416.5439],[24.5648,43.1932,368.9912],[24.5642,43.188,350.2051],[24.5693,43.1762,316.4195],[24.5694,43.1683,276.6463],[24.5637,43.1673,250.6664],[24.5563,43.1684,245.3742],[24.549,43.1664,244.3986],[24.5501,43.1538,248.8515],[24.5477,43.148,268.2125],[24.5385,43.1395,303.6212],[24.5198,43.1287,400.3113],[24.5164,43.1218,302.7583],[24.5191,43.1162,327.198],[24.5303,43.1104,407.0617],[24.5495,43.1092,444.5947],[24.5584,43.1026,420.5885],[24.57,43.1046,426.1115],[24.5816,43.1027,523.8362],[24.5825,43.1007,532.7488],[24.5777,43.0929,558.0814],[24.5787,43.0892,499.1622],[24.585,43.0844,588.4617],[24.5868,43.0791,640.9814],[24.5789,43.0706,586.9316],[24.5785,43.0679,608.025],[24.5799,43.0663,613.6458],[24.5981,43.0654,518.2234],[24.6054,43.0582,435.228],[24.6097,43.0562,418.7068],[24.6267,43.0558,437.595],[24.6478,43.0645,434.7357],[24.6547,43.0638,410.7769],[24.6606,43.0609,411.3184],[24.6658,43.0616,423.2983],[24.6819,43.0709,497.4845],[24.689,43.0716,466.5239],[24.6903,43.0686,473.8178],[24.6851,43.0594,402.1866],[24.6844,43.054,400.7965],[24.6861,43.0457,281.7703],[24.6848,43.0426,274.6021],[24.6655,43.0211,760.2283],[24.6895,43.0148,361.2729],[24.7007,43.0089,297.3839],[24.7048,42.9998,398.9427],[24.7068,42.9874,429.6362],[24.7095,42.9831,542.7806],[24.7158,42.9805,574.3223],[24.7336,42.982,587.4825],[24.738,42.9846,608.9329],[24.7428,42.9955,545.8052],[24.7459,42.9978,650.6365],[24.7628,43.0038,553.0602],[24.8088,43.0148,709.5885],[24.8646,43.0395,501.6512],[24.8778,43.041,436.9918],[24.903,43.0379,489.7269],[24.9124,43.0382,551.1105],[24.9184,43.0408,570.715],[24.9511,43.041,392.9888],[24.9513,43.0437,365.476],[24.9386,43.056,562.1784],[24.939,43.0594,445.3811],[24.948,43.0606,406.715],[24.9491,43.0634,395.9371],[24.941,43.0725,392.0698],[24.9342,43.085,404.7469],[24.9334,43.0915,397.9285],[24.9354,43.1055,479.9599],[24.9318,43.1161,447.8059],[24.9319,43.1304,449.5667],[24.9352,43.136,478.5991],[24.9408,43.1394,493.4981],[24.9529,43.1395,468.8239],[24.9667,43.1433,491.1191],[24.9728,43.1496,476.2914],[24.9747,43.1605,462.9305],[24.9664,43.1801,420.8654],[24.9673,43.2,401.6441],[24.9618,43.2181,368.5237],[24.9626,43.222,365.0391],[24.9659,43.2247,388.6248],[24.9812,43.2248,389.6611]]]]}
,"properties": {"GID_2": "BGR.9.4_1","GID_0": "BGR","country": "Bulgaria","GID_1": "BGR.9_1","state": "Lovech","NL_NAME_1": "Ловеч","county": "Lovech","VARNAME_2": "NA","NL_NAME_2": "Ловеч","TYPE_2": "City","ENGTYPE_2": "City","CC_2": "NA","HASC_2": "BG.LV.LO","name": "Lovech.county","area_km2": 948.9552,"hist_schema_id": "Elevation0-9000","hist_area_km2": {"75": 12.6898,"100": 27.9264,"125": 42.9439,"150": 51.3761,"175": 61.4952,"200": 63.8255,"225": 52.546,"250": 47.665,"275": 40.6408,"300": 44.366,"325": 54.8148,"350": 62.1325,"375": 67.7131,"400": 72.7483,"425": 69.6268,"450": 53.4377,"475": 39.25,"500": 27.1621,"525": 18.3554,"550": 11.712,"575": 8.7848,"600": 6.6001,"625": 3.7963,"650": 2.185,"675": 1.488,"700": 1.3331,"725": 1.1161,"750": 0.7595,"775": 0.372,"800": 0.093}}}