{"type": "Feature","bbox": [22.832,41.8346,23.4467,42.1006],"geometry": {"type": "MultiPolygon","coordinates": [[[[23.4467,42.0605,2586.5969],[23.4236,42.0548,2358.2136],[23.3968,42.0545,2229.136],[23.3833,42.0598,2244.4204],[23.3612,42.0732,2318.6934],[23.340699999999998,42.0754,2089.8889],[23.319,42.0866,1999.4272],[23.3096,42.0897,2123.354],[23.296,42.0917,1936.3376],[23.2827,42.0917,1890.7515],[23.2658,42.0977,1878.2655],[23.2568,42.0988,1864.8146],[23.1888,42.1006,1459.5389],[23.1744,42.098,1302.7869],[23.1656,42.0938,1163.7844],[23.1411,42.0762,828.1331],[23.1284,42.0647,668.0615],[23.1123,42.0553,591.4903],[23.0614,42.0434,423.1183],[23.0388,42.0403,373.1979],[23.0336,42.0414,335.2493],[23.031,42.0436,373.332],[23.0257,42.0578,343.6466],[23.0212,42.0604,418.1743],[23.0008,42.0618,540.7778],[22.9768,42.0599,753.7494],[22.962,42.0617,806.7394],[22.9584,42.0636,796.5125],[22.9532,42.0678,843.3946],[22.9501,42.073,887.1471],[22.9466,42.0807,900.6219],[22.9448,42.0899,1022.7172],[22.9383,42.0965,1041.9985],[22.9353,42.0979,989.6359],[22.9287,42.0975,1048.2057],[22.9181,42.092,936.3469],[22.9145,42.088,1054.3679],[22.9008,42.0625,1131.0486],[22.9,42.0316,1087.3413],[22.8953,42.022,1030.9014],[22.8905,42.0173,971.7492],[22.8826,42.0145,856.9702],[22.8375,42.0071,830.21],[22.8395,42.0013,865.6092],[22.8384,41.9969,801.6938],[22.832,41.9893,903.4456],[22.8472,41.9825,1027.7472],[22.8459,41.9775,1060.0673],[22.8472,41.9757,1106.9568],[22.8464,41.9641,1018.5466],[22.8503,41.9616,1050.2415],[22.8465,41.9412,777.9854],[22.8492,41.9341,790.2626],[22.8474,41.9313,812.3102],[22.8509,41.9292,856.3853],[22.847,41.9227,770.402],[22.851,41.9192,808.4164],[22.8528,41.9121,805.6777],[22.8561,41.9083,773.0443],[22.864,41.9061,862.144],[22.8667,41.9017,893.5111],[22.8665,41.8968,880.4536],[22.8719,41.8903,900.3485],[22.8696,41.8852,872.1237],[22.8701,41.8817,873.9418],[22.8742,41.8785,885.1223],[22.8719,41.8744,873.0135],[22.8753,41.8635,844.0809],[22.8803,41.8624,910.6771],[22.8852,41.8645,1007.5619],[22.8922,41.8607,952.5289],[22.8983,41.8543,896.663],[22.8994,41.8512,915.1191],[22.9018,41.8501,980.2864],[22.9013,41.8471,897.6846],[22.9093,41.8351,926.0381],[22.9382,41.8346,1250.6194],[22.9429,41.8365,1226.2433],[22.9462,41.8453,1125.7401],[22.951,41.85,1086.6914],[22.9737,41.8591,959.5104],[22.9918,41.8639,940.2808],[23.0018,41.8717,746.9303],[23.0186,41.902,636.8226],[23.0203,41.9095,605.3157],[23.0148,41.9184,652.1744],[23.0176,41.9211,710.8585],[23.0256,41.9221,750.8372],[23.0267,41.9248,759.5763],[23.0231,41.9311,851.576],[23.0225,41.9358,747.7202],[23.0229,41.9389,685.4814],[23.027,41.9431,667.6475],[23.046,41.9423,696.1187],[23.0705,41.955,579.453],[23.0785,41.9563,643.7673],[23.0839,41.9553,599.3122],[23.087,41.9523,518.1928],[23.0849,41.9454,526.9877],[23.087,41.9395,559.1388],[23.0958,41.936,305.6629],[23.1167,41.9348,473.5965],[23.1384,41.9366,688.6383],[23.158,41.9479,856.0901],[23.1753,41.9506,983.0905],[23.1866,41.9564,868.5944],[23.1948,41.9656,1008.2739],[23.2007,41.9762,1115.7571],[23.2213,41.9882,1114.7456],[23.2325,41.9929,1148.3674],[23.2432,42.006,974.7166],[23.2487,42.0193,1257.9985],[23.2528,42.0217,1304.4309],[23.2694,42.0199,1306.8762],[23.2883,42.0095,1433.4615],[23.3103,41.9831,1547.5419],[23.3325,41.9791,1950.98],[23.3611,41.9792,2318.5601],[23.3691,41.9854,2262.2854],[23.3757,41.9934,2323.3428],[23.38,42.002,2376.78],[23.3858,42.0082,2108.7939],[23.4046,42.0174,2107.7441],[23.4133,42.027,2219.8892],[23.4255,42.0347,2410.7866],[23.4381,42.0454,2177.4158],[23.4467,42.0605,2586.5969]]]]}
,"properties": {"GID_2": "BGR.1.3_1","GID_0": "BGR","country": "Bulgaria","GID_1": "BGR.1_1","state": "Blagoevgrad","NL_NAME_1": "Благоевград","county": "Blagoevgrad","VARNAME_2": "GornaDzhumaya","NL_NAME_2": "Благоевград","TYPE_2": "City","ENGTYPE_2": "City","CC_2": "NA","HASC_2": "BG.BL.BL","name": "Blagoevgrad.county","area_km2": 678.7306,"hist_schema_id": "Elevation0-9000","hist_area_km2": {"300": 0.7096,"325": 15.4265,"350": 8.65,"375": 9.1223,"400": 9.4056,"425": 10.477,"450": 11.1073,"475": 11.8792,"500": 12.0059,"525": 14.4331,"550": 16.0574,"575": 17.9171,"600": 21.9996,"625": 22.7577,"650": 21.3397,"675": 20.6621,"700": 18.9761,"725": 17.8414,"750": 15.5713,"775": 14.4838,"800": 13.6022,"825": 13.3186,"850": 14.2014,"875": 14.8485,"900": 15.669,"925": 17.0716,"950": 17.8922,"975": 16.9638,"1000": 17.8929,"1025": 17.2457,"1050": 15.4315,"1075": 14.7214,"1100": 13.1762,"1125": 12.3566,"1150": 10.8599,"1175": 10.0394,"1200": 8.0381,"1225": 5.3748,"1250": 4.6491,"1275": 3.9399,"1300": 4.1596,"1325": 3.4815,"1350": 3.0718,"1375": 2.8193,"1400": 2.677,"1425": 2.6922,"1450": 2.2671,"1475": 2.5346,"1500": 2.881,"1525": 2.6291,"1550": 2.6449,"1575": 3.1329,"1600": 2.9597,"1625": 2.9913,"1650": 2.7709,"1675": 2.834,"1700": 2.8183,"1725": 3.1489,"1750": 2.96,"1775": 2.9758,"1800": 3.1649,"1825": 2.834,"1850": 2.9287,"1875": 2.6767,"1900": 3.3224,"1925": 3.4009,"1950": 3.1647,"1975": 3.6372,"2000": 3.7473,"2025": 3.7003,"2050": 4.2989,"2075": 3.9839,"2100": 3.8579,"2125": 3.7317,"2150": 3.6216,"2175": 3.3699,"2200": 3.1021,"2225": 3.1494,"2250": 2.3623,"2275": 2.1417,"2300": 1.6379,"2325": 1.8584,"2350": 1.2599,"2375": 0.5984,"2400": 0.2047,"2425": 0.1575,"2450": 0.0787,"2475": 0.0787,"2500": 0.0315,"2525": 0.0472,"2550": 0.0157}}}