{"type": "Feature","bbox": [23.5485,43.5094,23.7733,43.6916],"geometry": {"type": "MultiPolygon","coordinates": [[[[23.6273,43.5312,155.8064],[23.6556,43.528,154.4545],[23.7063,43.5094,144.892],[23.7263,43.5113,148.8345],[23.7392,43.5171,139.656],[23.7464,43.5366,153.0337],[23.7515,43.5398,140.5726],[23.7627,43.5435,118.7358],[23.7665,43.5495,110.1514],[23.7733,43.58,74.8839],[23.7675,43.5816,71.9779],[23.7627,43.5853,85.1068],[23.7626,43.5884,86.3578],[23.7658,43.5951,105.9998],[23.7638,43.6033,118.6631],[23.7611,43.6062,119.1759],[23.7233,43.6147,149.618],[23.7138,43.62,103.245],[23.6976,43.6205,47.6869],[23.6875,43.6239,52.1706],[23.6866,43.633,68.3023],[23.691,43.64,74.4063],[23.6904,43.648,75.4817],[23.6878,43.6577,87.2016],[23.6824,43.6614,92.7723],[23.6591,43.6617,108.0678],[23.6543,43.6654,116.7713],[23.6521,43.6716,94.0694],[23.6438,43.6816,139.7143],[23.6176,43.6831,137.7807],[23.6128,43.6857,138.0396],[23.6073,43.6916,142.4026],[23.5934,43.683,134.7072],[23.5899,43.6699,136.7051],[23.5896,43.6513,138.007],[23.5864,43.6425,139.5217],[23.583,43.6373,138.6782],[23.553,43.6113,135.4702],[23.5497,43.6058,133.3744],[23.5485,43.5983,84.5452],[23.5494,43.5941,95.9978],[23.5567,43.5887,116.6924],[23.6025,43.5622,58.3835],[23.616,43.5524,127.3487],[23.6274,43.5394,142.293],[23.6273,43.5312,155.8064]]]]}
,"properties": {"GID_2": "BGR.27.3_1","GID_0": "BGR","country": "Bulgaria","GID_1": "BGR.27_1","state": "Vratsa","NL_NAME_1": "Враца","county": "Hairedin","VARNAME_2": "Hayredin","NL_NAME_2": "NA","TYPE_2": "Obshtina","ENGTYPE_2": "Municipality","CC_2": "NA","HASC_2": "BG.VR.HA","name": "Hairedin.county","area_km2": 203.94,"hist_schema_id": "Elevation0-9000","hist_area_km2": {"50": 11.3178,"75": 18.6695,"100": 45.6307,"125": 70.7717,"150": 57.5503}}}