{"type": "Feature","bbox": [22.3438,43.6752,22.7404,43.8259],"geometry": {"type": "MultiPolygon","coordinates": [[[[22.6262,43.7407,279.8992],[22.6415,43.7456,280.1938],[22.6505,43.7506,244.8228],[22.6711,43.7522,208.3799],[22.6918,43.7583,221.8803],[22.7027,43.7643,215.5744],[22.7146,43.7733,171.9745],[22.7313,43.7881,244.9183],[22.7404,43.7993,250.5233],[22.7255,43.7972,233.7659],[22.707,43.8031,177.1215],[22.6855,43.8012,234.2913],[22.6584,43.7967,266.4758],[22.6265,43.7939,270.8366],[22.6258,43.7923,251.1887],[22.607,43.7847,237.1911],[22.5954,43.7823,266.7279],[22.5742,43.7943,306.8447],[22.5649,43.8016,292.6084],[22.5564,43.803,296.2351],[22.5396,43.8021,303.1235],[22.5096,43.7966,292.3713],[22.4971,43.7974,315.7764],[22.4904,43.8007,302.8448],[22.4784,43.7988,282.5689],[22.4647,43.8024,324.6413],[22.451,43.8105,311.6953],[22.4448,43.8124,282.1035],[22.4274,43.813,334.3897],[22.41,43.8232,349.5622],[22.4022,43.8257,361.9819],[22.3955,43.8259,373.9229],[22.3591,43.8191,472.3273],[22.3553,43.8105,455.5367],[22.347,43.8055,460.7732],[22.3463,43.7984,416.5934],[22.3438,43.7951,397.4002],[22.3443,43.7918,385.0861],[22.3474,43.7887,325.1505],[22.3489,43.7824,245.4661],[22.3523,43.7798,377.5314],[22.3635,43.7599,528.7039],[22.3795,43.7466,611.2894],[22.3872,43.7465,652.5814],[22.383,43.7405,559.2071],[22.3842,43.7266,702.8591],[22.3797,43.7188,654.1084],[22.3859,43.713,645.9485],[22.3879,43.7067,642.4482],[22.3876,43.7015,691.7669],[22.3908,43.6954,744.1994],[22.3902,43.6874,777.3685],[22.4028,43.6752,770.9093],[22.4191,43.6787,855.3116],[22.4371,43.686,825.9131],[22.445,43.6918,682.2114],[22.4521,43.7001,515.5806],[22.4572,43.7096,729.3071],[22.4646,43.7179,640.4299],[22.4956,43.7318,420.2374],[22.5208,43.7506,324.0335],[22.532,43.7527,310.6402],[22.5439,43.7516,287.1811],[22.5437,43.7491,277.9314],[22.5391,43.7443,294.8521],[22.5399,43.7422,306.0229],[22.5506,43.7478,291.6457],[22.557,43.7489,283.1047],[22.5588,43.747,287.489],[22.5578,43.7449,282.0652],[22.552,43.7379,305.9887],[22.5521,43.7354,321.0548],[22.5541,43.7348,320.2601],[22.5779,43.7469,286.4859],[22.5853,43.7479,286.8613],[22.6024,43.7536,270.2738],[22.6073,43.7522,263.049],[22.6098,43.7472,278.481],[22.6202,43.7479,296.2676],[22.6262,43.7407,279.8992]]]]}
,"properties": {"GID_2": "BGR.26.8_1","GID_0": "BGR","country": "Bulgaria","GID_1": "BGR.26_1","state": "Vidin","NL_NAME_1": "Видин","county": "Makresh","VARNAME_2": "NA","NL_NAME_2": "NA","TYPE_2": "Obshtina","ENGTYPE_2": "Municipality","CC_2": "NA","HASC_2": "BG.VD.MA","name": "Makresh.county","area_km2": 226.4931,"hist_schema_id": "Elevation0-9000","hist_area_km2": {"125": 0.7806,"150": 2.1737,"175": 7.9299,"200": 13.0132,"225": 15.601,"250": 15.2491,"275": 14.7441,"300": 18.7826,"325": 21.0924,"350": 19.134,"375": 14.9712,"400": 9.5681,"425": 8.1596,"450": 6.461,"475": 4.6859,"500": 3.7675,"525": 3.6146,"550": 3.4924,"575": 3.3395,"600": 3.447,"625": 3.2019,"650": 3.4167,"675": 2.8653,"700": 3.233,"725": 3.3403,"750": 2.8346,"775": 2.5897,"800": 2.0381,"825": 2.0535,"850": 1.793,"875": 1.8391,"900": 1.4253,"925": 1.3488,"950": 0.9656,"975": 1.0116,"1000": 0.8277,"1025": 0.6591,"1050": 0.5978,"1075": 0.3219,"1100": 0.1226}}}