{"type":"Feature","properties":{"GID_2":"BGR.13.3_1","GID_0":"BGR","country":"Bulgaria","GID_1":"BGR.13_1","state":"Pleven","NL_NAME_1":"Плевенска","county":"DolnaMitropoliya","VARNAME_2":"DolnaMutropolia","NL_NAME_2":"NA","TYPE_2":"Obshtina","ENGTYPE_2":"Municipality","CC_2":"NA","HASC_2":"BG.VT.GO","name":"DolnaMitropoliya.county"},
"geometry":{"type": "MultiPolygon","coordinates": [[[[24.4879,43.4504,95.1033],[24.4902,43.451,95.882],[24.4961,43.459,74.7661],[24.5096,43.4629,67.4948],[24.5402,43.461,53.7927],[24.5497,43.4633,50.8508],[24.5525,43.4679,48.046],[24.5536,43.4768,47.6603],[24.5526,43.4846,44.5427],[24.5549,43.4889,45.1604],[24.5584,43.4886,46.6351],[24.5664,43.4827,63.9826],[24.5723,43.4814,71.6558],[24.5901,43.4912,161.8934],[24.6005,43.4936,173.2384],[24.6097,43.4914,209.3244],[24.6235,43.483,198.4401],[24.6307,43.4807,208.304],[24.6416,43.4797,201.4729],[24.6612,43.4854,208.0698],[24.6795,43.4847,197.3177],[24.6943,43.4887,175.1734],[24.7023,43.494,182.7983],[24.7055,43.5038,179.9257],[24.7051,43.5073,135.4644],[24.7023,43.5133,191.5836],[24.6895,43.5246,205.6686],[24.688,43.5299,187.705],[24.6917,43.5374,193.6868],[24.7004,43.5434,187.9407],[24.6894,43.5557,152.4585],[24.6899,43.5794,149.0934],[24.6836,43.5889,107.4285],[24.6762,43.6074,30.2073],[24.6623,43.6167,46.2783],[24.6526,43.6261,57.5339],[24.6198,43.6299,88.7828],[24.608,43.626,134.6836],[24.5641,43.6219,118.1976],[24.5506,43.618,159.5879],[24.5303,43.6023,156.0697],[24.52,43.6002,153.1345],[24.5118,43.6026,147.6788],[24.5045,43.6127,173.1868],[24.4818,43.6553,206.6129],[24.476,43.6585,169.032],[24.4534,43.6622,102.5883],[24.4485,43.6665,69.4045],[24.4462,43.6791,27.9354],[24.4386,43.693,26.838],[24.4447,43.7076,25.6348],[24.4541,43.7166,26.2824],[24.4583,43.7253,25.1628],[24.4596,43.7366,24.8991],[24.4554,43.7451,19.5],[24.4476,43.7423,19.5],[24.4459,43.7449,19.5],[24.4441,43.7447,19.5],[24.4092,43.7369,37.7907],[24.3984,43.7291,34.9289],[24.396,43.7255,35.6603],[24.3844,43.7199,37.0835],[24.3808,43.7161,26.4683],[24.3831,43.7131,20.0],[24.3501,43.6977,20.0],[24.3211,43.7003,20.0],[24.3117,43.6823,164.7151],[24.3045,43.6619,121.3887],[24.2972,43.6516,157.3165],[24.2868,43.6513,159.7007],[24.2757,43.6613,170.7107],[24.2717,43.6624,174.4369],[24.2665,43.6603,177.6668],[24.2644,43.649,131.4347],[24.2625,43.6455,151.2424],[24.2606,43.645,131.0125],[24.2533,43.6474,125.6746],[24.2334,43.6627,150.2022],[24.2217,43.6635,182.9485],[24.2118,43.6547,146.7349],[24.1915,43.6224,156.4206],[24.1831,43.6155,154.5423],[24.1708,43.6105,152.8626],[24.1517,43.6127,154.2877],[24.1472,43.609,154.0623],[24.1477,43.6007,149.4249],[24.1506,43.5967,140.6622],[24.1667,43.5826,142.1236],[24.1895,43.5658,137.7546],[24.2138,43.5727,106.5594],[24.2496,43.5742,102.6783],[24.2673,43.5805,107.8446],[24.2856,43.5797,99.486],[24.296,43.5834,58.3481],[24.3116,43.5916,106.5319],[24.315,43.5952,109.6376],[24.3176,43.6049,105.8758],[24.3211,43.6057,103.3287],[24.3291,43.5955,49.322],[24.338,43.5913,37.8864],[24.3324,43.5853,37.9753],[24.323,43.5789,39.2784],[24.3183,43.573,38.2507],[24.3188,43.571,44.7906],[24.3243,43.5685,70.914],[24.3418,43.5681,96.5495],[24.3471,43.5648,140.4816],[24.3497,43.5556,151.7599],[24.3528,43.5524,155.4799],[24.3541,43.5447,168.0859],[24.3357,43.485,169.1608],[24.3367,43.4784,167.3815],[24.3427,43.4703,166.7762],[24.3503,43.4664,163.4283],[24.3672,43.4636,152.9159],[24.4379,43.4652,114.3005],[24.4572,43.4618,92.2815],[24.4879,43.4504,95.1033]]]]}}