{"type": "Feature","bbox": [22.7405,42.8422,23.1161,43.0246],"geometry": {"type": "MultiPolygon","coordinates": [[[[22.8554,42.8442,884.9285],[22.8643,42.8461,841.2828],[22.8727,42.853,706.847],[22.8777,42.8603,694.4913],[22.8952,42.8682,676.2514],[22.9061,42.8847,668.2899],[22.909,42.8866,678.6752],[22.9162,42.8895,677.3093],[22.9391,42.891,713.1187],[22.9447,42.8937,710.233],[22.9525,42.9019,724.4865],[22.9553,42.9029,743.8107],[22.9639,42.9021,732.5419],[22.9893,42.8948,661.3718],[23.0614,42.8987,750.5344],[23.0839,42.9022,867.9678],[23.1078,42.8999,762.858],[23.1129,42.9032,775.0782],[23.1143,42.9088,871.7288],[23.1106,42.9247,922.1591],[23.1161,42.9377,900.9644],[23.1156,42.9483,798.6918],[23.0974,42.9619,978.6239],[23.0955,42.9663,895.2781],[23.0856,42.9634,897.3339],[23.0534,42.9587,1010.7257],[23.0175,42.9562,1018.5489],[22.9871,42.9549,1068.5803],[22.9583,42.9584,928.2078],[22.9405,42.9658,899.2212],[22.9315,42.9733,785.9006],[22.9288,42.982,744.7566],[22.929,42.9923,647.2411],[22.9241,43.003,651.7927],[22.9231,43.011,639.2415],[22.9174,43.0162,616.2596],[22.9091,43.0204,640.8784],[22.9017,43.0221,661.1129],[22.8885,43.0223,676.8527],[22.8747,43.0246,681.2094],[22.8391,43.0067,516.565],[22.8265,42.99,666.1202],[22.8238,42.9818,810.1077],[22.8218,42.9802,859.0045],[22.7702,42.962,732.8975],[22.7699,42.9387,554.6626],[22.7674,42.9349,621.9144],[22.7678,42.9297,636.0331],[22.7649,42.9282,614.9667],[22.7606,42.9292,613.1847],[22.7542,42.9252,607.2106],[22.7613,42.9141,777.9729],[22.7622,42.9093,812.0819],[22.7593,42.9023,795.4483],[22.7478,42.8933,792.8195],[22.7431,42.8824,931.1643],[22.7405,42.8809,1002.7368],[22.7542,42.8764,867.1774],[22.7677,42.8687,913.5421],[22.772,42.8616,854.0048],[22.7749,42.8459,938.6416],[22.79,42.8463,925.2543],[22.8154,42.8422,991.6544],[22.8277,42.8445,1084.2059],[22.8354,42.8483,913.1171],[22.846,42.85,899.7941],[22.8533,42.8475,825.4637],[22.8554,42.8442,884.9285]]]]}
,"properties": {"GID_2": "BGR.21.7_1","GID_0": "BGR","country": "Bulgaria","GID_1": "BGR.21_1","state": "Sofia","NL_NAME_1": "Sofija","county": "Dragoman","VARNAME_2": "NA","NL_NAME_2": "NA","TYPE_2": "Obshtina","ENGTYPE_2": "Municipality","CC_2": "NA","HASC_2": "BG.SF.DR","name": "Dragoman.county","area_km2": 316.3567,"hist_schema_id": "Elevation0-9000","hist_area_km2": {"475": 1.3026,"500": 2.6988,"525": 4.4528,"550": 5.8355,"575": 9.7342,"600": 13.4304,"625": 18.0113,"650": 21.4693,"675": 23.1121,"700": 29.4333,"725": 36.3606,"750": 27.9311,"775": 21.7511,"800": 24.5754,"825": 21.4393,"850": 16.0215,"875": 12.6528,"900": 9.0512,"925": 5.7594,"950": 3.3847,"975": 1.925,"1000": 1.5371,"1025": 1.4287,"1050": 1.0092,"1075": 0.7919,"1100": 0.4657,"1125": 0.357,"1150": 0.2638,"1175": 0.1397,"1200": 0.031}}}