{"type": "Feature","bbox": [24.9751,43.1796,25.1731,43.3971],"geometry": {"type": "MultiPolygon","coordinates": [[[[25.1071,43.1796,403.3622],[25.1238,43.182,447.263],[25.1347,43.1851,417.8204],[25.1406,43.1886,411.6813],[25.1416,43.1933,382.5647],[25.1376,43.215,351.5411],[25.1414,43.2206,352.0982],[25.1643,43.2428,225.4337],[25.1731,43.2627,152.5324],[25.1731,43.2697,154.4392],[25.1711,43.2769,160.5311],[25.1687,43.2818,157.0602],[25.1605,43.2887,154.5549],[25.1087,43.3123,66.9563],[25.0991,43.3253,73.4061],[25.0973,43.3378,80.3792],[25.0854,43.365,90.1516],[25.0794,43.3743,89.4725],[25.0697,43.3842,89.4103],[25.0549,43.3921,82.58],[25.0346,43.3971,99.4717],[25.0313,43.3962,98.4736],[25.0293,43.395,89.7848],[25.0268,43.3873,108.5823],[25.0262,43.3711,99.5489],[25.0199,43.3622,111.3329],[25.0171,43.3522,100.0602],[24.9929,43.3367,118.5293],[24.986,43.336,121.078],[24.9751,43.3276,129.7678],[24.9788,43.3244,124.7509],[25.0067,43.3137,104.8607],[25.0175,43.3072,97.1428],[25.0245,43.3004,93.4833],[25.0291,43.293,82.4716],[25.0345,43.2688,80.9685],[25.0338,43.2645,89.3333],[25.0292,43.2592,93.9786],[25.0242,43.2578,97.5346],[24.9885,43.2559,90.16],[24.98,43.2518,108.0996],[24.9751,43.2444,183.1713],[24.9766,43.2354,336.9575],[24.9812,43.2248,389.6611],[24.9889,43.2214,414.6852],[25.0033,43.2097,420.9201],[25.028199999999998,43.1981,417.2698],[25.0617,43.1899,457.5291],[25.0773,43.1844,449.4183],[25.1071,43.1796,403.3622]]]]}
,"properties": {"GID_2": "BGR.9.2_1","GID_0": "BGR","country": "Bulgaria","GID_1": "BGR.9_1","state": "Lovech","NL_NAME_1": "Ловеч","county": "Letnitsa","VARNAME_2": "NA","NL_NAME_2": "NA","TYPE_2": "Obshtina","ENGTYPE_2": "Municipality","CC_2": "NA","HASC_2": "BG.LV.LE","name": "Letnitsa.county","area_km2": 218.1414,"hist_schema_id": "Elevation0-9000","hist_area_km2": {"75": 35.1755,"100": 51.1552,"125": 15.0305,"150": 12.613,"175": 15.8868,"200": 10.6393,"225": 4.9422,"250": 3.7687,"275": 4.186,"300": 5.3758,"325": 8.265,"350": 9.8111,"375": 13.598,"400": 15.7782,"425": 10.1227,"450": 1.7467,"475": 0.0464}}}