{"type": "Feature","bbox": [22.8019,43.1898,23.1482,43.508],"geometry": {"type": "MultiPolygon","coordinates": [[[[23.1174,43.3873,215.7871],[23.1441,43.4072,260.4862],[23.1482,43.4141,368.8033],[23.1472,43.4174,440.3136],[23.1404,43.4197,446.6491],[23.1102,43.424,358.8663],[23.0953,43.4299,442.2661],[23.0708,43.4569,554.8917],[23.0534,43.4627,395.0723],[23.0471,43.4666,419.9786],[23.0334,43.505,297.5175],[23.028,43.508,259.4588],[23.0211,43.5078,276.0344],[23.0124,43.5046,297.989],[22.9922,43.4869,398.6833],[22.9882,43.483,432.1563],[22.9798,43.4676,813.4309],[22.996,43.4575,481.9939],[23.0074,43.4336,324.6458],[23.0115,43.4296,310.9418],[23.0249,43.4217,264.3824],[23.0269,43.4163,239.667],[23.002,43.4072,345.3184],[22.9839,43.3958,511.4353],[22.9598,43.3883,473.6527],[22.945,43.3789,742.0125],[22.9231,43.3738,529.7596],[22.9047,43.3629,641.0413],[22.8836,43.3539,647.6826],[22.8615,43.3483,876.9925],[22.8395,43.3462,1239.655],[22.8228,43.3364,1687.1521],[22.8019,43.3213,1564.5417],[22.804,43.3186,1470.3126],[22.8077,43.2987,1847.1282],[22.8217,43.2865,1542.8384],[22.8195,43.2755,1440.658],[22.8251,43.2654,1250.1776],[22.8387,43.2627,1107.6143],[22.8453,43.2572,1049.7697],[22.8463,43.2442,994.8668],[22.8578,43.2332,1102.8032],[22.8625,43.226,1144.4318],[22.8707,43.2207,1323.2305],[22.8739,43.2142,1457.5292],[22.8828,43.2106,1421.0178],[22.894,43.2089,1414.7166],[22.916,43.1923,1344.1409],[22.9338,43.1975,1480.5392],[22.9487,43.1949,1585.6069],[22.954,43.1923,1434.0638],[22.9577,43.1929,1448.3901],[22.9619,43.1898,1601.8013],[22.997,43.1933,1837.6555],[23.0108,43.198,1842.4889],[23.0058,43.2069,1743.6887],[23.005,43.2356,1281.4631],[23.002,43.2406,1066.2769],[22.9996,43.2498,1137.2379],[23.0001,43.2584,1024.5966],[23.0043,43.2652,805.228],[23.0224,43.277,637.5396],[23.0256,43.2852,753.9568],[23.0221,43.3044,557.7676],[23.0153,43.3212,472.3389],[23.0159,43.3293,464.6078],[23.023,43.3333,610.1972],[23.0314,43.3412,570.1807],[23.0331,43.3552,520.6299],[23.0355,43.3595,686.4669],[23.0475,43.3652,532.451],[23.052,43.3706,396.5702],[23.0622,43.3777,302.8616],[23.0697,43.38,286.777],[23.0934,43.3813,280.4032],[23.1174,43.3873,215.7871]]]]}
,"properties": {"GID_2": "BGR.10.5_1","GID_0": "BGR","country": "Bulgaria","GID_1": "BGR.10_1","state": "Montana","NL_NAME_1": "Монтана","county": "GeorgyDamyanovo","VARNAME_2": "GeorgiDamyanovo","NL_NAME_2": "NA","TYPE_2": "Obshtina","ENGTYPE_2": "Municipality","CC_2": "NA","HASC_2": "BG.MT.GD","name": "GeorgyDamyanovo.county","area_km2": 382.8717,"hist_schema_id": "Elevation0-9000","hist_area_km2": {"175": 0.3081,"200": 4.8683,"225": 6.9785,"250": 7.1481,"275": 10.8128,"300": 12.4749,"325": 11.8901,"350": 12.5386,"375": 12.6173,"400": 11.8802,"425": 11.7427,"450": 11.6986,"475": 11.0223,"500": 11.4244,"525": 11.0861,"550": 11.7496,"575": 11.488,"600": 10.9793,"625": 10.7951,"650": 9.5935,"675": 9.3009,"700": 8.3914,"725": 7.4511,"750": 6.927,"775": 6.6959,"800": 6.2648,"825": 5.8173,"850": 5.5246,"875": 5.2318,"900": 4.5682,"925": 4.2288,"950": 4.1524,"975": 3.5659,"1000": 3.2267,"1025": 3.1804,"1050": 3.0879,"1075": 2.98,"1100": 3.196,"1125": 3.011,"1150": 2.7638,"1175": 2.9491,"1200": 2.9956,"1225": 3.0883,"1250": 3.0418,"1275": 3.1037,"1300": 3.1345,"1325": 2.9494,"1350": 3.1501,"1375": 3.0882,"1400": 3.3819,"1425": 3.6908,"1450": 3.3361,"1475": 3.6449,"1500": 3.3673,"1525": 3.8464,"1550": 3.8465,"1575": 3.6302,"1600": 3.4141,"1625": 3.1824,"1650": 3.3211,"1675": 2.1934,"1700": 1.9149,"1725": 1.5598,"1750": 0.8336,"1775": 0.7408,"1800": 0.7871,"1825": 0.6482,"1850": 1.2497,"1875": 1.62,"1900": 1.4194,"1925": 0.9103,"1950": 0.1697}}}