{"type":"Feature","properties":{"ISO3166-1-Alpha-3":"BGR","country":"Bulgaria","fill":"#F00","id":"2236","name":"Smolyan"},
"geometry":{"type": "Polygon","coordinates": [[[24.56256,41.88525,1668.8073],[24.45115,41.94943,617.8703],[24.43988,41.92152,659.9255],[24.42397,41.88951,531.0],[24.38686,41.87543,1086.8025],[24.35772,41.86148,1331.2656],[24.31524,41.8174,1582.115],[24.31462,41.77104,1129.7546],[24.27131,41.74195,1416.0671],[24.21426,41.74071,1491.125],[24.19504,41.72712,1567.7417],[24.17716,41.72813,1616.2566],[24.18471,41.74575,1607.4008],[24.18925,41.76409,1572.5406],[24.14957,41.79114,1628.8525],[24.09965,41.79706,1570.3083],[24.06306,41.792,1605.1158],[24.06637,41.76794,1697.697],[24.08466,41.75699,1636.4836],[24.09965,41.74205,1558.8303],[24.10233,41.70939,1439.4744],[24.07257,41.68634,1530.7211],[24.087039999999998,41.68092,1406.8314],[24.09634,41.66831,1582.6248],[24.12311,41.65462,1408.619],[24.10357,41.63663,1304.4689],[24.07794,41.62402,1022.183],[24.19731,41.54796,1500.2548],[24.1977,41.54771,1500.2548],[24.21437,41.55576,1482.86],[24.23328,41.56181,1363.7808],[24.25075,41.56346,1476.0996],[24.26687,41.54976,1420.6873],[24.2864,41.54036,1644.443],[24.28733,41.53163,1756.1445],[24.28506,41.52315,1669.8413],[24.28682,41.51762,1666.1244],[24.29612,41.51524,1647.2745],[24.30304,41.51695,1650.7324],[24.30955,41.51979,1648.771],[24.31824,41.52077,1499.3435],[24.345,41.5184,1508.5723],[24.35389,41.51912,1535.8832],[24.38748,41.52667,1276.5979],[24.40288,41.52785,1278.1271],[24.42397,41.52522,1350.5347],[24.43885,41.5277,1546.4966],[24.45921,41.54951,1807.9058],[24.48133,41.55323,1822.7711],[24.51016,41.56165,1894.4611],[24.53094,41.54754,1785.9415],[24.54334,41.52134,1365.5818],[24.54654,41.49364,834.6156],[24.54944,41.48543,918.5809],[24.55357,41.48078,829.1176],[24.55874,41.47685,767.8735],[24.56411,41.47106,823.9293],[24.56773,41.46812,855.1075],[24.57724,41.46357,968.8324],[24.58106,41.460209999999996,1058.5615],[24.5822,41.45525,1083.0675],[24.57972,41.44419,1147.4462],[24.58044,41.44052,1188.6067],[24.59584,41.42977,1298.7595],[24.60948,41.42724,1534.222],[24.64431,41.42765,1530.9927],[24.63822,41.41768,1455.0098],[24.66126,41.41768,1611.2825],[24.6809,41.41551,1539.5116],[24.69919,41.40895,1511.1189],[24.71873,41.39572,1422.5089],[24.75263,41.36275,1441.7866],[24.77444,41.34807,1500.088],[24.79428,41.3474,1484.3386],[24.80286,41.36192,1467.0203],[24.80017,41.37934,1286.8374],[24.80327,41.39267,1098.8978],[24.84213,41.39474,927.4235],[24.86301,41.40032,1063.4456],[24.87293,41.40187,1053.5139],[24.88637,41.40063,1347.8629],[24.91696,41.38636,778.7186],[25.08036,41.33407,474.661],[25.09679,41.3367,665.7775],[25.10186,41.33665,673.2095],[25.10485,41.33407,691.02],[25.11261,41.32415,363.3621],[25.11653,41.32073,395.1131],[25.15385,41.30754,447.8501],[25.15478,41.31831,631.0934],[25.1464,41.36551,445.6249],[25.14971,41.37505,457.0677],[25.15478,41.38375,445.1021],[25.14382,41.39603,652.0186],[25.13483,41.4082,671.0817],[25.14826,41.4306,484.4827],[25.15178,41.45533,693.2443],[25.14692,41.46465,780.8954],[25.15291,41.47747,729.6656],[25.14206,41.52349,910.6129],[25.08863,41.51201,732.4382],[25.07075,41.4916,972.9949],[25.04708,41.50052,814.4733],[25.02755,41.52865,829.8193],[25.01163,41.55899,623.9192],[24.99365,41.57751,941.0096],[24.99344,41.59968,1061.8577],[25.01473,41.60578,876.861],[25.03747,41.60255,714.7197],[25.06506,41.60772,651.0956],[25.09018,41.62172,666.0678],[25.0939,41.62924,700.5825],[25.08625,41.63872,1121.5959],[25.08439,41.6618,859.3607],[25.09101,41.68138,588.1094],[25.07705,41.69193,596.4535],[25.0661,41.72536,693.4658],[25.04894,41.74358,857.059],[25.0383,41.76081,1128.3192],[25.04956,41.7806,1169.4639],[25.06713,41.79497,864.7405],[25.05018,41.80076,814.6898],[25.03127,41.80094,782.0668],[24.99375,41.83895,1105.7437],[24.96688,41.83238,1001.4521],[24.93381,41.8314,1299.9569],[24.91438,41.85807,1018.2443],[24.88978,41.87494,776.934],[24.84523,41.89582,1180.4951],[24.80875,41.93098,933.0286],[24.76017,41.94114,1196.6998],[24.71098,41.93651,1250.171],[24.65909,41.92535,1561.4775],[24.61031,41.90184,1490.0752],[24.56256,41.88525,1668.8073]]]}}