{"type": "Feature","id": 138345.0,"bbox": [24.033946159771233,41.656561590619077,24.158946159771233,41.734991766400327],"geometry": {"type": "Polygon","coordinates": [[[24.153819206646233,41.656561590619077,1194.5],[24.153819206646233,41.656561590619077,1194.5],[24.158946159771233,41.663214422650327,1194.5],[24.155772331646233,41.678717352337827,1328.7496],[24.134287956646233,41.685736395306577,1332.8402],[24.109141472271233,41.694830633587827,1293.6736],[24.092051628521233,41.712774969525327,1278.5125],[24.062266472271233,41.732306219525327,1376.9102],[24.033946159771233,41.734991766400327,1224.5989],[24.037852409771233,41.722540594525327,1194.5],[24.068003776958733,41.706732489056577,1194.5],[24.103892448833733,41.685431219525327,1194.5],[24.135508659771233,41.666876532025327,1194.5],[24.153819206646233,41.656561590619077,1194.5]]]}
,"properties": {"fillOpacity": 1,"fill": "#F0F","name": "null-90","title": "null-90","lge_id": null,"pfafstette": 49115.0,"lke_type": "N","altitude": 1195,"objectid": 85709,"scalerank": 12,"featurecla": "Lake","note": "_untitled_85709","funkyname": 0,"min_zoom": 7.0,"min_label": 8.0,"area_km2": 20.45326,"hist_schema_id": "Elevation0-9000","hist_area_km2": {"1200": 12.22139,"1225": 2.70696,"1250": 1.97882,"1275": 1.37717,"1300": 1.10813,"1325": 0.47496,"1350": 0.26916,"1375": 0.22167,"1400": 0.01583,"1425": 0.0475,"1450": 0.03167}}}