{"type": "Feature","bbox": [24.0679,41.32,25.1901,41.9332],"geometry": {"type": "MultiPolygon","coordinates": [[[[25.1668,41.4307,733.1293],[25.1586,41.4303,647.8329],[25.1547,41.4313,525.1671],[25.1538,41.4337,544.9686],[25.1694,41.4429,733.2764],[25.1744,41.4498,638.8535],[25.1818,41.4518,684.0139],[25.1835,41.4739,866.6584],[25.1888,41.4776,768.5048],[25.1901,41.4804,748.9273],[25.189,41.4917,801.3669],[25.1779,41.5014,858.0092],[25.1677,41.505,867.3969],[25.1501,41.5053,1078.6387],[25.1332,41.5032,895.7488],[25.1152,41.4964,817.8237],[25.1018,41.4942,852.7763],[25.0687,41.493899999999996,864.1813],[25.0388,41.5115,704.4281],[25.0396,41.5208,753.4373],[25.0364,41.5313,703.1584],[25.0155,41.5507,642.4685],[25.0117,41.5575,564.8977],[25.0118,41.5681,692.2725],[25.0137,41.5744,911.3038],[25.017,41.5782,907.7709],[25.0359,41.5817,759.3548],[25.0891,41.5829,1003.0703],[25.1145,41.5959,1009.7618],[25.1223,41.6033,831.5729],[25.1275,41.6129,643.4667],[25.1258,41.6211,486.449],[25.1213,41.6301,451.0245],[25.1212,41.64,607.1107],[25.1307,41.6564,415.1517],[25.1301,41.6597,526.9968],[25.124,41.6663,594.4381],[25.1059,41.6944,702.1189],[25.1054,41.7008,853.041],[25.0998,41.7143,1143.9113],[25.1006,41.7186,1149.0505],[25.0964,41.7225,1029.2434],[25.0957,41.7275,1145.2174],[25.0891,41.7408,982.1057],[25.0888,41.7564,1118.0828],[25.0927,41.7667,925.4544],[25.0984,41.772,793.6378],[25.114,41.7775,550.3644],[25.1019,41.7795,542.0989],[25.0895,41.7843,620.3874],[25.0707,41.7867,885.5999],[25.0637,41.7941,916.1536],[25.0617,41.8038,701.9683],[25.0592,41.8075,884.6812],[25.04,41.8193,956.7654],[25.029,41.8234,886.7172],[25.0195,41.823,1021.4373],[25.001,41.8132,880.3988],[24.9805,41.8058,1178.2656],[24.9766,41.8018,1302.8943],[24.9755,41.7877,1066.6062],[24.9787,41.7651,1050.4026],[24.9834,41.7594,1243.3716],[24.9968,41.7519,1228.0146],[24.997,41.7473,1184.521],[24.9946,41.7422,1224.5223],[24.9812,41.7316,1270.1572],[24.9739,41.7289,1358.3109],[24.9612,41.7293,1496.4579],[24.9452,41.733,1701.8789],[24.9277,41.7392,1690.5524],[24.9128,41.7399,1824.3002],[24.9037,41.7379,1530.1685],[24.8991,41.7313,1444.3162],[24.899,41.7099,1842.2025],[24.8833,41.7021,1532.921],[24.8757,41.6964,1689.2646],[24.8616,41.6741,1537.0776],[24.854,41.6706,1687.8015],[24.8488,41.6706,1696.9564],[24.8425,41.6748,1807.7802],[24.8375,41.6866,1734.7947],[24.8296,41.6981,1592.4224],[24.8118,41.7067,1743.6506],[24.8046,41.7128,1726.7094],[24.8023,41.7271,1704.0181],[24.8083,41.7413,1359.4668],[24.8182,41.753,1532.3789],[24.8185,41.7616,1439.3717],[24.8092,41.7625,1124.2095],[24.7953,41.7603,1400.3113],[24.7939,41.7639,1262.4785],[24.7952,41.7768,1475.829],[24.7933,41.7791,1398.8508],[24.7861,41.777,1320.4182],[24.7804,41.7689,1526.7806],[24.775,41.7697,1685.8049],[24.7623,41.7891,1569.3226],[24.7639,41.7976,1553.363],[24.7775,41.8012,1220.3394],[24.7831,41.8072,1282.8059],[24.7873,41.8201,1077.4131],[24.8003,41.8268,868.4991],[24.8012,41.8316,1032.9803],[24.7955,41.8407,1333.0349],[24.7882,41.8676,1155.4301],[24.782,41.8684,1219.4402],[24.7747,41.8744,1341.817],[24.7639,41.8788,911.3364],[24.7357,41.8786,1134.3669],[24.7233,41.8856,974.1233],[24.7103,41.886,838.6277],[24.6909,41.8897,851.8882],[24.6845,41.8936,1049.4078],[24.6818,41.8971,1030.09],[24.6557,41.8903,1176.3693],[24.634,41.8868,1147.2285],[24.6181,41.8867,1152.6392],[24.579,41.8812,1455.6351],[24.5584,41.8808,1732.6321],[24.532,41.8901,1787.7986],[24.5235,41.8977,1801.2975],[24.5139,41.9128,1555.834],[24.5034,41.9223,1534.2727],[24.4929,41.9233,1500.7516],[24.476,41.9179,1177.0034],[24.4623,41.9179,921.6984],[24.4461,41.9225,789.578],[24.4305,41.9332,608.3508],[24.4214,41.9247,740.6643],[24.4169,41.9176,749.1186],[24.4157,41.9108,925.7339],[24.4181,41.9069,797.6246],[24.418,41.8945,787.9069],[24.4081,41.879,910.043],[24.3883,41.8622,927.093],[24.3604,41.8481,1333.2126],[24.3463,41.8385,1310.8447],[24.3363,41.8215,1438.2288],[24.3221,41.8065,1306.7084],[24.3189,41.7909,1216.1326],[24.3208,41.7754,1348.1573],[24.3253,41.7655,1147.7314],[24.3353,41.7577,1008.4583],[24.3216,41.7502,1062.4709],[24.3074,41.7449,1224.6895],[24.2914,41.7327,1212.9958],[24.2829,41.7307,1349.7446],[24.2677,41.72,1363.4465],[24.2636,41.7196,1459.1743],[24.2386,41.7272,1582.0654],[24.2221,41.7294,1486.3724],[24.2096,41.7348,1521.7601],[24.2014,41.7352,1471.1188],[24.18,41.7283,1629.4412],[24.1668,41.728,1513.2419],[24.1442,41.7246,1562.9368],[24.1134,41.7236,1547.4596],[24.1116,41.7194,1548.6748],[24.1137,41.7055,1529.7626],[24.1082,41.6975,1355.6993],[24.0951,41.6842,1194.5],[24.090699999999998,41.6711,1568.9172],[24.0861,41.6637,1550.3149],[24.1076,41.6525,1473.3231],[24.1091,41.6497,1455.8529],[24.1098,41.6407,1450.6749],[24.1063,41.6314,1265.5864],[24.0798,41.6104,1000.194],[24.0798,41.6026,974.696],[24.0859,41.5908,886.3615],[24.0874,41.5846,780.8737],[24.0861,41.5807,805.9131],[24.0787,41.5711,982.5656],[24.0681,41.5496,656.1161],[24.0679,41.5361,682.2209],[24.0705,41.5292,885.2035],[24.0721,41.5305,865.6832],[24.0727,41.5345,903.9146],[24.0752,41.5355,948.2311],[24.0762,41.5393,970.1047],[24.0995,41.5487,1326.0582],[24.1028,41.5469,1289.2214],[24.1055,41.5409,1356.5842],[24.1112,41.5406,1357.1606],[24.1182,41.5373,1372.5581],[24.1247,41.5393,1390.3446],[24.1302,41.5384,1407.0656],[24.1322,41.5315,1382.9519],[24.1388,41.5325,1343.9784],[24.1485,41.5365,1363.3779],[24.158,41.5347,1461.098],[24.1592,41.5338,1485.5786],[24.1598,41.5266,1442.6416],[24.1642,41.526,1480.5891],[24.1666,41.5227,1474.7139],[24.1735,41.5204,1503.1855],[24.1706,41.5153,1517.3588],[24.1786,41.5159,1476.5037],[24.1854,41.5205,1454.6418],[24.1822,41.5293,1394.1002],[24.1875,41.5306,1512.9133],[24.1896,41.5354,1539.9207],[24.1933,41.5355,1535.5721],[24.1963,41.5388,1569.2003],[24.2023,41.5409,1550.6696],[24.2009,41.5444,1493.5728],[24.2113,41.5501,1511.26],[24.215699999999998,41.5475,1506.5372],[24.2228,41.5465,1487.9624],[24.2318,41.5529,1491.7299],[24.2326,41.5578,1371.2471],[24.2367,41.5584,1384.2383],[24.2411,41.5629,1448.053],[24.244,41.5622,1459.136],[24.2456,41.5653,1476.3888],[24.2508,41.5655,1496.8459],[24.2533,41.5685,1490.4398],[24.2578,41.5651,1485.7883],[24.2633,41.5654,1479.7286],[24.2664,41.5635,1492.3324],[24.2618,41.5559,1482.3856],[24.2635,41.5537,1467.9863],[24.2781,41.5487,1437.5735],[24.2877,41.5422,1583.5461],[24.289,41.5381,1589.8198],[24.2935,41.5355,1647.1667],[24.2894,41.5279,1774.1879],[24.2867,41.5267,1792.6501],[24.286,41.5237,1669.8413],[24.2906,41.5228,1778.1179],[24.2891,41.5184,1671.7393],[24.2913,41.5169,1632.8572],[24.2918,41.5136,1612.1],[24.2951,41.5112,1572.8572],[24.2975,41.5134,1618.2686],[24.3047,41.5138,1643.4941],[24.3087,41.5181,1625.7003],[24.3176,41.5204,1539.9635],[24.3212,41.5197,1531.7817],[24.3282,41.5251,1473.1393],[24.3416,41.5224,1558.6759],[24.3414,41.5236,1558.6759],[24.3472,41.5244,1556.906],[24.3553,41.5214,1567.0416],[24.3561,41.5184,1563.7471],[24.3581,41.5173,1581.5798],[24.3576,41.5206,1584.0797],[24.3618,41.5211,1538.989],[24.3675,41.5279,1455.7754],[24.3739,41.5325,1598.3701],[24.3812,41.5317,1595.6338],[24.3852,41.5352,1606.5732],[24.3915,41.5344,1591.1337],[24.3957,41.5362,1412.8409],[24.4001,41.5339,1349.0319],[24.4002,41.5283,1231.4866],[24.4041,41.5258,1385.8098],[24.4141,41.5261,1372.3938],[24.4212,41.5231,1381.3547],[24.4285,41.5258,1334.6906],[24.435,41.5197,1181.1498],[24.4392,41.5192,1199.7745],[24.4429,41.5204,1254.2319],[24.4474,41.5245,1541.0361],[24.4508,41.5251,1487.79],[24.4519,41.5315,1545.1079],[24.4507,41.5341,1482.8496],[24.454,41.5383,1540.1217],[24.4595,41.5401,1755.7383],[24.462,41.5435,1781.7437],[24.4665,41.5437,1763.8348],[24.4702,41.5464,1838.0452],[24.4703,41.5489,1779.7856],[24.4743,41.5514,1881.5936],[24.4805,41.5525,1822.7711],[24.4812,41.5555,1805.7091],[24.4879,41.5554,1800.7061],[24.4918,41.5519,1860.3953],[24.4969,41.5571,1889.6404],[24.5082,41.5559,1862.2129],[24.5192,41.5652,1852.6138],[24.5237,41.5666,1791.9667],[24.534,41.5628,1788.6021],[24.5337,41.5602,1801.9274],[24.5392,41.5584,1800.9319],[24.5369,41.5509,1787.6263],[24.5379,41.5497,1817.2445],[24.5463,41.5519,1767.0195],[24.5553,41.5451,1674.2296],[24.5557,41.5425,1615.7158],[24.5514,41.5404,1693.5857],[24.5473,41.5346,1681.8682],[24.5532,41.5265,1611.2209],[24.5565,41.5247,1628.9434],[24.5574,41.5218,1569.2565],[24.5548,41.5201,1540.7769],[24.5608,41.5136,1355.0919],[24.5612,41.5094,1299.2059],[24.5587,41.5041,1362.5217],[24.5542,41.4998,1328.0896],[24.5587,41.4973,1252.7474],[24.558,41.4929,1080.9846],[24.5626,41.4886,1208.7329],[24.5623,41.48,969.7684],[24.565,41.477,951.3758],[24.5631,41.4738,838.5014],[24.5753,41.4716,1042.7406],[24.5769,41.4673,1016.6498],[24.5941,41.4636,1212.11],[24.5978,41.4531,1234.4408],[24.5949,41.451,1242.2075],[24.5943,41.4445,1120.9309],[24.5993,41.4319,1405.532],[24.6045,41.4298,1447.4027],[24.6139,41.433,1466.3796],[24.6294,41.4302,1543.9019],[24.6368,41.4328,1514.1941],[24.647,41.4321,1622.2921],[24.6525,41.429,1511.6569],[24.6448,41.4255,1507.6173],[24.6451,41.4202,1475.8125],[24.6405,41.4187,1405.0219],[24.6444,41.4157,1422.9592],[24.6481,41.4183,1500.672],[24.66,41.4162,1644.3538],[24.6679,41.4208,1527.4192],[24.6748,41.4193,1622.5957],[24.6795,41.422,1548.4988],[24.6867,41.4199,1567.3177],[24.6911,41.4152,1573.0718],[24.7073,41.4176,1578.3147],[24.7155,41.4167,1555.7604],[24.72,41.4134,1493.5673],[24.7238,41.4145,1514.9755],[24.7281,41.4132,1538.4351],[24.7342,41.4073,1464.7007],[24.7323,41.4023,1441.865],[24.7347,41.3962,1486.4501],[24.7337,41.3944,1500.7571],[24.7409,41.3886,1569.2251],[24.7398,41.3854,1542.7903],[24.7442,41.3827,1598.7584],[24.743,41.3799,1536.0498],[24.7443,41.3779,1580.1158],[24.7601,41.3739,1646.7935],[24.7587,41.3701,1590.36],[24.7647,41.3649,1604.5353],[24.778,41.3587,1669.7708],[24.7881,41.3569,1594.9282],[24.7893,41.3536,1598.0386],[24.7989,41.346,1546.1044],[24.8018,41.3488,1529.2172],[24.802,41.3544,1551.7354],[24.8044,41.3586,1567.0568],[24.8028,41.3608,1467.0203],[24.803,41.3654,1341.3611],[24.8058,41.3678,1282.9669],[24.8077,41.3754,1329.1477],[24.8125,41.3801,1398.6483],[24.8098,41.391,988.1272],[24.8103,41.3956,1086.6985],[24.8191,41.3959,1343.2368],[24.8258,41.3933,1018.9681],[24.8468,41.3941,906.1791],[24.848,41.3906,880.3906],[24.8573,41.3863,880.3522],[24.8671,41.3888,1196.8132],[24.8732,41.3869,960.1229],[24.8776,41.394,1313.946],[24.887,41.4009,1347.8629],[24.8927,41.403,1283.7738],[24.9093,41.4035,1068.7104],[24.9116,41.3985,936.835],[24.9157,41.3976,1088.5176],[24.9194,41.3926,975.8239],[24.9302,41.3854,853.6442],[24.9323,41.3822,942.002],[24.9386,41.3814,969.3317],[24.9443,41.3835,982.4841],[24.9528,41.3783,757.2656],[24.9572,41.379,957.2494],[24.9685,41.372,712.4957],[24.9737,41.3737,856.2693],[24.9811,41.3728,1046.5869],[24.9859,41.3706,842.2274],[25.0094,41.3668,866.634],[25.0129,41.3644,738.3681],[25.0194,41.3644,822.4274],[25.0258,41.3615,690.8403],[25.0336,41.3639,880.4006],[25.0431,41.361,587.7279],[25.0477,41.3614,570.1884],[25.0488,41.3585,520.2177],[25.0558,41.3564,511.2393],[25.0581,41.3484,510.7402],[25.0612,41.3447,596.522],[25.0656,41.3426,530.4932],[25.0683,41.3386,573.0795],[25.0722,41.338,584.2368],[25.074,41.335,534.1374],[25.0841,41.3361,581.946],[25.087,41.3344,480.7094],[25.0864,41.3314,417.7115],[25.0901,41.331,559.668],[25.0944,41.3317,525.2908],[25.1033,41.3393,596.0972],[25.123,41.3398,538.4861],[25.1238,41.336,548.2681],[25.121,41.332,509.7528],[25.122,41.3289,582.8314],[25.1257,41.3277,675.7644],[25.126,41.3246,535.6946],[25.1308,41.3205,630.7835],[25.1355,41.32,554.0408],[25.1596,41.3365,540.8308],[25.1576,41.3496,446.9561],[25.1505,41.3544,437.4556],[25.1503,41.3596,509.7615],[25.1531,41.3694,543.5205],[25.1578,41.3772,500.1706],[25.1588,41.3826,379.0981],[25.1527,41.3945,533.1078],[25.1438,41.3981,617.4488],[25.1494,41.4029,489.2897],[25.1603,41.406,554.4669],[25.1777,41.4142,712.7128],[25.1819,41.417,761.2522],[25.1867,41.4238,694.991],[25.1863,41.4283,737.0061],[25.1824,41.4304,756.1572],[25.1668,41.4307,733.1293]]]]}
,"properties": {"GID_1": "BGR.20_1","GID_0": "BGR","country": "Bulgaria","state": "Smolyan","VARNAME_1": "Smoljan","NL_NAME_1": "Смолян","TYPE_1": "Oblast","ENGTYPE_1": "Province","CC_1": "NA","HASC_1": "BG.SM","ISO_1": "BG-21","name": "Smolyan.state","area_km2": 3307.854,"hist_schema_id": "Elevation0-9000","hist_area_km2": {"375": 0.239,"400": 1.05,"425": 3.356,"450": 6.52,"475": 8.905,"500": 12.495,"525": 18.51,"550": 19.905,"575": 22.348,"600": 24.377,"625": 26.203,"650": 28.831,"675": 34.681,"700": 35.536,"725": 38.094,"750": 42.245,"775": 47.854,"800": 54.674,"825": 58.491,"850": 65.419,"875": 66.273,"900": 68.345,"925": 73.131,"950": 75.844,"975": 78.128,"1000": 80.51,"1025": 79.928,"1050": 85.033,"1075": 87.295,"1100": 90.703,"1125": 90.493,"1150": 89.774,"1175": 89.065,"1200": 98.624,"1225": 90.812,"1250": 92.421,"1275": 90.702,"1300": 88.759,"1325": 92.352,"1350": 89.408,"1375": 83.465,"1400": 83.783,"1425": 84.907,"1450": 86.241,"1475": 85.93,"1500": 84.221,"1525": 76.55,"1550": 69.769,"1575": 59.679,"1600": 49.193,"1625": 40.081,"1650": 36.849,"1675": 31.558,"1700": 28.534,"1725": 26.494,"1750": 24.17,"1775": 21.906,"1800": 19.105,"1825": 16.378,"1850": 12.084,"1875": 9.36,"1900": 7.19,"1925": 4.911,"1950": 3.47,"1975": 2.725,"2000": 2.741,"2025": 2.71,"2050": 2.012,"2075": 1.886,"2100": 1.078,"2125": 0.793,"2150": 0.555,"2175": 0.19}}}