{"type":"Feature","properties":{"GID_2":"BGR.10.7_1","GID_0":"BGR","country":"Bulgaria","GID_1":"BGR.10_1","state":"Montana","NL_NAME_1":"Монтана","county":"Medkovets","VARNAME_2":"NA","NL_NAME_2":"NA","TYPE_2":"Obshtina","ENGTYPE_2":"Municipality","CC_2":"NA","HASC_2":"BG.MT.ME","name":"Medkovets.county"},
"geometry":{"type": "MultiPolygon","coordinates": [[[[23.0345,43.5973,208.4806],[23.0542,43.5928,194.6392],[23.0767,43.5846,206.9167],[23.1227,43.5575,203.7728],[23.1396,43.557,193.8084],[23.1497,43.5592,186.8072],[23.159,43.5735,180.9599],[23.1783,43.5789,160.8382],[23.1831,43.5822,162.8922],[23.1942,43.596,175.1956],[23.2209,43.6109,159.3193],[23.2296,43.6242,165.5269],[23.2227,43.6362,166.1674],[23.2256,43.6424,166.0955],[23.2275,43.6527,166.605],[23.26,43.6549,158.6019],[23.2717,43.6603,153.731],[23.2739,43.6639,153.9023],[23.2737,43.6803,149.973],[23.2812,43.6948,152.4684],[23.2879,43.7011,150.2218],[23.2906,43.7064,148.825],[23.2898,43.7116,142.1411],[23.278199999999998,43.7257,152.8206],[23.281,43.7374,158.7398],[23.2907,43.7515,158.886],[23.2485,43.7459,162.2451],[23.2053,43.7353,160.8286],[23.1719,43.7337,56.5356],[23.148,43.7353,76.8405],[23.1593,43.7256,60.6652],[23.1608,43.7225,58.4733],[23.16,43.6994,169.8744],[23.156,43.6915,168.0026],[23.1477,43.6879,171.9337],[23.1336,43.6911,169.9355],[23.1217,43.6909,153.1589],[23.1121,43.6854,180.1214],[23.1065,43.6793,126.009],[23.1001,43.6656,190.6329],[23.0877,43.6574,156.1367],[23.0812,43.6474,138.6852],[23.0712,43.6416,157.6316],[23.0617,43.6336,178.7095],[23.0549,43.6229,210.843],[23.0535,43.6163,216.571],[23.0507,43.6122,214.9063],[23.0345,43.5973,208.4806]]]]}}