{"type":"Feature","properties":{"GID_2":"BGR.22.7_1","GID_0":"BGR","country":"Bulgaria","GID_1":"BGR.22_1","state":"StaraZagora","NL_NAME_1":"СтараЗагора","county":"Nikolaevo","VARNAME_2":"NA","NL_NAME_2":"Николаево","TYPE_2":"Obshtina","ENGTYPE_2":"Municipality","CC_2":"NA","HASC_2":"BG.SZ.NI","name":"Nikolaevo.county"},
"geometry":{"type": "MultiPolygon","coordinates": [[[[25.7597,42.6279,273.6833],[25.7614,42.6173,270.4706],[25.7651,42.6127,269.0972],[25.7738,42.6078,269.4427],[25.7851,42.6064,267.4284],[25.7875,42.6044,267.5346],[25.7839,42.6006,268.767],[25.7704,42.5993,270.5354],[25.7659,42.5972,271.3636],[25.7519,42.5868,279.17],[25.7487,42.5795,296.7441],[25.7462,42.5774,302.08],[25.7314,42.5817,282.6585],[25.7261,42.581,280.5192],[25.7177,42.5757,294.3624],[25.7171,42.5714,369.8557],[25.7274,42.5567,599.0983],[25.7342,42.5407,708.7296],[25.7408,42.5407,741.1553],[25.7449,42.544,676.3722],[25.7532,42.547,753.1733],[25.7573,42.5459,833.6038],[25.7591,42.543,872.3839],[25.7668,42.5391,738.998],[25.7728,42.5392,719.2592],[25.7957,42.5496,529.1257],[25.8096,42.5527,669.2351],[25.8414,42.5499,550.3872],[25.8554,42.5535,558.5186],[25.863,42.5534,593.7266],[25.8643,42.566,474.4923],[25.8633,42.574,451.0571],[25.8539,42.5986,320.7063],[25.8535,42.615,260.5],[25.8495,42.625,264.6772],[25.8358,42.6369,400.3566],[25.8231,42.6388,273.7365],[25.8058,42.6377,273.6053],[25.7951,42.6471,294.9371],[25.7831,42.6461,290.1597],[25.7693,42.6471,394.4042],[25.7633,42.6447,485.7149],[25.7591,42.6389,490.1349],[25.758,42.6357,394.6923],[25.7597,42.6279,273.6833]]]]}}