{"type": "Feature","bbox": [23.1879,43.1082,23.4604,43.2908],"geometry": {"type": "MultiPolygon","coordinates": [[[[23.2173,43.1082,1478.8431],[23.2479,43.1115,1575.5193],[23.2784,43.1229,1355.8081],[23.2975,43.1197,1380.0972],[23.3114,43.121,1318.038],[23.3243,43.1299,1238.3418],[23.3338,43.1471,1097.1497],[23.3399,43.1539,995.2499],[23.3526,43.1616,719.7479],[23.3678,43.1627,626.7872],[23.3899,43.1593,1242.5956],[23.4206,43.1586,1063.0302],[23.4192,43.1625,799.765],[23.4089,43.1741,808.1586],[23.4036,43.1837,638.1825],[23.4029,43.1991,446.6242],[23.4045,43.2025,372.0934],[23.4108,43.2107,394.4691],[23.416,43.2132,473.4973],[23.426,43.2144,483.2653],[23.4474,43.2132,917.9727],[23.4548,43.2155,1057.3],[23.4579,43.2186,989.7357],[23.46,43.2252,945.1562],[23.4604,43.2312,1024.2528],[23.4586,43.238,960.0315],[23.4528,43.2468,876.1868],[23.4426,43.2561,755.8979],[23.4326,43.2615,588.294],[23.4078,43.265,440.3883],[23.3921,43.2652,272.1828],[23.3578,43.2732,278.5651],[23.336,43.2811,226.5192],[23.3212,43.2908,268.6745],[23.2908,43.2807,253.4456],[23.2357,43.2563,416.5257],[23.2271,43.2512,561.7717],[23.2253,43.2459,503.3101],[23.2261,43.2406,491.1705],[23.2326,43.2335,367.2468],[23.2447,43.225,311.9674],[23.245,43.2191,326.7438],[23.2305,43.211,387.1702],[23.221,43.1974,535.8804],[23.2088,43.1895,490.0252],[23.2062,43.1747,635.9396],[23.1928,43.1579,1184.9211],[23.1879,43.1459,1554.2771],[23.1894,43.1287,1693.4342],[23.1997,43.1187,1682.0168],[23.2173,43.1082,1478.8431]]]]}
,"properties": {"GID_2": "BGR.10.10_1","GID_0": "BGR","country": "Bulgaria","GID_1": "BGR.10_1","state": "Montana","NL_NAME_1": "Монтана","county": "Varshets","VARNAME_2": "NA","NL_NAME_2": "Вършец","TYPE_2": "Obshtina","ENGTYPE_2": "Municipality","CC_2": "NA","HASC_2": "BG.MT.VR","name": "Varshets.county","area_km2": 263.2534,"hist_schema_id": "Elevation0-9000","hist_area_km2": {"225": 1.8833,"250": 5.5889,"275": 12.7697,"300": 15.1657,"325": 14.3187,"350": 13.8419,"375": 14.4457,"400": 14.8485,"425": 13.3808,"450": 11.651,"475": 9.8903,"500": 9.18,"525": 8.4696,"550": 7.2802,"575": 6.245,"600": 5.2716,"625": 5.3182,"650": 4.6691,"675": 4.4062,"700": 3.9581,"725": 3.3861,"750": 3.1852,"775": 3.1079,"800": 3.0306,"825": 3.3398,"850": 2.6439,"875": 2.8606,"900": 3.2315,"925": 3.0924,"950": 3.324,"975": 3.556,"1000": 3.3084,"1025": 2.8605,"1050": 2.5202,"1075": 2.2417,"1100": 2.4897,"1125": 2.2272,"1150": 2.0883,"1175": 1.8409,"1200": 1.547,"1225": 1.3151,"1250": 1.3151,"1275": 1.3461,"1300": 1.5009,"1325": 1.439,"1350": 1.1605,"1375": 1.0212,"1400": 1.0058,"1425": 0.9594,"1450": 0.9284,"1475": 0.7737,"1500": 0.7737,"1525": 0.8666,"1550": 1.1451,"1575": 1.3154,"1600": 1.4083,"1625": 1.3309,"1650": 1.3773,"1675": 1.6558,"1700": 0.9594,"1725": 0.3559,"1750": 0.4952,"1775": 0.3404}}}