{"type":"Feature","properties":{"GID_2":"BGR.27.9_1","GID_0":"BGR","country":"Bulgaria","GID_1":"BGR.27_1","state":"Vratsa","NL_NAME_1":"Враца","county":"Roman","VARNAME_2":"NA","NL_NAME_2":"Роман","TYPE_2":"Obshtina","ENGTYPE_2":"Municipality","CC_2":"NA","HASC_2":"BG.VR.RO","name":"Roman.county"},
"geometry":{"type": "MultiPolygon","coordinates": [[[[24.0486,43.2163,196.0555],[24.0366,43.2253,296.7051],[24.0211,43.234,271.1543],[24.0167,43.2348,214.3886],[24.0044,43.2336,207.2165],[23.9952,43.2268,271.2888],[23.9887,43.2261,185.7981],[23.9847,43.2276,291.086],[23.9715,43.2418,295.0669],[23.9688,43.2492,309.0002],[23.9376,43.2473,370.7706],[23.9155,43.2513,391.3242],[23.9021,43.2561,422.6895],[23.8949,43.2524,440.1591],[23.8925,43.2468,395.4326],[23.8936,43.2328,374.5296],[23.8866,43.2148,413.5528],[23.8765,43.2078,429.8337],[23.8606,43.2049,462.13],[23.8564,43.2017,337.0584],[23.8504,43.1905,324.8022],[23.8504,43.1879,421.0602],[23.8545,43.1831,488.8376],[23.8721,43.1726,500.6273],[23.8784,43.167,412.4288],[23.8849,43.1556,248.3544],[23.8839,43.1486,171.9292],[23.88,43.1434,162.7165],[23.8767,43.1429,163.8362],[23.8579,43.1472,281.2077],[23.8485,43.1476,321.9196],[23.8406,43.1441,241.375],[23.8376,43.1387,172.7736],[23.8416,43.1232,408.0616],[23.8405,43.1177,442.9407],[23.8366,43.1136,438.8378],[23.8228,43.1059,391.6785],[23.8226,43.0997,449.8074],[23.8262,43.0921,360.8049],[23.8256,43.0883,406.0032],[23.8087,43.0739,466.1277],[23.7981,43.0579,473.0262],[23.8174,43.0433,407.8435],[23.8236,43.0411,485.7661],[23.8523,43.0392,424.7325],[23.8787,43.0436,345.5922],[23.8958,43.0442,255.8462],[23.9061,43.0426,348.6643],[23.9508,43.0275,854.9235],[23.9662,43.0284,900.5722],[23.9699,43.0301,770.0411],[23.9745,43.0363,520.2703],[23.9762,43.0529,806.7361],[23.9832,43.0744,462.373],[23.9813,43.085,564.6733],[23.9732,43.1054,272.5922],[23.9737,43.1118,356.9844],[23.9809,43.1149,336.3853],[24.0136,43.1139,313.3613],[24.0332,43.1154,380.6649],[24.0515,43.118,394.7576],[24.0566,43.1205,339.0314],[24.0524,43.1349,303.8016],[24.0484,43.1396,258.2263],[24.0475,43.1433,294.686],[24.0519,43.1604,366.6503],[24.0494,43.1667,296.7018],[24.0473,43.1802,184.9622],[24.0541,43.2024,225.6962],[24.0525,43.2101,184.012],[24.0486,43.2163,196.0555]]]]}}