{"type":"Feature","properties":{"GID_2":"BGR.16.5_1","GID_0":"BGR","country":"Bulgaria","GID_1":"BGR.16_1","state":"Ruse","NL_NAME_1":"Русенска","county":"Rousse","VARNAME_2":"Ruse|Russe","NL_NAME_2":"Русенска","TYPE_2":"City","ENGTYPE_2":"City","CC_2":"NA","HASC_2":"BG.RS.RU","name":"Rousse.county"},
"geometry":{"type": "MultiPolygon","coordinates": [[[[26.2477,43.8534,102.6076],[26.2329,43.8673,109.1622],[26.2309,43.8778,108.8713],[26.2259,43.8875,74.8203],[26.1998,43.8986,55.2353],[26.1785,43.9191,31.5581],[26.1597,43.927,27.2715],[26.1443,43.9425,35.1493],[26.1418,43.9483,25.8876],[26.148,43.9561,20.2563],[26.148,43.963,17.0522],[26.1351,43.9812,11.5],[26.1132,43.9725,11.5],[26.0943,43.953,14.1175],[26.0966,43.9516,31.2382],[26.0735,43.933,12.0],[26.0685,43.926,25.4555],[26.061,43.9201,30.0462],[26.062,43.9194,30.0462],[26.055,43.9101,19.5713],[26.0443,43.9013,13.0],[26.0144,43.89,13.5],[26.0028,43.8839,14.0],[26.0012,43.8856,14.0],[25.9853,43.8763,14.0],[25.9781,43.8703,14.0],[25.9614,43.8639,14.0],[25.9427,43.8514,14.0],[25.9414,43.8521,14.0],[25.9201,43.8287,14.0],[25.912,43.8119,14.0],[25.9094,43.8132,14.0],[25.8887,43.7954,14.0],[25.8828,43.7865,14.0],[25.8858,43.7838,14.5117],[25.8815,43.7804,14.0],[25.9058,43.7698,142.2152],[25.9256,43.7662,89.7387],[25.9491,43.77,55.8016],[26.0082,43.7903,160.656],[26.0246,43.7911,158.0581],[26.0392,43.7866,156.1141],[26.0671,43.7658,156.678],[26.0757,43.7619,123.8704],[26.0763,43.7823,149.1698],[26.0811,43.791,99.2829],[26.0874,43.7936,96.0242],[26.0945,43.7903,101.2478],[26.1054,43.7745,103.0459],[26.1204,43.7699,147.6743],[26.1451,43.7558,168.5917],[26.1567,43.7542,159.9373],[26.1659,43.7548,187.7438],[26.1871,43.7632,176.8273],[26.2145,43.7693,185.7062],[26.2217,43.774,163.3409],[26.229,43.7822,144.5329],[26.2442,43.8091,149.5419],[26.2368,43.8137,138.2087],[26.2334,43.8203,149.2627],[26.233,43.8258,133.9474],[26.2404,43.8397,138.023],[26.2446,43.844,133.0535],[26.2477,43.8534,102.6076]]]]}}