{"type":"Feature","properties":{"GID_2":"BGR.14.5_1","GID_0":"BGR","country":"Bulgaria","GID_1":"BGR.14_1","state":"Plovdiv","NL_NAME_1":"Пловдив","county":"Karlovo","VARNAME_2":"NA","NL_NAME_2":"Карлово","TYPE_2":"Obshtina","ENGTYPE_2":"Municipality","CC_2":"NA","HASC_2":"BG.PD.KR","name":"Karlovo.county"},
"geometry":{"type": "MultiPolygon","coordinates": [[[[24.8928,42.7173,2058.4321],[24.8802,42.7203,2136.4585],[24.8615,42.7301,1792.9401],[24.8465,42.7357,1364.21],[24.833,42.739,1393.0533],[24.8039,42.742,1455.3336],[24.7932,42.7405,1677.1577],[24.7736,42.7341,1604.5344],[24.7582,42.7321,1707.9414],[24.7276,42.7341,1672.2283],[24.7057,42.7302,1334.8164],[24.6959,42.7304,1309.7704],[24.6936,42.7335,1434.1771],[24.6928,42.7451,1302.8137],[24.6912,42.7493,1242.9038],[24.6876,42.7527,1383.4573],[24.6573,42.7706,1470.1924],[24.6345,42.7793,1337.7798],[24.6266,42.7813,1403.3324],[24.6075,42.7794,1531.3497],[24.5918,42.7802,1439.713],[24.5533,42.7874,1570.644],[24.5205,42.7887,1556.4247],[24.5046,42.7924,1579.9346],[24.4939,42.7848,1308.0156],[24.4832,42.7677,1707.2974],[24.467,42.7509,1668.1917],[24.4592,42.7492,1761.7262],[24.4193,42.7547,1978.1992],[24.3894,42.7471,1933.536],[24.382,42.7471,1926.4272],[24.3782,42.7396,1673.4014],[24.364,42.7228,1210.3373],[24.352,42.7013,1066.9779],[24.3534,42.685,1036.6005],[24.3563,42.6726,1230.8906],[24.3658,42.6578,1241.3708],[24.3741,42.6504,1117.8479],[24.3909,42.6424,1322.416],[24.4285,42.6309,1281.5767],[24.4474,42.614,1293.2549],[24.4586,42.6067,1558.7133],[24.4932,42.5923,1396.4916],[24.5066,42.5903,1380.0896],[24.5166,42.5849,1310.9753],[24.5328,42.5732,1433.0955],[24.5379,42.5717,1418.6696],[24.5569,42.5709,1312.0565],[24.5713,42.5624,965.9334],[24.5757,42.5614,929.5648],[24.6323,42.5641,1055.1083],[24.6639,42.5781,558.4718],[24.6885,42.5748,557.4407],[24.7121,42.5749,640.6491],[24.7242,42.5709,469.1074],[24.7498,42.5685,325.4619],[24.7557,42.566,309.3232],[24.7656,42.5543,333.715],[24.775,42.548,479.6558],[24.7945,42.5451,451.0809],[24.8154,42.5444,293.963],[24.8247,42.5425,281.8784],[24.8326,42.5388,279.131],[24.8366,42.532,275.0297],[24.8317,42.5059,305.9354],[24.8352,42.4964,271.3328],[24.8459,42.4886,274.4034],[24.8607,42.4847,379.5811],[24.8655,42.4858,420.1596],[24.8715,42.4906,461.0406],[24.8824,42.4917,502.4429],[24.9114,42.4747,527.1226],[24.925,42.4711,601.9411],[24.9658,42.4648,797.7693],[24.9876,42.4556,535.9036],[24.9978,42.4547,509.0168],[25.0064,42.4577,573.65],[25.0095,42.4591,547.6289],[25.0117,42.4632,536.8845],[25.0126,42.4738,635.2858],[25.0153,42.481,753.8434],[25.0146,42.4947,872.1229],[25.0088,42.5163,768.6841],[25.0086,42.5241,694.9635],[25.0112,42.5291,816.2498],[25.0168,42.5336,768.9788],[25.0512,42.5369,755.3693],[25.0467,42.554,750.4972],[25.0295,42.5786,571.0577],[25.0247,42.5906,518.2671],[25.0259,42.5975,509.3646],[25.0496,42.6258,597.1305],[25.0495,42.637,652.0048],[25.0458,42.6541,609.3826],[25.0389,42.6739,891.3455],[25.0452,42.7022,1373.069],[25.0406,42.7139,1463.9138],[25.0349,42.7233,1441.2833],[25.0365,42.7353,1699.8812],[25.0088,42.7361,1527.4209],[24.9879,42.7221,1788.9299],[24.9738,42.7192,1894.959],[24.959,42.7115,1866.9515],[24.9394,42.7063,1487.6365],[24.9178,42.708,2129.6074],[24.8928,42.7173,2058.4321]]]]}}