{"type": "Feature","bbox": [26.0756,43.6401,26.5547,43.8091],"geometry": {"type": "MultiPolygon","coordinates": [[[[26.2442,43.8091,149.5419],[26.229,43.7822,144.5329],[26.2183,43.7714,179.1834],[26.2095,43.7676,191.627],[26.1871,43.7632,176.8273],[26.1659,43.7548,187.7438],[26.1567,43.7542,159.9373],[26.1451,43.7558,168.5917],[26.1204,43.7699,147.6743],[26.1054,43.7745,103.0459],[26.0945,43.7903,101.2478],[26.0895,43.7933,100.2391],[26.085,43.7934,103.4945],[26.0788,43.7882,136.6934],[26.0763,43.7823,149.1698],[26.0756,43.7613,123.8704],[26.1045,43.7357,147.9406],[26.1083,43.727,164.7133],[26.1052,43.7146,164.4081],[26.1057,43.706,174.9274],[26.128,43.6781,182.9612],[26.1377,43.6616,177.8259],[26.1411,43.6588,124.2939],[26.1505,43.6696,168.1902],[26.1654,43.6741,141.5189],[26.1833,43.6717,171.6601],[26.2006,43.6659,160.2872],[26.2077,43.6656,191.9039],[26.2169,43.6687,184.436],[26.2262,43.6695,162.9715],[26.248,43.6674,200.2017],[26.2644,43.6604,182.2298],[26.2937,43.6422,231.8787],[26.2996,43.6401,257.583],[26.3231,43.6476,174.8518],[26.3467,43.6509,164.5195],[26.3698,43.6516,197.5865],[26.4312,43.6478,292.8483],[26.4861,43.6489,309.2471],[26.5098,43.6555,284.0756],[26.5245,43.6656,237.0503],[26.5402,43.6873,290.9801],[26.5504,43.708,285.8358],[26.5525,43.729,268.7269],[26.5507,43.7392,253.4221],[26.5547,43.7543,246.2156],[26.5208,43.7745,198.1101],[26.4792,43.7802,224.534],[26.4489,43.7879,178.416],[26.4416,43.792,160.0684],[26.4232,43.8076,218.3824],[26.4125,43.8077,199.2716],[26.3988,43.7998,215.5089],[26.396,43.7998,214.6567],[26.3912,43.8061,173.6194],[26.3863,43.8072,186.621],[26.3819,43.8058,189.6108],[26.3796,43.8022,182.6337],[26.375,43.8,200.9922],[26.3628,43.8015,176.1024],[26.3439,43.7981,143.644],[26.3023,43.7979,151.7172],[26.2697,43.7959,120.8513],[26.2601,43.7991,143.5226],[26.2442,43.8091,149.5419]]]]}
,"properties": {"GID_2": "BGR.16.8_1","GID_0": "BGR","country": "Bulgaria","GID_1": "BGR.16_1","state": "Ruse","NL_NAME_1": "Русенска","county": "Vetovo","VARNAME_2": "NA","NL_NAME_2": "NA","TYPE_2": "Obshtina","ENGTYPE_2": "Municipality","CC_2": "NA","HASC_2": "BG.RS.VE","name": "Vetovo.county","area_km2": 506.7313,"hist_schema_id": "Elevation0-9000","hist_area_km2": {"100": 3.9497,"125": 14.2102,"150": 49.3759,"175": 85.5855,"200": 125.9203,"225": 119.3263,"250": 62.9434,"275": 30.651,"300": 13.9253,"325": 0.8437}}}