{"type":"Feature","properties":{"ISO3166-1-Alpha-3":"BGR","country":"Bulgaria","fill":"#FF0","id":"2258","name":"Shumen"},
"geometry":{"type": "Polygon","coordinates": [[[27.20013,43.66891,216.4077],[27.13378,43.67,255.9401],[27.09409,43.70312,268.9183],[27.05409,43.72162,255.2283],[27.00076,43.69958,268.0565],[27.01316,43.66741,296.304],[26.98815,43.65165,257.6572],[26.92232,43.58762,354.8658],[26.90681,43.5946,302.5376],[26.89555,43.60788,328.5321],[26.88397,43.60736,327.8594],[26.87312,43.60346,325.5605],[26.848,43.58313,352.2189],[26.81834,43.56339,315.8212],[26.79261,43.54954,342.1374],[26.80935,43.52964,439.0691],[26.79509,43.51052,371.1531],[26.75757,43.50169,410.0466],[26.72326,43.48474,342.1257],[26.71809,43.45993,428.9057],[26.73215,43.439,372.0589],[26.72305,43.41094,304.5602],[26.77266,43.40348,425.6941],[26.78134,43.36815,375.8409],[26.76253,43.35854,302.9192],[26.74868,43.34371,223.3836],[26.73907,43.32051,166.5],[26.73349,43.29751,194.6693],[26.76605,43.25219,153.846],[26.76429,43.20935,177.3477],[26.74992,43.20915,179.7382],[26.73535,43.20046,194.1768],[26.72388,43.17457,261.8578],[26.70993,43.15514,402.2728],[26.67789,43.14636,678.2968],[26.65691,43.12124,301.3681],[26.66734,43.10724,282.3531],[26.68626,43.09892,260.4979],[26.67799,43.08489,267.9599],[26.65649,43.08099,305.0667],[26.65391,43.06621,294.1956],[26.64502,43.04923,249.6839],[26.62735,43.0473,272.3246],[26.61422,43.03768,251.3052],[26.62828,43.0236,221.9928],[26.62983,43.00647,237.4776],[26.60513,43.00218,293.445],[26.59086,42.99151,331.9547],[26.57433,42.98658,404.29],[26.55252,42.95769,552.8364],[26.57236,42.92376,1000.5522],[26.64523,42.93717,545.9257],[26.65546,42.92219,745.2281],[26.65463,42.89997,685.6785],[26.68967,42.88891,761.8851],[26.72874,42.89423,702.7375],[26.76233,42.90839,607.0964],[26.78382,42.9387,562.8776],[26.80098,42.94691,636.3489],[26.82082,42.94611,728.9477],[26.87756,42.9496,619.2817],[26.90919,42.93399,554.9587],[26.94195,42.93898,488.9791],[26.98154,42.94022,455.5367],[27.0237,42.9288,643.1595],[27.07207,42.93839,602.0823],[27.1191,42.95366,490.5637],[27.09336,42.97621,348.4131],[27.07848,43.00094,391.7928],[27.10194,43.01427,287.4305],[27.16189,43.03864,133.3626],[27.20912,43.0474,181.9839],[27.20364,43.07171,222.1629],[27.15796,43.08329,208.0898],[27.18587,43.10008,316.0826],[27.16271,43.12,321.913],[27.17925,43.14142,216.0152],[27.2116,43.15489,145.7512],[27.21232,43.17845,218.0487],[27.17925,43.18798,238.0266],[27.1531,43.20695,300.8813],[27.15682,43.23168,314.0105],[27.17925,43.24392,349.3672],[27.21439,43.2464,311.4091],[27.2487,43.2524,311.3746],[27.25056,43.27198,326.026],[27.25025,43.29723,116.9984],[27.27785,43.3047,149.0929],[27.30255,43.31904,187.9609],[27.28901,43.33622,282.2121],[27.27175,43.35361,390.2264],[27.27072,43.3788,415.9661],[27.27981,43.39769,407.5156],[27.29986,43.4143,299.8863],[27.33542,43.45203,283.3802],[27.32281,43.46572,314.2938],[27.31092,43.47368,340.5456],[27.3227,43.48556,325.044],[27.33397,43.50809,300.0529],[27.28508,43.52003,282.4547],[27.33852,43.5544,296.8887],[27.41893,43.57124,257.36],[27.4088,43.59863,237.6919],[27.38565,43.60935,253.385],[27.34544,43.60385,260.1418],[27.30586,43.59486,280.8978],[27.27692,43.60494,238.1293],[27.25625,43.6353,235.2125],[27.20013,43.66891,216.4077]]]}}