{"type": "Feature","id": 136759.0,"bbox": [26.669444206646233,43.036139227337827,26.799327019146233,43.097906805462827],"geometry": {"type": "Polygon","coordinates": [[[26.669444206646233,43.038946844525327,214.851],[26.669444206646233,43.038946844525327,214.851],[26.683726433208733,43.036139227337827,196.3249],[26.698619011333733,43.041632391400327,184.9567],[26.716563347271233,43.047125555462827,182.5],[26.750254753521233,43.046210028119077,188.349],[26.768321159771233,43.052252508587827,195.9815],[26.777964714458733,43.066290594525327,182.5],[26.795909050396233,43.083868719525327,182.5],[26.799327019146233,43.097906805462827,203.7832],[26.787974480083733,43.096075750775327,156.5031],[26.782237175396233,43.088507391400327,212.1126],[26.770762566021233,43.073004461712827,264.4499],[26.759043816021233,43.057745672650327,243.1839],[26.741465691021233,43.058111883587827,264.0327],[26.714366081646233,43.056280828900327,204.5265],[26.686778191021233,43.046820379681577,206.5775],[26.669444206646233,43.038946844525327,214.851]]]}
,"properties": {"name": null,"lge_id": null,"pfafstette": 6557.0,"lke_type": "N","altitude": 257,"objectid": 85211,"scalerank": 12,"featurecla": "Lake","note": "_untitled_85211","funkyname": 0,"min_zoom": 7.0,"min_label": 8.0,"area_km2": 13.15194,"hist_schema_id": "Elevation0-9000","hist_area_km2": {"150": 0.24772,"175": 4.97241,"200": 3.95056,"225": 2.3392,"250": 1.11534,"275": 0.51123,"300": 0.01548}}}