{"type":"Feature","properties":{"GID_1":"BGR.17_1","GID_0":"BGR","country":"Bulgaria","state":"Shumen","VARNAME_1":"Kolarovgrad|Šumla|Šumen","NL_NAME_1":"Шумен","TYPE_1":"Oblast","ENGTYPE_1":"Province","CC_1":"NA","HASC_1":"BG.SH","ISO_1":"BG-27","name":"Shumen.state"},
"geometry":{"type": "MultiPolygon","coordinates": [[[[26.8351,42.9427,781.7054],[26.8497,42.9429,663.7673],[26.8549,42.9482,520.0615],[26.8744,42.95,664.867],[26.8929,42.9456,642.4463],[26.9104,42.9377,454.1389],[26.9243,42.9363,458.3427],[26.9468,42.9433,476.4504],[26.9607,42.9413,521.3123],[26.9733,42.9457,383.2726],[26.9889,42.9466,608.3182],[26.9996,42.9325,588.3342],[27.0058,42.9271,575.1626],[27.0154,42.924,613.1564],[27.0223,42.9158,630.4716],[27.0346,42.9169,563.631],[27.0654,42.9285,479.1514],[27.1013,42.9447,394.1003],[27.128,42.9472,498.2874],[27.1292,42.9489,520.4189],[27.1374,42.9707,263.5881],[27.1377,42.9785,211.385],[27.134,42.9829,203.4452],[27.1298,42.9844,212.9798],[27.102,42.9857,340.258],[27.0969,42.988,400.3784],[27.0966,42.992,375.423],[27.1025,43.0032,396.3186],[27.1044,43.0108,314.7631],[27.1011,43.0153,298.3043],[27.0893,43.0215,354.5958],[27.0884,43.0231,340.0144],[27.09,43.0256,396.2876],[27.0998,43.0276,433.0474],[27.1216,43.0254,333.2341],[27.1336,43.0261,426.622],[27.1377,43.0295,321.8636],[27.1408,43.0391,343.4524],[27.1497,43.0433,213.7732],[27.1822,43.0423,42.2662],[27.2032,43.048,172.8809],[27.2229,43.0505,312.6958],[27.2445,43.0496,177.3807],[27.2539,43.0476,189.8979],[27.2585,43.0487,151.7298],[27.2594,43.0537,111.1885],[27.258,43.0559,92.4885],[27.2448,43.0661,193.5737],[27.2464,43.0694,225.0457],[27.2454,43.0726,229.4173],[27.2384,43.0864,291.0946],[27.2407,43.0958,173.4283],[27.2283,43.1017,156.4745],[27.2105,43.1028,263.3266],[27.1989,43.1063,218.5013],[27.1904,43.1137,174.9689],[27.1876,43.1194,196.4845],[27.1876,43.1267,167.527],[27.1903,43.1339,165.2764],[27.1964,43.1424,172.9689],[27.2169,43.1613,162.1973],[27.2414,43.1759,189.4585],[27.2682,43.1953,230.3881],[27.287,43.2059,250.4594],[27.3133,43.2081,252.6444],[27.3191,43.2114,283.9556],[27.3197,43.2157,285.7021],[27.3175,43.218,296.1721],[27.3008,43.229,239.3915],[27.2973,43.2342,140.3281],[27.2932,43.2494,64.3031],[27.29,43.2734,150.3011],[27.2718,43.2939,136.3039],[27.2686,43.3063,113.1101],[27.27,43.3108,119.2359],[27.2738,43.3146,124.2299],[27.3016,43.3179,183.8121],[27.3186,43.3289,287.6099],[27.3386,43.3577,199.1999],[27.3381,43.3622,206.5378],[27.3359,43.3645,217.9348],[27.3191,43.3712,276.1536],[27.3081,43.3805,369.2997],[27.3043,43.3869,308.4476],[27.3024,43.3987,365.2434],[27.3064,43.4133,352.8127],[27.3121,43.4216,264.7356],[27.32,43.4288,278.6071],[27.335,43.4358,294.0211],[27.3597,43.4626,255.3482],[27.361,43.4657,254.9866],[27.3607,43.472,269.914],[27.3571,43.4771,301.7696],[27.3333,43.4792,332.2952],[27.3325,43.4816,333.8442],[27.3348,43.4856,323.0734],[27.3546,43.4996,290.0452],[27.3586,43.5039,307.9989],[27.3601,43.5092,287.2249],[27.3582,43.5157,252.5161],[27.3414,43.5167,285.2849],[27.3303,43.521,308.5521],[27.3273,43.53,311.4933],[27.3269,43.5384,313.5136],[27.3291,43.5436,311.513],[27.3419,43.5548,307.0045],[27.4115,43.5766,262.6774],[27.4279,43.586,244.3708],[27.44,43.5986,206.4959],[27.4226,43.6209,256.3657],[27.4093,43.6303,247.9673],[27.4015,43.6312,254.38],[27.3823,43.6263,247.0969],[27.3571,43.6171,237.7415],[27.3351,43.6132,270.6048],[27.3239,43.6143,238.7955],[27.3182,43.6181,240.4878],[27.3022,43.6496,211.3045],[27.2932,43.6581,246.4386],[27.2595,43.663,258.1021],[27.2355,43.6746,262.1125],[27.1724,43.6796,201.8933],[27.1548,43.6828,274.1205],[27.1285,43.7014,274.1868],[27.1245,43.7056,264.3022],[27.1171,43.7213,241.721],[27.1063,43.731,226.4467],[27.0954,43.7356,240.2867],[27.0736,43.736,255.3484],[27.0574,43.7316,251.1086],[27.0348,43.7205,234.4331],[27.0146,43.717,253.8075],[27.0053,43.7174,265.1078],[27.0054,43.7133,271.4994],[27.0104,43.7043,264.7346],[27.015,43.6998,264.5544],[27.026,43.6944,233.6657],[27.028,43.691,234.0881],[27.0273,43.6672,286.4482],[27.0258,43.6625,302.2036],[27.0139,43.6567,301.4731],[27.0009,43.6558,282.1891],[26.989,43.6531,257.8527],[26.9712,43.6429,305.0083],[26.9678,43.6336,322.0063],[26.9715,43.6263,324.1478],[26.964,43.6169,322.1374],[26.9549,43.6123,342.5116],[26.9442,43.611,325.6841],[26.9328,43.6132,300.6949],[26.9093,43.6222,288.9318],[26.8978,43.6229,304.1946],[26.8911,43.6211,299.5699],[26.8863,43.6155,311.2005],[26.8824,43.597,364.9541],[26.8751,43.5895,371.6795],[26.8598,43.5801,349.5293],[26.8356,43.5721,332.8669],[26.8275,43.5678,343.3507],[26.81,43.5545,353.0345],[26.8076,43.5462,380.3822],[26.8104,43.5378,385.4047],[26.8139,43.5355,394.0986],[26.8289,43.5341,404.1702],[26.8324,43.5321,411.6131],[26.8344,43.5282,394.3129],[26.8371,43.514,458.3033],[26.8367,43.5101,489.2366],[26.8339,43.5062,493.0071],[26.8234,43.4996,510.7699],[26.8137,43.4963,498.5496],[26.8088,43.496,496.4494],[26.7985,43.5001,460.4607],[26.7884,43.4999,425.1786],[26.781,43.4974,384.6992],[26.7763,43.4918,418.8079],[26.7769,43.4776,488.8042],[26.7755,43.474,489.229],[26.7682,43.4721,482.7462],[26.7536,43.4727,386.803],[26.7491,43.4718,410.2034],[26.7453,43.4686,399.9145],[26.7474,43.4623,383.3089],[26.7569,43.449,393.7993],[26.7574,43.4433,377.86],[26.754,43.4323,371.2136],[26.7603,43.428,383.9194],[26.7851,43.4222,377.2691],[26.793,43.4187,387.4497],[26.7961,43.4161,405.8742],[26.8031,43.4037,446.4265],[26.8019,43.393,418.64],[26.7994,43.3896,426.6867],[26.7889,43.3846,406.1384],[26.7741,43.3815,380.3993],[26.7723,43.3792,395.2001],[26.7644,43.3572,328.6984],[26.747,43.334,179.4738],[26.7435,43.3235,217.0864],[26.7367,43.3133,213.071],[26.7364,43.3025,176.1972],[26.7404,43.2954,196.747],[26.7509,43.2894,193.6286],[26.7723,43.2811,133.2342],[26.7775,43.2731,154.9391],[26.7778,43.2668,122.7646],[26.7755,43.2572,111.6929],[26.7687,43.2467,113.8065],[26.7525,43.2365,147.3585],[26.7382,43.2306,158.0095],[26.7241,43.2212,179.1079],[26.7178,43.2061,184.5409],[26.7193,43.1929,221.464],[26.7179,43.1838,234.2356],[26.7163,43.1778,303.0731],[26.7128,43.174,276.7783],[26.7003,43.1731,308.665],[26.6803,43.1809,269.0195],[26.6759,43.1809,271.7873],[26.6704,43.1764,316.4471],[26.6713,43.1712,428.7811],[26.6767,43.1672,446.469],[26.6766,43.1658,415.4398],[26.6667,43.1533,619.6207],[26.6647,43.1445,588.1447],[26.6653,43.1391,575.7161],[26.6706,43.1263,366.8218],[26.6808,43.1165,321.5327],[26.6872,43.108,281.3276],[26.6878,43.1025,269.0761],[26.6804,43.0972,260.2168],[26.6646,43.0967,231.4843],[26.6536,43.0945,229.8215],[26.6511,43.09,258.0117],[26.653,43.0772,250.62],[26.651,43.0661,292.7109],[26.6222,43.0606,251.5781],[26.6151,43.0567,293.2673],[26.6144,43.0528,300.4114],[26.6195,43.0477,267.6219],[26.6123,43.0352,224.5396],[26.6156,43.0314,204.8701],[26.6234,43.0281,197.3342],[26.6236,43.025,227.0977],[26.6135,43.0175,267.5583],[26.5897,43.0129,324.6355],[26.5613,42.99,364.0885],[26.553,42.987,388.8835],[26.5388,42.9767,355.9176],[26.5358,42.973,363.7762],[26.5355,42.9688,355.0127],[26.5396,42.9469,880.9087],[26.5425,42.9397,788.8904],[26.5539,42.9317,819.009],[26.5602,42.9299,837.1898],[26.58,42.9288,729.2474],[26.5796,42.9339,630.4968],[26.5829,42.9384,734.0139],[26.5997,42.9424,655.9854],[26.6202,42.9422,449.4679],[26.643,42.9396,534.5822],[26.6471,42.9376,552.3555],[26.6485,42.9335,690.9292],[26.6411,42.9197,736.5305],[26.6404,42.9132,716.5191],[26.6455,42.9074,815.4393],[26.6492,42.9068,817.0156],[26.6831,42.9115,655.3214],[26.7237,42.909,635.2006],[26.7537,42.9232,661.9917],[26.778,42.9407,484.3798],[26.7884,42.9454,594.7668],[26.8075,42.9473,727.7505],[26.8351,42.9427,781.7054]]]]}}