{"type":"Feature","properties":{"GID_2":"BGR.24.11_1","GID_0":"BGR","country":"Bulgaria","GID_1":"BGR.24_1","state":"Varna","NL_NAME_1":"Варна","county":"Varna","VARNAME_2":"NA","NL_NAME_2":"Варна","TYPE_2":"City","ENGTYPE_2":"City","CC_2":"NA","HASC_2":"BG.VN.VA","name":"Varna.county"},
"geometry":{"type": "MultiPolygon","coordinates": [[[[28.0326,43.3007,265.5352],[28.0218,43.2961,258.9608],[27.9965,43.2725,260.3467],[27.96,43.2612,329.6301],[27.9488,43.2599,300.4258],[27.9255,43.2619,311.1855],[27.9191,43.2639,331.7751],[27.9103,43.272,323.8066],[27.9036,43.2912,287.5444],[27.8959,43.2954,313.575],[27.8853,43.2981,288.4073],[27.8782,43.2963,298.2965],[27.8561,43.279,320.8264],[27.822,43.2753,238.5195],[27.8149,43.2721,209.8327],[27.8121,43.2688,170.033],[27.8179,43.2613,138.293],[27.8182,43.2583,120.4327],[27.8149,43.2533,95.316],[27.7992,43.2441,54.7543],[27.7902,43.2432,46.2008],[27.7809,43.2402,45.469],[27.7671,43.2297,19.1017],[27.7737,43.221,10.344],[27.7911,43.211,11.1855],[27.7973,43.204,11.6271],[27.7985,43.1979,0.0],[27.7958,43.1852,45.3967],[27.7992,43.1703,93.2509],[27.797,43.1551,137.2121],[27.7985,43.1492,127.1212],[27.8044,43.1439,164.228],[27.8278,43.1396,203.3142],[27.8299,43.1359,189.3015],[27.8248,43.1246,145.2437],[27.8269,43.1227,143.5058],[27.8596,43.1201,85.9896],[27.8668,43.1146,95.4488],[27.8909,43.1062,72.5797],[27.9089,43.1076,45.6731],[27.9235,43.1009,5.7535],[27.924,43.1101,11.2247],[27.9282,43.1138,33.7456],[27.9304,43.1265,4.8548],[27.9371,43.1301,0.0],[27.9407,43.1363,2.1112],[27.941,43.1479,28.1079],[27.9449,43.1526,6.0204],[27.944,43.1579,13.9245],[27.9468,43.1632,25.4071],[27.9468,43.171,19.8363],[27.9446,43.1721,0.0],[27.9413,43.1699,40.2333],[27.9371,43.1729,0.0],[27.9307,43.1735,56.4219],[27.9287,43.1757,0.0],[27.916,43.1738,0.2947],[27.9104,43.1785,5.3137],[27.9101,43.1821,0.0],[27.9011,43.1835,8.2932],[27.9017,43.1857,1.3075],[27.9093,43.1849,0.0],[27.9112,43.1888,0.9869],[27.9143,43.1888,0.0],[27.9115,43.1904,0.9869],[27.9179,43.191,0.0],[27.9135,43.1924,0.0],[27.9165,43.1954,0.0],[27.9199,43.1951,0.0],[27.9201,43.191,0.0],[27.9218,43.1896,0.0],[27.921,43.1971,0.9718],[27.9232,43.2012,2.1826],[27.9279,43.2051,1.4136],[27.9321,43.2051,0.0],[27.9379,43.2088,17.0444],[27.9415,43.2088,0.0],[27.9418,43.2104,0.0],[27.9587,43.2107,0.0],[27.9665,43.2168,0.0],[27.9771,43.219,25.0142],[27.9813,43.2171,0.0],[27.9815,43.2193,15.9346],[27.986,43.2196,2.0552],[27.9888,43.2182,0.8791],[27.9868,43.2174,0.0],[27.9871,43.216,0.0],[27.994,43.2171,14.5376],[27.9971,43.2149,0.0],[27.9971,43.2176,6.4185],[28.0018,43.2207,7.5147],[28.0043,43.2207,3.3118],[28.0035,43.2185,0.0],[28.0051,43.2185,0.0],[28.009,43.2221,0.0],[28.0093,43.2246,1.0914],[28.0121,43.2238,0.0],[28.0157,43.226,0.0],[28.0143,43.2279,4.8777],[28.0168,43.2349,6.6118],[28.0154,43.2357,4.7375],[28.0187,43.2424,3.6225],[28.0213,43.2449,2.2749],[28.0224,43.2435,0.0],[28.026,43.244,0.0],[28.0254,43.2457,27.6846],[28.0285,43.2465,0.0],[28.0293,43.2515,4.9309],[28.0326,43.2582,2.2501],[28.036,43.261,0.0],[28.0382,43.2679,0.0],[28.0418,43.2735,9.213],[28.0449,43.2749,0.0],[28.044,43.2788,0.0],[28.0468,43.2857,0.0],[28.0476,43.2946,3.2269],[28.0516,43.3015,2.0706],[28.0422,43.3023,121.7211],[28.0326,43.3007,265.5352]]]]}}