{"type": "Feature","bbox": [24.4373,42.7173,24.8966,43.041],"geometry": {"type": "MultiPolygon","coordinates": [[[[24.8966,43.0388,483.6963],[24.8778,43.041,436.9918],[24.8646,43.0395,501.6512],[24.8088,43.0148,709.5885],[24.7628,43.0038,553.0602],[24.7459,42.9978,650.6365],[24.7428,42.9955,545.8052],[24.738,42.9846,608.9329],[24.7336,42.982,587.4825],[24.7265,42.9806,569.1894],[24.7158,42.9805,574.3223],[24.7095,42.9831,542.7806],[24.7068,42.9874,429.6362],[24.7048,42.9998,398.9427],[24.7007,43.0089,297.3839],[24.6984,43.0106,344.4832],[24.6895,43.0148,361.2729],[24.6655,43.0211,760.2283],[24.637,43.0231,769.5712],[24.5984,43.0201,748.4152],[24.561,43.0197,683.049],[24.5029,43.0282,419.0105],[24.4636,43.0225,482.1695],[24.4504,43.0155,449.1331],[24.4412,43.005,361.5],[24.4373,42.9951,365.9747],[24.443,42.9715,598.5973],[24.4736,42.9392,801.6506],[24.4773,42.9267,1024.7598],[24.484,42.9192,1120.9817],[24.4895,42.9087,1147.7026],[24.4897,42.8897,1380.1897],[24.4822,42.8807,1332.3624],[24.4886,42.8766,1245.6101],[24.4949,42.8641,1190.1447],[24.5008,42.8569,1055.9736],[24.5174,42.8436,1080.3044],[24.5232,42.8361,1100.4698],[24.5242,42.8298,878.3578],[24.5224,42.8269,1035.2037],[24.5088,42.8193,1100.0516],[24.5035,42.812,1190.8137],[24.5023,42.8042,1390.6069],[24.5048,42.7921,1556.8998],[24.5205,42.7887,1556.4247],[24.5533,42.7874,1570.644],[24.5918,42.7802,1439.713],[24.6075,42.7794,1531.3497],[24.6266,42.7813,1403.3324],[24.6345,42.7793,1337.7798],[24.6573,42.7706,1470.1924],[24.6876,42.7527,1383.4573],[24.6912,42.7493,1242.9038],[24.6928,42.7451,1302.8137],[24.6936,42.7335,1434.1771],[24.6959,42.7304,1309.7704],[24.7057,42.7302,1334.8164],[24.7276,42.7341,1672.2283],[24.7582,42.7321,1707.9414],[24.7736,42.7341,1604.5344],[24.7932,42.7405,1677.1577],[24.8039,42.742,1455.3336],[24.833,42.739,1393.0533],[24.8465,42.7357,1364.21],[24.8615,42.7301,1792.9401],[24.8802,42.7203,2136.4585],[24.8928,42.7173,2058.4321],[24.8866,42.7352,1576.9319],[24.886,42.7434,1510.0852],[24.8886,42.7512,1365.5264],[24.8883,42.7551,1304.9496],[24.8802,42.7763,1166.8352],[24.8823,42.7835,1066.0173],[24.8791,42.7916,984.785],[24.8697,42.8021,798.4005],[24.8518,42.8133,785.2915],[24.8353,42.8312,1065.1096],[24.8345,42.8364,1129.1671],[24.8436,42.851,869.5497],[24.8456,42.8592,815.2804],[24.8403,42.8673,573.1261],[24.8291,42.879,482.8865],[24.8181,42.9064,431.7995],[24.8175,42.9177,413.6502],[24.821,42.9249,375.8334],[24.8245,42.9275,446.6774],[24.8313,42.9293,536.2804],[24.8834,42.9256,556.9805],[24.8837,42.9287,586.8571],[24.8735,42.9546,445.7286],[24.8729,42.9663,305.8345],[24.8751,42.9921,358.5967],[24.8777,43.0092,583.4047],[24.8852,43.0286,520.0669],[24.8916,43.0358,451.1183],[24.8966,43.0388,483.6963]]]]}
,"properties": {"GID_2": "BGR.9.6_1","GID_0": "BGR","country": "Bulgaria","GID_1": "BGR.9_1","state": "Lovech","NL_NAME_1": "Ловеч","county": "Troyan","VARNAME_2": "Troian","NL_NAME_2": "Троян","TYPE_2": "Obshtina","ENGTYPE_2": "Municipality","CC_2": "NA","HASC_2": "BG.LV.TR","name": "Troyan.county","area_km2": 884.8655,"hist_schema_id": "Elevation0-9000","hist_area_km2": {"275": 1.4111,"300": 6.0807,"325": 11.4493,"350": 18.8959,"375": 23.2089,"400": 29.6973,"425": 36.1864,"450": 39.571,"475": 38.3485,"500": 37.8083,"525": 38.8675,"550": 37.6583,"575": 35.5024,"600": 34.0146,"625": 30.1815,"650": 27.1707,"675": 24.6266,"700": 22.2687,"725": 21.4808,"750": 21.0793,"775": 21.8277,"800": 21.2094,"825": 20.0174,"850": 18.3582,"875": 18.018,"900": 17.4753,"925": 17.01,"950": 15.9693,"975": 14.6639,"1000": 14.6179,"1025": 14.3856,"1050": 12.7996,"1075": 12.1321,"1100": 11.4323,"1125": 10.2356,"1150": 9.3337,"1175": 8.5104,"1200": 7.748,"1225": 7.1419,"1250": 6.8466,"1275": 7.0803,"1300": 6.1002,"1325": 5.5093,"1350": 5.2917,"1375": 4.7629,"1400": 4.5296,"1425": 4.4363,"1450": 4.2964,"1475": 4.2497,"1500": 4.312,"1525": 3.6739,"1550": 3.2379,"1575": 2.5997,"1600": 2.0239,"1625": 1.6035,"1650": 1.2144,"1675": 0.9187,"1700": 0.6696,"1725": 0.5139,"1750": 0.3738,"1775": 0.1557,"1800": 0.1246,"1825": 0.1713,"1850": 0.0934,"1875": 0.1402,"1900": 0.0934,"1925": 0.109,"1950": 0.0934,"1975": 0.0467,"2000": 0.0934,"2025": 0.0467,"2050": 0.109,"2075": 0.109,"2100": 0.1558,"2125": 0.2181,"2150": 0.109,"2175": 0.1558,"2200": 0.109,"2225": 0.0623,"2250": 0.0312}}}