{"type":"Feature","properties":{"GID_2":"BGR.25.7_1","GID_0":"BGR","country":"Bulgaria","GID_1":"BGR.25_1","state":"VelikoTarnovo","NL_NAME_1":"ВеликоТърново","county":"Suhindol","VARNAME_2":"NA","NL_NAME_2":"Сухиндол","TYPE_2":"Obshtina","ENGTYPE_2":"Municipality","CC_2":"NA","HASC_2":"BG.VT.SU","name":"Suhindol.county"},
"geometry":{"type": "MultiPolygon","coordinates": [[[[25.2992,43.1119,342.2729],[25.2826,43.1319,330.8221],[25.2842,43.1427,340.5162],[25.2807,43.1531,319.4858],[25.2838,43.1605,356.1418],[25.2842,43.1754,305.8759],[25.2829,43.1809,266.9951],[25.2777,43.1894,159.2865],[25.2716,43.1952,110.0087],[25.2603,43.2006,135.0561],[25.2511,43.2015,152.3428],[25.2369,43.198,157.2512],[25.2301,43.1995,157.4908],[25.224,43.2033,166.9645],[25.2192,43.212,194.6242],[25.1961,43.2186,331.3961],[25.1851,43.2242,357.2683],[25.1827,43.2284,343.1592],[25.1856,43.235,291.6572],[25.1951,43.236,271.4768],[25.2134,43.2322,204.9402],[25.2165,43.2358,197.9962],[25.2171,43.2409,182.0046],[25.2006,43.2656,145.0025],[25.195,43.2781,127.7056],[25.1902,43.2956,124.0841],[25.1885,43.2934,132.0273],[25.164,43.2867,155.2218],[25.1687,43.2818,157.0602],[25.1711,43.2769,160.5311],[25.1731,43.2697,154.4392],[25.1731,43.2627,152.5324],[25.1643,43.2428,225.4337],[25.1387,43.2176,320.5179],[25.1378,43.2118,355.2692],[25.1416,43.1933,382.5647],[25.1406,43.1886,411.6813],[25.1347,43.1851,417.8204],[25.1238,43.182,447.263],[25.1071,43.1796,403.3622],[25.1091,43.1709,469.963],[25.1183,43.1516,421.051],[25.1296,43.1418,374.8943],[25.1498,43.134,219.1892],[25.1637,43.1137,194.8906],[25.1702,43.1102,181.0],[25.1834,43.1042,206.0906],[25.2079,43.0986,395.4334],[25.2156,43.0984,402.9044],[25.231,43.0931,455.9328],[25.2534,43.0922,448.4396],[25.2697,43.0941,353.3885],[25.2869,43.1022,356.9162],[25.2992,43.1119,342.2729]]]]}}