{"type":"Feature","properties":{"GID_2":"BGR.14.15_1","GID_0":"BGR","country":"Bulgaria","GID_1":"BGR.14_1","state":"Plovdiv","NL_NAME_1":"Пловдив","county":"Saedinenie","VARNAME_2":"NA","NL_NAME_2":"ОбщинаСъединение","TYPE_2":"Obshtina","ENGTYPE_2":"Municipality","CC_2":"NA","HASC_2":"BG.PD.SN","name":"Saedinenie.county"},
"geometry":{"type": "MultiPolygon","coordinates": [[[[24.4843,42.2239,204.726],[24.4982,42.2294,204.1181],[24.5324,42.2516,199.5271],[24.5402,42.253,198.1669],[24.5661,42.2493,192.4794],[24.58,42.2504,191.431],[24.5909,42.2541,191.6812],[24.6014,42.2626,195.7483],[24.6145,42.2675,198.8602],[24.6203,42.2719,199.7445],[24.6638,42.2711,197.3411],[24.6685,42.2755,198.0124],[24.6704,42.2901,203.304],[24.6725,42.2955,205.5414],[24.6769,42.299,205.3652],[24.6883,42.2964,202.2601],[24.7001,42.2867,198.6448],[24.7203,42.2863,195.0875],[24.728,42.2878,194.6752],[24.7343,42.2961,192.4329],[24.7368,42.3063,193.6555],[24.7478,42.3112,193.3932],[24.7248,42.3428,212.9701],[24.7125,42.3633,225.3068],[24.7062,42.37,231.7396],[24.686,42.3811,248.2564],[24.6806,42.3893,254.2982],[24.6748,42.3946,270.6705],[24.6483,42.4088,282.6913],[24.6473,42.4101,282.6913],[24.6484,42.4145,280.2121],[24.6471,42.416,276.4215],[24.622,42.4173,297.9019],[24.6064,42.4256,310.9303],[24.6034,42.4295,314.4213],[24.604,42.435,296.0],[24.6069,42.4395,297.8569],[24.6108,42.4528,312.4928],[24.609,42.4565,316.5399],[24.6051,42.4578,314.5887],[24.5985,42.4564,312.1807],[24.5785,42.4439,297.3914],[24.5695,42.4406,295.2214],[24.5504,42.4402,327.7168],[24.5419,42.4386,333.1279],[24.5398,42.4366,332.5782],[24.5386,42.4321,307.24],[24.5412,42.4183,287.6058],[24.5378,42.4151,283.863],[24.5289,42.4116,284.1374],[24.5277,42.4087,289.7154],[24.5314,42.4041,299.491],[24.548,42.3961,315.2743],[24.5481,42.3918,307.9921],[24.5341,42.3812,310.8764],[24.5182,42.3746,306.3163],[24.5105,42.3744,296.9709],[24.4982,42.3836,317.9562],[24.4846,42.3866,345.1977],[24.4843,42.3939,354.41],[24.4816,42.3966,368.0872],[24.4644,42.3975,405.7899],[24.4502,42.4089,448.6246],[24.427,42.4171,497.3448],[24.424,42.4129,522.2893],[24.4071,42.3996,503.8161],[24.4052,42.3951,458.5495],[24.4058,42.387,413.9087],[24.4087,42.3823,399.2365],[24.4211,42.3725,359.0136],[24.4272,42.3653,327.4479],[24.4277,42.3471,286.7834],[24.4367,42.3413,265.1297],[24.4604,42.3338,258.1301],[24.465699999999998,42.3292,250.7492],[24.4668,42.3196,253.3799],[24.4743,42.3115,236.7665],[24.4736,42.3065,240.4415],[24.4665,42.299,239.6803],[24.4628,42.2924,237.1515],[24.4466,42.2852,237.1047],[24.4453,42.2828,234.8509],[24.4504,42.2755,228.3869],[24.4569,42.271,224.2864],[24.4619,42.265,219.4571],[24.4643,42.2566,217.7777],[24.4779,42.2349,209.0015],[24.4827,42.2243,205.1866],[24.4843,42.2239,204.726]]]]}}