{"type": "Feature","bbox": [24.8868,41.427,25.0539,41.6024],"geometry": {"type": "MultiPolygon","coordinates": [[[[25.0196,41.5785,795.2734],[25.0028,41.6001,968.7401],[24.9922,41.6024,943.0942],[24.9755,41.5935,1091.4784],[24.9577,41.5918,1203.8851],[24.9528,41.586,1119.652],[24.9387,41.5876,1034.6371],[24.9358,41.5867,1049.9056],[24.9345,41.5854,997.6769],[24.9352,41.5833,943.5214],[24.9465,41.5733,878.2123],[24.9483,41.5633,947.8082],[24.9369,41.5402,671.8705],[24.9275,41.5334,734.8886],[24.9009,41.5225,720.6667],[24.8868,41.515,678.4531],[24.9053,41.5051,905.8242],[24.9146,41.4972,856.9661],[24.9159,41.4883,852.3154],[24.9077,41.4765,887.8578],[24.9062,41.4665,1031.0034],[24.9114,41.4624,1029.2708],[24.9199,41.4591,882.9078],[24.9228,41.453,912.1924],[24.9252,41.4392,957.3392],[24.9356,41.4275,1323.1378],[24.9515,41.431399999999996,1071.5525],[24.9707,41.4277,943.7772],[24.977,41.427,942.8193],[24.9792,41.4283,925.8411],[24.981,41.432,826.7864],[24.9823,41.4443,936.0615],[24.988,41.4499,882.1591],[25.0055,41.4596,920.7153],[25.0117,41.4661,947.7762],[25.0116,41.4725,1040.1171],[25.0157,41.4813,1125.761],[25.0203,41.4834,959.8071],[25.0344,41.484,795.8856],[25.0384,41.4857,684.9344],[25.0471,41.4968,832.683],[25.0539,41.5026,807.2032],[25.0388,41.5115,704.4281],[25.0396,41.5208,753.4373],[25.0364,41.5313,703.1584],[25.0155,41.5507,642.4685],[25.0117,41.5575,564.8977],[25.0112,41.5658,742.9669],[25.0137,41.5744,911.3038],[25.017,41.5782,907.7709],[25.0196,41.5785,795.2734]]]]}
,"properties": {"GID_2": "BGR.20.6_1","GID_0": "BGR","country": "Bulgaria","GID_1": "BGR.20_1","state": "Smolyan","NL_NAME_1": "Смолян","county": "Madan","VARNAME_2": "NA","NL_NAME_2": "Мадан","TYPE_2": "Obshtina","ENGTYPE_2": "Municipality","CC_2": "NA","HASC_2": "BG.SM.MA","name": "Madan.county","area_km2": 144.9235,"hist_schema_id": "Elevation0-9000","hist_area_km2": {"550": 0.0317,"575": 0.7617,"600": 1.6186,"625": 2.063,"650": 2.6502,"675": 3.3171,"700": 4.6983,"725": 5.4764,"750": 7.5089,"775": 9.2559,"800": 10.05,"825": 10.8279,"850": 11.4635,"875": 10.3838,"900": 8.6214,"925": 7.7954,"950": 7.5731,"975": 6.4141,"1000": 5.811,"1025": 5.3662,"1050": 5.1601,"1075": 3.8899,"1100": 3.6526,"1125": 2.859,"1150": 2.5894,"1175": 2.0812,"1200": 1.2393,"1225": 0.6356,"1250": 0.2384,"1275": 0.2702,"1300": 0.2543,"1325": 0.0954,"1350": 0.1272,"1375": 0.0954,"1400": 0.0477}}}