{"type":"Feature","properties":{"GID_2":"BGR.8.1_1","GID_0":"BGR","country":"Bulgaria","GID_1":"BGR.8_1","state":"Kyustendil","NL_NAME_1":"Кюстендил","county":"Boboshevo","VARNAME_2":"NA","NL_NAME_2":"Бобошево","TYPE_2":"Obshtina","ENGTYPE_2":"Municipality","CC_2":"NA","HASC_2":"BG.KY.BS","name":"Boboshevo.county"},
"geometry":{"type": "MultiPolygon","coordinates": [[[[22.9269,42.1994,516.9158],[22.9154,42.1862,818.808],[22.9095,42.1699,1015.1263],[22.9039,42.1606,991.8976],[22.9174,42.1621,982.9257],[22.9434,42.1607,857.1558],[22.9521,42.1543,856.8534],[22.9628,42.1382,590.9661],[22.9754,42.1334,557.9472],[22.9841,42.1269,438.4814],[22.986,42.1141,570.2981],[22.9919,42.1115,551.3089],[23.007,42.1133,508.6995],[23.0147,42.1174,419.8672],[23.0222,42.1266,395.7607],[23.0277,42.1288,363.0592],[23.0598,42.1329,571.5535],[23.0704,42.1356,554.5925],[23.0733,42.145,609.0212],[23.0778,42.1497,597.767],[23.0847,42.1522,652.7239],[23.1148,42.1563,815.4281],[23.1411,42.1635,917.5307],[23.1528,42.1705,1222.52],[23.164,42.1847,1662.6283],[23.1534,42.189,1374.4036],[23.1455,42.1893,1278.7896],[23.112,42.1845,751.0425],[23.0889,42.1845,573.3349],[23.0794,42.1866,562.1016],[23.0703,42.1916,483.9886],[23.0554,42.2057,415.4747],[23.0356,42.2057,467.129],[23.0285,42.2081,507.4285],[23.028199999999998,42.2135,566.0015],[23.0365,42.2241,591.7742],[23.0322,42.2305,719.2062],[23.0231,42.2317,743.1022],[23.0049,42.2317,649.9119],[22.9947,42.2257,754.334],[22.9779,42.2219,936.1063],[22.9645,42.2143,723.7413],[22.9472,42.2106,776.3154],[22.9269,42.1994,516.9158]]]]}}