{"type": "Feature","bbox": [23.7087,42.2098,23.8177,42.3381],"geometry": {"type": "MultiPolygon","coordinates": [[[[23.7182,42.3381,897.8387],[23.709,42.3256,836.011],[23.7087,42.3225,772.6714],[23.7113,42.3189,765.8535],[23.7188,42.3148,709.8456],[23.7191,42.3127,712.2125],[23.7162,42.3055,741.8074],[23.7123,42.3027,764.1179],[23.7091,42.296,870.9706],[23.7095,42.292,965.7667],[23.7146,42.2851,898.6851],[23.717,42.2744,1006.4225],[23.7153,42.2564,1272.2561],[23.7162,42.248,1476.7428],[23.7144,42.2393,1751.6052],[23.7148,42.2098,2286.5298],[23.7189,42.2128,2147.9661],[23.7305,42.2146,1944.7351],[23.7369,42.2178,2039.1124],[23.7446,42.2259,1696.5348],[23.7537,42.2393,1630.1439],[23.7703,42.2445,1421.5251],[23.78,42.2522,1357.8973],[23.7847,42.2595,1294.7542],[23.7936,42.2672,946.2047],[23.8116,42.2764,674.6146],[23.8177,42.286,621.1603],[23.8165,42.2913,590.8674],[23.8145,42.2932,597.374],[23.7907,42.2948,646.0577],[23.7832,42.2971,646.3123],[23.7803,42.3026,630.031],[23.7824,42.3206,591.9979],[23.7814,42.3301,663.3674],[23.7788,42.3324,662.9009],[23.7714,42.3342,728.7155],[23.7507,42.3313,783.8632],[23.7347,42.3374,868.9095],[23.7182,42.3381,897.8387]]]]}
,"properties": {"GID_2": "BGR.21.6_1","GID_0": "BGR","country": "Bulgaria","GID_1": "BGR.21_1","state": "Sofia","NL_NAME_1": "Sofija","county": "DolnaBanya","VARNAME_2": "NA","NL_NAME_2": "NA","TYPE_2": "Obshtina","ENGTYPE_2": "Municipality","CC_2": "NA","HASC_2": "BG.SF.DB","name": "DolnaBanya.county","area_km2": 72.23551,"hist_schema_id": "Elevation0-9000","hist_area_km2": {"600": 1.42684,"625": 3.10481,"650": 4.26523,"675": 4.97083,"700": 5.3001,"725": 5.04935,"750": 4.04596,"775": 3.59121,"800": 3.24602,"825": 2.77549,"850": 2.22667,"875": 1.94466,"900": 1.27052,"925": 1.004,"950": 0.72164,"975": 0.70598,"1000": 1.0041,"1025": 0.81586,"1050": 0.92569,"1075": 1.09829,"1100": 1.03556,"1125": 0.97284,"1150": 0.80025,"1175": 0.86302,"1200": 0.72181,"1225": 1.08276,"1250": 0.8317,"1275": 0.69047,"1300": 0.87882,"1325": 0.7219,"1350": 0.9573,"1375": 0.80037,"1400": 0.67484,"1425": 0.94165,"1450": 0.76903,"1475": 0.62779,"1500": 0.53364,"1525": 0.47088,"1550": 0.58076,"1575": 0.4238,"1600": 0.518,"1625": 0.47091,"1650": 0.43952,"1675": 0.37675,"1700": 0.65933,"1725": 0.45527,"1750": 0.39249,"1775": 0.48667,"1800": 0.43961,"1825": 0.4239,"1850": 0.3768,"1875": 0.3454,"1900": 0.37682,"1925": 0.26691,"1950": 0.17271,"1975": 0.12561,"2000": 0.0628,"2025": 0.15702,"2050": 0.06281,"2075": 0.10991,"2100": 0.09421,"2125": 0.04711,"2150": 0.0314,"2175": 0.06281,"2200": 0.06281,"2225": 0.09422,"2250": 0.15703,"2275": 0.09422}}}