{"type": "Feature","bbox": [25.1355,41.2348,25.5442,41.4529],"geometry": {"type": "MultiPolygon","coordinates": [[[[25.1527,41.3945,533.1078],[25.1588,41.3826,379.0981],[25.1578,41.3772,500.1706],[25.1509,41.3634,479.0947],[25.1505,41.3544,437.4556],[25.1576,41.3496,446.9561],[25.1596,41.3365,540.8308],[25.1355,41.32,554.0408],[25.1416,41.3204,517.1098],[25.1476,41.3154,543.4355],[25.1581,41.3155,545.3774],[25.161,41.3129,521.0799],[25.1617,41.3101,615.7964],[25.1726,41.3061,630.214],[25.1701,41.3002,478.9305],[25.1747,41.2971,522.8388],[25.1746,41.2955,471.8552],[25.1811,41.2923,682.3126],[25.1879,41.2937,688.2057],[25.1914,41.2899,569.1279],[25.2001,41.2893,657.9185],[25.2058,41.2811,557.5804],[25.21,41.2809,562.6008],[25.2139,41.2774,516.7929],[25.2169,41.2672,509.474],[25.2145,41.2628,514.8835],[25.2168,41.2627,611.3421],[25.2247,41.2527,595.9596],[25.2233,41.2456,648.1473],[25.2294,41.2436,736.3931],[25.2416,41.2455,1065.1218],[25.2508,41.2445,1098.9634],[25.2654,41.2417,1149.1703],[25.2795,41.2348,1299.9105],[25.284,41.242,1170.2554],[25.2883,41.2439,1157.1716],[25.3075,41.2432,1223.0197],[25.3196,41.2405,1113.8154],[25.3228,41.2418,1138.834],[25.328,41.2403,1079.0972],[25.3335,41.2471,903.8564],[25.3418,41.2474,1086.8008],[25.3449,41.2503,992.3954],[25.3483,41.2499,964.1483],[25.3516,41.255,750.6729],[25.3593,41.2592,753.8277],[25.377,41.2559,973.4739],[25.3809,41.2577,1064.6951],[25.3868,41.2573,1054.3984],[25.3952,41.2618,893.2162],[25.4017,41.2609,942.903],[25.404,41.2645,869.1187],[25.4089,41.2657,781.3979],[25.4152,41.2638,722.1954],[25.4205,41.2642,747.3282],[25.4242,41.2745,746.212],[25.4348,41.2751,874.691],[25.4439,41.28,894.1956],[25.4501,41.2802,919.098],[25.4543,41.2828,853.8575],[25.461,41.2818,927.7135],[25.4669,41.2874,819.0562],[25.5005,41.2855,702.4289],[25.5097,41.2832,660.3174],[25.5186,41.2768,637.5656],[25.5246,41.2782,686.5976],[25.5263,41.2864,590.6947],[25.5285,41.2888,603.5984],[25.5275,41.2906,632.045],[25.5311,41.2936,690.4524],[25.5338,41.2991,626.8545],[25.5358,41.2997,665.0568],[25.5378,41.3082,697.7317],[25.5442,41.3112,792.1576],[25.5424,41.316,776.009],[25.5438,41.3234,551.4895],[25.5391,41.3232,567.9216],[25.5407,41.337,482.6674],[25.538,41.345,456.3521],[25.5343,41.3478,560.7357],[25.5233,41.3507,624.6421],[25.4962,41.3448,624.7993],[25.4803,41.3463,617.1807],[25.4758,41.3496,493.0518],[25.4751,41.3553,500.0027],[25.4839,41.371,412.0702],[25.4854,41.377,465.8522],[25.4836,41.3861,554.1177],[25.478,41.3973,527.7524],[25.4758,41.4055,485.6017],[25.4791,41.4192,542.8079],[25.4838,41.4246,534.8546],[25.4727,41.4365,695.2856],[25.4623,41.4447,619.037],[25.4509,41.4511,555.5181],[25.443,41.4529,574.0926],[25.4359,41.4527,515.1121],[25.4006,41.4348,487.5042],[25.3863,41.4309,301.698],[25.3747,41.4328,435.6051],[25.3663,41.4454,269.0126],[25.3635,41.4436,280.1109],[25.3535,41.4427,290.3581],[25.3321,41.4496,489.063],[25.3209,41.449,462.5],[25.3147,41.446,442.9339],[25.31,41.4417,476.7076],[25.3065,41.4332,441.948],[25.2987,41.4291,420.9792],[25.2672,41.429,529.9702],[25.2545,41.4364,439.5793],[25.2472,41.4379,437.6221],[25.2344,41.43,557.3791],[25.2152,41.4284,537.0326],[25.2138,41.4245,490.2258],[25.2149,41.4231,504.6697],[25.2305,41.4195,456.8876],[25.2318,41.4166,450.574],[25.208,41.4122,614.5153],[25.1819,41.402,511.8301],[25.1527,41.3945,533.1078]]]]}
,"properties": {"GID_2": "BGR.7.5_1","GID_0": "BGR","country": "Bulgaria","GID_1": "BGR.7_1","state": "Kardzhali","NL_NAME_1": "Кърджалийска","county": "Kirkovo","VARNAME_2": "NA","NL_NAME_2": "Кирково","TYPE_2": "Obshtina","ENGTYPE_2": "Municipality","CC_2": "NA","HASC_2": "BG.KZ.KI","name": "Kirkovo.county","area_km2": 543.2603,"hist_schema_id": "Elevation0-9000","hist_area_km2": {"250": 0.1113,"275": 9.1439,"300": 19.6132,"325": 26.7746,"350": 34.7808,"375": 36.8196,"400": 35.2144,"425": 38.1138,"450": 39.3745,"475": 35.2214,"500": 36.1618,"525": 33.713,"550": 32.4094,"575": 30.1996,"600": 24.8369,"625": 20.4916,"650": 16.6568,"675": 13.3144,"700": 10.8947,"725": 8.1404,"750": 6.6435,"775": 5.1465,"800": 4.2225,"825": 3.7606,"850": 3.0755,"875": 2.9163,"900": 1.9602,"925": 1.9444,"950": 1.7214,"975": 1.2911,"1000": 1.0042,"1025": 1.2433,"1050": 0.7173,"1075": 0.7652,"1100": 0.7811,"1125": 0.6217,"1150": 0.6695,"1175": 0.5739,"1200": 0.6058,"1225": 0.4942,"1250": 0.4942,"1275": 0.3507,"1300": 0.1116,"1325": 0.1116,"1350": 0.0478}}}