{"type":"Feature","properties":{"GID_2":"BGR.16.4_1","GID_0":"BGR","country":"Bulgaria","GID_1":"BGR.16_1","state":"Ruse","NL_NAME_1":"Русенска","county":"Ivanovo","VARNAME_2":"NA","NL_NAME_2":"Ива́ново","TYPE_2":"Obshtina","ENGTYPE_2":"Municipality","CC_2":"NA","HASC_2":"BG.RS.IV","name":"Ivanovo.county"},
"geometry":{"type": "MultiPolygon","coordinates": [[[[26.141,43.659,124.2939],[26.1377,43.6616,177.8259],[26.128,43.6781,182.9612],[26.1057,43.706,174.9274],[26.1052,43.7146,164.4081],[26.1083,43.727,164.7133],[26.1045,43.7357,147.9406],[26.0757,43.7619,123.8704],[26.0671,43.7658,156.678],[26.0392,43.7866,156.1141],[26.0291,43.7905,158.2009],[26.0082,43.7903,160.656],[25.9491,43.77,55.8016],[25.9256,43.7662,89.7387],[25.9058,43.7698,142.2152],[25.8815,43.7804,14.0],[25.8565,43.7611,14.0],[25.8474,43.7567,14.0],[25.8253,43.7501,14.0],[25.8231,43.752,14.0],[25.8131,43.7461,14.0],[25.8028,43.7369,14.0],[25.794,43.7207,14.0],[25.7835,43.7118,14.0],[25.7898,43.7016,35.828],[25.7962,43.6946,55.3231],[25.8018,43.691,56.4902],[25.8095,43.6891,91.3438],[25.8299,43.6879,96.753],[25.8375,43.6841,134.4113],[25.8477,43.6743,118.965],[25.8638,43.6501,131.5201],[25.8864,43.6485,176.6599],[25.915,43.6522,167.4155],[25.9257,43.6449,150.1168],[25.9343,43.6451,188.087],[25.9395,43.6433,192.6292],[25.9454,43.6302,218.721],[25.9681,43.6141,93.5239],[25.9684,43.601,115.2152],[25.9829,43.5965,80.0444],[25.9993,43.5879,241.6907],[26.0083,43.5855,222.8664],[26.0211,43.5868,226.6918],[26.0333,43.5852,259.8543],[26.048,43.5887,255.896],[26.0602,43.5942,247.6528],[26.0691,43.6003,186.1984],[26.0718,43.6052,156.5936],[26.0711,43.6116,96.4173],[26.0622,43.6213,125.6104],[26.0543,43.6345,172.5851],[26.0536,43.6402,147.5896],[26.0555,43.6419,118.3899],[26.0588,43.6433,129.0217],[26.09,43.6443,223.5212],[26.0951,43.6467,217.0256],[26.1024,43.6533,185.5847],[26.1074,43.6552,156.5115],[26.1307,43.6558,112.9717],[26.138,43.6568,134.1198],[26.141,43.659,124.2939]]]]}}