{"type":"Feature","properties":{"GID_2":"BGR.4.2_1","GID_0":"BGR","country":"Bulgaria","GID_1":"BGR.4_1","state":"Gabrovo","NL_NAME_1":"Габрово","county":"Gabrovo","VARNAME_2":"NA","NL_NAME_2":"Габрово","TYPE_2":"City","ENGTYPE_2":"City","CC_2":"NA","HASC_2":"BG.GB.GA","name":"Gabrovo.county"},
"geometry":{"type": "MultiPolygon","coordinates": [[[[25.3284,42.986,338.9041],[25.315,42.9842,357.9346],[25.2897,42.9743,393.4942],[25.2746,42.9737,524.452],[25.2608,42.977,473.7731],[25.2474,42.9778,402.2794],[25.2363,42.9843,336.0868],[25.2201,42.9853,342.1129],[25.2103,42.9901,353.087],[25.2062,42.9904,329.3688],[25.1901,42.9813,313.4006],[25.1853,42.977,352.2258],[25.174,42.9739,253.3295],[25.1701,42.9705,248.943],[25.1846,42.9506,260.505],[25.1895,42.9347,264.2354],[25.1885,42.9329,267.7108],[25.1851,42.9322,267.3755],[25.1649,42.9359,319.1446],[25.1598,42.9322,353.552],[25.1533,42.9106,283.5088],[25.1529,42.9026,336.6551],[25.1537,42.8954,377.7819],[25.1586,42.8877,474.7467],[25.1593,42.878,480.4122],[25.158,42.8722,504.4684],[25.1595,42.8656,678.3092],[25.1671,42.8581,937.5768],[25.1961,42.8564,689.9362],[25.1988,42.8428,753.4048],[25.2036,42.8374,676.2023],[25.2147,42.8303,633.5508],[25.2165,42.8251,592.6625],[25.2155,42.8172,745.1422],[25.2288,42.8036,691.0289],[25.226,42.7822,918.6636],[25.2263,42.7725,1148.7402],[25.2359,42.7689,1260.431],[25.2513,42.7584,1308.7756],[25.2669,42.7534,1178.616],[25.285,42.7431,1180.1045],[25.2913,42.7417,1038.219],[25.32,42.7455,1225.3123],[25.3322,42.7451,1089.8868],[25.38,42.7354,1048.6919],[25.4154,42.7322,1414.698],[25.431,42.7269,1262.5156],[25.451,42.7229,1135.8774],[25.4599,42.7224,1268.6838],[25.4637,42.7239,1197.8191],[25.4661,42.7269,1214.7974],[25.467,42.7321,1177.7384],[25.4562,42.7591,1221.7773],[25.457,42.7617,1260.2563],[25.4624,42.763,1275.0414],[25.4593,42.7712,1047.7891],[25.459,42.7892,797.6009],[25.457,42.7937,756.5595],[25.4518,42.7991,834.9918],[25.442,42.8052,729.9977],[25.4378,42.812,787.1998],[25.4378,42.8168,754.7053],[25.4442,42.8325,687.7333],[25.4695,42.8603,451.3441],[25.4856,42.8745,458.5096],[25.4906,42.8871,488.0943],[25.4778,42.9007,612.7941],[25.4745,42.9152,443.9377],[25.4694,42.9216,363.1739],[25.4668,42.9304,412.3541],[25.4627,42.9525,334.0605],[25.4554,42.9639,276.6294],[25.4442,42.9686,254.7284],[25.4268,42.9685,324.4899],[25.4142,42.9632,565.1656],[25.4084,42.9626,552.7178],[25.395,42.9642,663.3857],[25.3693,42.9643,415.8658],[25.3584,42.9666,579.9878],[25.3499,42.969,508.9571],[25.3322,42.981,325.5899],[25.3284,42.986,338.9041]]]]}}