{"type":"Feature","properties":{"GID_2":"BGR.15.2_1","GID_0":"BGR","country":"Bulgaria","GID_1":"BGR.15_1","state":"Razgrad","NL_NAME_1":"Разград","county":"Kubrat","VARNAME_2":"Balbunar","NL_NAME_2":"Кубрат","TYPE_2":"Obshtina","ENGTYPE_2":"Municipality","CC_2":"NA","HASC_2":"BG.RG.KU","name":"Kubrat.county"},
"geometry":{"type": "MultiPolygon","coordinates": [[[[26.6672,43.8816,160.5707],[26.6292,43.8898,129.5356],[26.6208,43.8939,111.3621],[26.6132,43.9037,96.0716],[26.61,43.9221,98.6356],[26.5917,43.9372,95.8485],[26.5857,43.9464,78.5675],[26.5732,43.9483,75.2397],[26.5592,43.9475,32.6968],[26.5345,43.9417,52.3873],[26.5093,43.9331,115.1805],[26.4986,43.9319,74.5512],[26.4888,43.9341,114.3429],[26.4835,43.9402,105.1267],[26.4781,43.9508,106.3508],[26.4706,43.9549,76.1612],[26.4499,43.9565,40.9888],[26.4286,43.9615,41.7255],[26.4119,43.9584,48.9487],[26.3876,43.9589,45.8862],[26.3793,43.9499,61.9783],[26.3454,43.9342,69.1394],[26.3383,43.924,63.1264],[26.3274,43.9179,66.5576],[26.3198,43.9111,86.1469],[26.3157,43.9049,69.1353],[26.3166,43.8939,133.6965],[26.312,43.8886,131.1292],[26.3133,43.8759,134.4156],[26.3058,43.8674,113.4446],[26.2713,43.8653,110.1838],[26.2571,43.8548,105.8247],[26.2477,43.8534,102.6076],[26.2446,43.844,133.0535],[26.2404,43.8397,138.023],[26.233,43.8258,133.9474],[26.2334,43.8203,149.2627],[26.2393,43.8113,138.898],[26.2601,43.7991,143.5226],[26.2697,43.7959,120.8513],[26.3023,43.7979,151.7172],[26.3439,43.7981,143.644],[26.3628,43.8015,176.1024],[26.375,43.8,200.9922],[26.3796,43.8022,182.6337],[26.3819,43.8058,189.6108],[26.3863,43.8072,186.621],[26.3912,43.8061,173.6194],[26.396,43.7998,214.6567],[26.3988,43.7998,215.5089],[26.4096,43.8066,200.4812],[26.4191,43.8085,215.1322],[26.4253,43.8067,203.654],[26.4416,43.792,160.0684],[26.455,43.7856,193.4471],[26.496,43.7771,220.3232],[26.5208,43.7745,198.1101],[26.5255,43.7803,202.6412],[26.5678,43.7827,252.8637],[26.5712,43.785,241.3873],[26.5798,43.8023,175.5525],[26.586,43.8099,222.3175],[26.597,43.8127,218.0695],[26.608,43.8097,233.5334],[26.6144,43.8045,252.0157],[26.6407,43.7899,245.4974],[26.6486,43.7878,257.211],[26.653199999999998,43.7884,263.678],[26.6565,43.7916,271.8779],[26.6563,43.8008,226.8396],[26.6362,43.8283,230.5923],[26.6346,43.838,178.8295],[26.6377,43.8471,178.8221],[26.6466,43.8605,212.6613],[26.6672,43.8816,160.5707]]]]}}