{"type": "Feature","bbox": [25.5731,43.327,26.0292,43.5399],"geometry": {"type": "MultiPolygon","coordinates": [[[[25.7518,43.5399,258.186],[25.7411,43.5288,208.9897],[25.7267,43.5198,114.5569],[25.7214,43.519,136.2899],[25.7108,43.5211,47.3704],[25.7012,43.5202,26.2869],[25.6963,43.5137,26.4745],[25.696,43.5005,45.2235],[25.6909,43.4952,46.1517],[25.6736,43.4896,31.1487],[25.6649,43.4906,60.7342],[25.6608,43.4928,64.606],[25.6535,43.5165,79.002],[25.6511,43.5203,76.2831],[25.6446,43.5244,109.3762],[25.6306,43.5247,127.7889],[25.621,43.522,123.3307],[25.607,43.515,105.9989],[25.5918,43.5047,91.4763],[25.5886,43.504,60.0449],[25.589,43.4817,96.3932],[25.5865,43.4701,104.5852],[25.590699999999998,43.4539,171.008],[25.5838,43.4472,125.6098],[25.5742,43.4411,140.6652],[25.5731,43.4376,135.8708],[25.579,43.4315,108.3365],[25.5974,43.4235,135.5424],[25.6218,43.4184,152.3135],[25.63,43.4111,110.6025],[25.6665,43.402,37.1454],[25.6708,43.3988,33.007],[25.6792,43.3962,61.8279],[25.6841,43.3958,78.2893],[25.6909,43.3982,91.2127],[25.7022,43.4102,83.2511],[25.709,43.413,90.308],[25.7179,43.4127,83.8615],[25.7241,43.4089,104.9629],[25.7557,43.3809,337.6896],[25.7859,43.3694,241.8391],[25.7989,43.3712,268.2032],[25.8258,43.3792,200.9238],[25.8741,43.3693,362.9238],[25.8954,43.3696,338.3242],[25.9288,43.381,333.7041],[25.9426,43.3817,258.3523],[25.9516,43.3777,333.0192],[25.9586,43.3617,284.1812],[25.9615,43.3472,314.7187],[25.9681,43.3349,234.778],[25.9719,43.3326,233.41],[26.0011,43.327,253.4626],[26.0269,43.328,313.9951],[26.0247,43.3423,323.964],[26.0292,43.365,411.0587],[26.0283,43.3698,407.343],[26.0237,43.3747,413.3962],[26.0146,43.3815,423.8384],[26.0033,43.3867,402.6658],[25.9932,43.3888,411.0444],[25.9777,43.3949,302.3665],[25.9564,43.4109,282.0689],[25.9553,43.4132,279.1992],[25.9574,43.4165,289.6984],[25.9345,43.4367,242.1949],[25.9189,43.4452,157.2828],[25.8952,43.4513,129.563],[25.8891,43.4558,201.1518],[25.8799,43.4595,226.1436],[25.8737,43.4688,239.7698],[25.8754,43.477,148.7323],[25.8643,43.4766,153.5439],[25.8514,43.4719,202.1809],[25.8351,43.4777,231.4817],[25.8204,43.4738,242.9953],[25.8113,43.4751,249.904],[25.8036,43.4842,276.997],[25.8003,43.4947,262.3714],[25.7945,43.5006,243.8825],[25.7876,43.522,267.4267],[25.7781,43.5277,275.371],[25.7554,43.5364,213.3445],[25.7518,43.5399,258.186]]]]}
,"properties": {"GID_2": "BGR.16.2_1","GID_0": "BGR","country": "Bulgaria","GID_1": "BGR.16_1","state": "Ruse","NL_NAME_1": "Русенска","county": "Byala","VARNAME_2": "NA","NL_NAME_2": "Бяла","TYPE_2": "Obshtina","ENGTYPE_2": "Municipality","CC_2": "NA","HASC_2": "BG.VN.BY","name": "Byala.county","area_km2": 377.8586,"hist_schema_id": "Elevation0-9000","hist_area_km2": {"25": 22.627,"50": 16.6527,"75": 25.132,"100": 31.78,"125": 33.3947,"150": 33.2268,"175": 30.5873,"200": 25.1105,"225": 26.8991,"250": 29.3479,"275": 37.8164,"300": 26.4773,"325": 12.3737,"350": 8.0605,"375": 6.8281,"400": 6.782,"425": 4.3618,"450": 0.4007}}}