{"type": "Feature","bbox": [27.3945,43.8458,27.7252,44.0482],"geometry": {"type": "MultiPolygon","coordinates": [[[[27.7252,43.9567,96.8926],[27.7115,43.9597,178.1988],[27.6751,44.0301,159.776],[27.645,44.0482,52.2483],[27.6134,44.0125,179.3819],[27.4702,44.0228,163.2778],[27.4091,44.0138,139.0497],[27.4116,44.012,154.4156],[27.4134,44.0045,159.3681],[27.4097,43.9958,144.5903],[27.3963,43.9777,104.7847],[27.3951,43.9723,55.2448],[27.3956,43.9668,59.3275],[27.4027,43.955,134.1714],[27.4047,43.945,84.8911],[27.4015,43.9362,56.0045],[27.4011,43.9274,116.0519],[27.403,43.9173,138.5928],[27.395,43.8968,143.488],[27.3945,43.8727,170.8744],[27.3996,43.8633,159.4471],[27.4078,43.8555,186.2373],[27.4241,43.8669,171.7176],[27.4424,43.8702,125.9285],[27.4504,43.8695,109.6881],[27.4687,43.8498,171.8299],[27.4736,43.8466,171.8585],[27.4847,43.8458,212.769],[27.5,43.8564,158.9457],[27.5005,43.8603,185.8375],[27.5102,43.8791,211.1172],[27.516,43.9053,209.5496],[27.5199,43.9125,190.427],[27.527,43.9147,208.0796],[27.5321,43.9129,209.5466],[27.5426,43.9054,211.8365],[27.5579,43.8995,191.6304],[27.58,43.9038,189.0],[27.5936,43.91,197.6296],[27.5948,43.9164,187.4486],[27.5866,43.9245,197.7351],[27.5849,43.9327,199.645],[27.5877,43.9373,197.0084],[27.5927,43.9391,194.6186],[27.6034,43.9478,142.9532],[27.6046,43.956,176.3285],[27.6116,43.9678,176.1146],[27.6252,43.9791,92.2156],[27.6426,43.9812,105.1574],[27.66,43.9856,139.2975],[27.6838,43.9855,111.7577],[27.7011,43.966,173.687],[27.7113,43.9589,178.1988],[27.7252,43.9567,96.8926]]]]}
,"properties": {"GID_2": "BGR.18.4_1","GID_0": "BGR","country": "Bulgaria","GID_1": "BGR.18_1","state": "Silistra","NL_NAME_1": "Силистра","county": "Kainardzha","VARNAME_2": "Kaynardzha","NL_NAME_2": "NA","TYPE_2": "Obshtina","ENGTYPE_2": "Municipality","CC_2": "NA","HASC_2": "BG.SI.KA","name": "Kainardzha.county","area_km2": 283.5441,"hist_schema_id": "Elevation0-9000","hist_area_km2": {"25": 1.1738,"50": 3.9199,"75": 12.0828,"100": 26.6286,"125": 43.0813,"150": 70.3361,"175": 91.2935,"200": 33.8363,"225": 1.1919}}}